Company Name,Address,City,Company Stage,Website,Focus Areas,Description,Clinical Trials,SEC Filings,Latitude,Longitude
10X Genomics,"6230 Stoneridge Mall Rd, Pleasanton, CA 94588, USA",Pleasanton,Public,https://www.10xgenomics.com/,Genomics Platform,,0,10.0,37.6943023,-121.9212663
1Cell.Ai,"320 Hatch Dr, Foster City, CA 94404, USA",Cupertino,Private,https://1cell.ai/,Cancer Diagnostics,,0,,37.567417,-122.2747414
3T Biosciences,"230 E Grand Ave. a, South San Francisco, CA 94080, USA",South SF,Private with SEC Filings,https://3tbiosciences.com/,TCR Therapies,,2,10.0,37.6536246,-122.3976712
4D Molecular Therapeutics,"5858 Horton St #455, Emeryville, CA 94608, USA",Emeryville,Public,https://4dmoleculartherapeutics.com/,Gene Therapy,,10,10.0,37.8401509,-122.2906863
89bio,"655 Montgomery St 15th Floor, San Francisco, CA 94111, USA",San Francisco,Public,https://89bio.com/,Liver Treatments,,7,10.0,37.7952699,-122.4035731
AAT Bioquest,"5775 W Las Positas Blvd, Pleasanton, CA 94588, USA",Pleasanton,Private,https://www.aatbio.com/,Bioanalytical research reagents and kits; various contract research offerings,,0,,37.6859291,-121.8927876
ACI Medical,"1857 Diamond St # A, San Marcos, CA 92078, USA",San Marcos,Private with SEC Filings,https://www.acimedical.com/,Arterial Assist Device,,0,10.0,33.1044269,-117.2171986
ACON Laboratories,"9440 Carroll Park Dr, San Diego, CA 92121, USA",San Diego,Defunct,https://www.aconlabs.com/,Diagnostics & Devices,,0,10.0,32.88729,-117.1729834
ACS Diagnostics,"25651 Atlantic Ocean Ste. A15, Lake Forest, 926301 Hughes, Irvine, CA 92618, USA",Irvine,Clinical Stage,https://acsd4u.com/,Cardiac Instrumentation,,3,,33.6668249,-117.6829927
ACT Biotech Inc,"717 Market St, San Francisco, CA 94103, USA",,Defunct,http://actbiotech.com/,,"ACT Biotech Inc is a San Francisco-based, privately held biopharmaceutical company focused on the development and commercialization of targeted cancer drugs. It was founded in 2008.",1,10.0,37.7868614,-122.4036958
ADARx Pharmaceuticals,"5871 Oberlin Dr Suite 200, San Diego, CA 92121, USA",San Diego,Private with SEC Filings,https://www.adarx.com/,RNA Therapeutics,,7,10.0,32.89509960000001,-117.1921234
ADRx,"515 Marin St, Thousand Oaks, CA 91360, USA",Thousand Oaks,Defunct,https://www.adrxpharma.com/,Amyloid Treatments,,0,10.0,34.1843556,-118.8817294
ADS Biosystems,"5820 Oberlin Dr STE 104, San Diego, CA 92121, USA",San Diego,Private with SEC Filings,https://adsbiosystems.com/,Cancer Diagnostics,,0,10.0,32.893965,-117.1940942
AEON Biopharma,"5 Park Plaza, Irvine, CA 92614, USA",Irvine,Public,https://aeonbiopharma.com/,Therapeutic Botulinum Toxins,,4,10.0,33.6765029,-117.837379
AG Scientific,"9950 Scripps Lake Dr #104, San Diego, CA 92131, USA",San Diego,Private with SEC Filings,https://agscientific.com/?SID=af66d54e78ae8bfb89810fdeda0e7f81,Biomarker Preservation & Stabilizing Reagents for In-vitro Diagnostic Development,,0,10.0,32.9118499,-117.1112899
AIVITA Biomedical,"18301 Von Karman Ave #130, Irvine, CA 92612, USA",Irvine,Private with SEC Filings,http://aivitabiomedical.com/,Stem Cell Therapy,,7,10.0,33.6777078,-117.8544951
ALX Oncology,"323 Allerton Ave, South San Francisco, CA 94080, USA",South SF,Public,https://alxoncology.com/,Immuno-oncology,,9,10.0,37.6526319,-122.3921701
AM Chemicals,"1060 Joshua Way, Vista, CA 92081, USA",Vista,Defunct,https://www.amchemicals.com/,Solid supports and reagents for robust oligonucleotide synthesis,,0,10.0,33.148398,-117.229994
AN2 Therapeutics,"1300 El Camino Real Suite 100, Menlo Park, CA 94025, USA",Menlo Park,Public,https://www.an2therapeutics.com/,Novel medicines targeting infectious diseases,,6,10.0,37.4557547,-122.1854195
APstem Therapeutics,"48371 Fremont Blvd #103, Fremont, CA 94538, USA",Fremont,Private,https://apstemtx.com/,Stem Cell Technology,,0,,37.4666249,-121.9346006
ATUM,"37950 Central Ct, Newark, CA 94560, USA",Newark,Private with SEC Filings,https://www.atum.bio/,Gene Synthesis; Protein Expression and Engineering,,0,10.0,37.52061080000001,-122.0384445
Aardvark Therapeutics,"4370 La Jolla Village Dr Suite 1050, San Diego, CA 92122, USA",San Diego,Public,https://aardvarktherapeutics.com/,Obesity & Genetic Metabolic Disorders,,6,10.0,32.8740097,-117.2111392
Aarvik Therapeutics,"Hayward, CA 94544, USA",Hayward,Private with SEC Filings,https://aarviktx.com/,Antibody-Drug Conjugates,,0,10.0,37.6067209,-122.0521248
Ab Studio,"3541 Investment Blvd Suite 3, Hayward, CA 94545, USA",Hayward,Private with SEC Filings,https://www.antibodystudio.com/,Antibody humanization and optimization service,,0,10.0,37.6251376,-122.120878
AbTherx,"319 N Bernardo Ave, Mountain View, CA 94043, USA",Mountain View,Private with SEC Filings,https://www.abtherx.com/,Therapeutic Antibody Discovery,,0,10.0,37.3873687,-122.0488103
Abalone Bio,"1250 45th St Suite 520, Emeryville, CA 94608, USA",Emeryville,Private with SEC Filings,https://www.abalonebio.com/,Antibody Therapies,,0,10.0,37.8336542,-122.2848017
Abbiotec,"938 S Andreasen Dr Suite I, Escondido, CA 92029, USA",Escondido,Private,https://www.abbiotec.com/,Research Antibodies & Peptides,,0,,33.113311,-117.1142081
AbboMax,"2528 Qume Dr STE 8, San Jose, CA 95131, USA",San Jose,Private,https://www.abbomax.com/,Antibody; peptide; and assay product and service provider,,0,,37.400379,-121.888225
Abbott,"2321 N Loop Rd, Alameda, CA 94502, USA",Alameda,Private with SEC Filings,https://www.abbott.com/,Diabetes Care,,14,10.0,37.730565,-122.2469759
Abcam,"860 Auburn Ct, Fremont, CA 94538, USA",Fremont,Private with SEC Filings,https://www.abcam.com/en-us,Antibodies,,0,10.0,37.4811923,-121.9298533
Abcentra,"1925 Century Park E #1700, Los Angeles, CA 90067, USA",Los Angeles,Private with SEC Filings,https://abcentra.com/,Monoclonal Antibodies,,2,10.0,34.0606064,-118.4144916
Abeomics,"9853 Pacific Heights Blvd Ste. D, San Diego, CA 92121, USA",San Diego,Private,https://www.abeomics.com/,Contract Research,,0,,32.8993645,-117.1878792
Abilita Therapeutics,"5785 Oberlin Dr, San Diego, CA 92121, USA",San Diego,Private,https://abilitatx.com/,Method for creating GPCR-targeting antibodies,,0,,32.8929647,-117.1935375
Abiocode,"29397 Agoura Rd, Agoura Hills, CA 91301, USA",Agoura Hills,Private,http://www.abiocode.com/,Research Antibodies,,0,,34.144534,-118.765643
Abiosciences,"280 Utah Ave, South San Francisco, CA 94080, USA",South SF,Private,https://www.abiosciences.com/,Single cell sequencing; bioinformatics; AI-aided molecular design,,0,,37.6464465,-122.3948255
Ablexis,"10581 Roselle St, San Diego, CA 92121, USA",San Diego,Defunct,https://www.ablexis.com/,In vivo monoclonal antibody discovery platform; engineered mice,,0,10.0,32.8962845,-117.2207397
Abterra Biosciences,"11588 Sorrento Valley Rd # 16, San Diego, CA 92121, USA",San Diego,Private,https://abterrabio.com/,Antibody Discovery & Services,,0,,32.911824,-117.232986
Acadia Pharmaceuticals,"12830 El Camino Real #400, San Diego, CA 92130, USA",San Diego,Public,https://acadia.com/,Small Molecules,,17,10.0,32.950687,-117.2361509
Accelagen,"6044 Cornerstone Ct W # C, San Diego, CA 92121, USA",San Diego,Private with SEC Filings,https://accelagen.com/,Contract molecular biology work,,1,10.0,32.8973847,-117.1908292
AccuraGen,"2720 Zanker Rd suite 240, San Jose, CA 95134, USA",San Jose,Private with SEC Filings,https://www.accuragen.com/,Liquid Cancer Biopsy,,0,10.0,37.3926485,-121.9266447
Accurus Biosciences,"2600 Hilltop Dr Building B, Suite C337, Richmond, CA 94806, USA",Richmond,Private with SEC Filings,http://accurusbio.com/web/,Cellular & Antibody Services,,0,10.0,37.9833106,-122.3379058
AcelaBio,"10581 Roselle St Suite 110, San Diego, CA 92121, USA",San Diego,Private,https://acelabio.com/,Histopathology and Precision Medicine Services for Global Clinical Trials,,0,,32.8966655,-117.2202956
Acelot,"329 Oyster Point Blvd, South San Francisco, CA 94080, USA",South SF,Defunct,https://www.acelot.com/,Neurodegenerative Therapies,,0,10.0,37.663974,-122.3899071
Acepix Biosciences,"32990 Alvarado-Niles Rd suite 910, Union City, CA 94587, USA",Union City,Private,https://acepixbio.com/,Cell based and histo-pathology products,,0,,37.594297,-122.0444574
Acepodia,"1600 Harbor Bay Pkwy #140, Alameda, CA 94502, USA",Alameda,Private with SEC Filings,https://www.acepodia.com/,Antibody-Cell Conjugation Therapy,,4,10.0,37.7247581,-122.2404715
Achelois BioPharma,"3698 Haven Ave Suite A, Redwood City, CA 94063, USA",Redwood City,Private,https://achelois.bio/,Molecular Velcro Antiviral Technology,,0,,37.4848333,-122.1826758
Acrobat Genomics,"930 Brittan Ave, San Carlos, CA 94070, USA",San Carlos,Private with SEC Filings,https://www.acrobatgenomics.com/,CRISPR Drug Discovery,,0,10.0,37.5033721,-122.2492724
Actio Biosciences,"11202 El Camino Real, San Diego, CA 92130, USA",San Diego,Private with SEC Filings,https://actiobiosciences.com/,Genetics Platform,,1,10.0,32.9228401,-117.2301568
Active Motif,"1914 Palomar Oaks Way STE 150, Carlsbad, CA 92008, USA",Carlsbad,Private with SEC Filings,https://www.activemotif.com/,Epigenetics Research products,,0,10.0,33.1248497,-117.2893226
AcuraStem,"150 N Orange Grove Blvd, Pasadena, CA 91103, USA",Pasadena,Private with SEC Filings,https://acurastem.com/,Patient-based Therapeutics,,0,10.0,34.148909,-118.159546
Acutus Medical,"2210 Faraday Ave #100, Carlsbad, CA 92008, USA",Carlsbad,Private with SEC Filings,https://www.acutusmedical.com/us/,Complex Cardiac Arrhythmias Diagnostics,,14,10.0,33.1353312,-117.2793439
Adagio Medical,"26051 Merit Cir #102, Laguna Hills, CA 92653, USA",Laguna Hills,Public,https://adagiomedical.com/,Continuous Lesion Ablation System,,8,10.0,33.5740369,-117.6760512
Adari Cell Science,"5 Ascot Ct, Oakland, CA 94611, USA",Oakland,Private,https://adaricell.com/,Cell-based Assays,,0,,37.82184240000001,-122.1965544
Adcentrx Therapeutics,"5580 Morehouse Dr #210, San Diego, CA 92121, USA",San Diego,Private with SEC Filings,https://www.adcentrx.com/,Antibody drug conjugate,,2,10.0,32.8968815,-117.199047
AddexBio,"4907 Morena Blvd, San Diego, CA 92117, USA",San Diego,Private,https://www.addexbio.com/,Reagents; Cells; Research Tools,,0,,32.8264362,-117.2302116
Adicet Bio,"1000 Bridge Pkwy, Redwood City, CA 94065, USA",Redwood City,Public,https://www.adicetbio.com/,Immunotherapies,,2,10.0,37.5341107,-122.2586092
Adona Medical,"180 Knowles Dr, Los Gatos, CA 95032, USA",Los Gatos,Private with SEC Filings,https://adonamed.com/,Device for Heart Failure,,0,10.0,37.2611247,-121.961252
AdvanBio,"8717 Research Dr, Irvine, CA 92618, USA",Irvine,Private,https://advan-bio.com/about-us/,Bioanalysis; Assay Development; Regulatory Consulting,,0,,33.6451252,-117.7397655
Advanced Bifurcation Systems,"7419 Southfront Rd, Livermore, CA 94551, USA",Livermore,Defunct,https://advancedbifurcation.com/,Bifurcating Stent,,0,10.0,37.71414100000001,-121.7053037
Advanced Biomatrix,"5930 Sea Lion Pl, Carlsbad, CA 92010, USA",Carlsbad,Private with SEC Filings,https://advancedbiomatrix.com/,3D Tissue Culture; Assays and Cell Proliferation,,0,10.0,33.1332591,-117.2481533
Advanced Brain Monitoring,"2237 Faraday Ave, Carlsbad, CA 92008, USA",Carlsbad,Private with SEC Filings,https://www.advancedbrainmonitoring.com/,EEG headsets; physiological monitoring systems; software,,3,10.0,33.133844,-117.2788648
Advanced Cell Diagnostics,"7707 Gateway Blvd, Newark, CA 94560, USA",Newark,Defunct,https://acdbio.com/,RNA Detection,,0,10.0,37.5396118,-122.0637698
Advanced Microbubbles,"39655 Eureka Dr, Newark, CA 94560, USA",Newark,Defunct,https://www.advancedmicrobubbles.com/,Ultrasound-triggered microbubbles,,0,10.0,37.5092226,-121.9981293
Advanced Orthopaedic Solutions,"3203 Kashiwa St, Torrance, CA 90505, USA",Torrance,Private with SEC Filings,https://www.aosortho.com/,Orthopedic Trauma Products,,1,10.0,33.8162778,-118.3414429
Advanced Protein Production,"1930 Kellogg Ave, Carlsbad, CA 92008, USA",Carlsbad,Defunct,https://www.advpropro.com/,CDMO - Proteins,,0,10.0,33.1252188,-117.2884916
Advanced Sterilization Products,"33 Technology Dr, Irvine, CA 92618, USA",Irvine,Private with SEC Filings,https://www.asp.com/en-us,Sterilization Products,,0,10.0,33.6548859,-117.7409108
Advanced Targeting Systems,"1930 Kellogg Ave, Carlsbad, CA 92008, USA",Carlsbad,Private with SEC Filings,https://atsbio.com/,Cell Reagents,,0,10.0,33.1252188,-117.2884916
Advansta,"2140 Bering Dr, San Jose, CA 95131, USA",San Jose,Private,https://advansta.com/,Protein characterization products,,0,,37.3784165,-121.9188194
Advenchen Laboratories,"887 Patriot Dr STE A, Moorpark, CA 93021, USA",Moorpark,Defunct,http://advenchen.com/,Small Molecules,,12,10.0,34.2786985,-118.8633541
Adverum Biotechnologies,"100 Cardinal Way, Redwood City, CA 94063, USA",Redwood City,Public,https://adverum.com/,Adeno-Associated Virus Delivery; Gene Therapy,,9,10.0,37.5043322,-122.2204498
Aelan Cell Technologies,"655 3rd St, San Francisco, CA 94107, USA",San Francisco,Private,http://aelanct.com/,Stem Cell Technology,,0,,37.7795967,-122.3934385
Aerin Medical,"2565 Leghorn St, Mountain View, CA 94043, USA",Mountain View,Private with SEC Filings,https://aerinmedical.com/,Nasal Obstruction Relief Device,,14,10.0,37.4187827,-122.0999437
Aether Biomachines,"1455 Adams Dr, Menlo Park, CA 94025, USA",Menlo Park,Private,https://www.aetherbio.com/,Enzyme engineering; enabling customers to manufacture complex & novel products at fractional cost.,,0,,37.4778376,-122.1425818
Aethlon Medical,"11555 Sorrento Valley Rd STE 203, San Diego, CA 92121, USA",San Diego,Public,https://www.aethlonmedical.com/,Dialysis Filtration,,3,10.0,32.9121736,-117.231514
AfaSci,"522 Second Ave, Redwood City, CA 94063, USA",Redwood City,Private with SEC Filings,https://www.afasci.com/,Small Molecules,,4,10.0,37.476501,-122.205002
Afecta Pharmaceuticals,"2102 Business Center Dr, Irvine, CA 92612, USA",Irvine,Private with SEC Filings,https://afectapharm.com/,Precision Medicines,,0,10.0,33.6801304,-117.855227
Affinity Biosensors,"222 E Canon Perdido St, Santa Barbara, CA 93101, USA",Santa Barbara,Private with SEC Filings,https://affinitybio.com/,Microbial Growth Measurement,,0,10.0,34.4228745,-119.6973333
Agena Bioscience,"4755 Eastgate Mall, San Diego, CA 92121, USA",San Diego,Private with SEC Filings,https://www.agenabio.com/,High throughput targeted & multiplexed genetic analysis,,0,10.0,32.8792599,-117.2046306
Agendia,"22 Morgan, Irvine, CA 92618, USA",Irvine,Defunct,https://agendia.com/,Breast Cancer Assay,,8,10.0,33.649877,-117.710563
AgileBio,"10945 Vista Sorrento Pkwy #150, San Diego, CA 92130, USA",San Diego,Private,https://agilebio.com/,IT Life Science Solutions,,0,,32.914887,-117.2283981
Agilent,"5301 Stevens Creek Blvd, Santa Clara, CA 95051, USA",Santa Clara,Private with SEC Filings,https://www.agilent.com/,High-Throughput Screening Equipment; Imaging instruments,,0,10.0,37.3248429,-121.9989752
Akero Therapeutics,"601 Gateway Blvd, South San Francisco, CA 94080, USA",South SF,Public,https://akerotx.com/,NASH therapy,,6,10.0,37.6581548,-122.3994255
AkrivisBio,"48511 Warm Springs Blvd #213, Fremont, CA 94539, USA",San Jose,Private,https://www.akrivisbio.com/,Assays; Chemicals,,0,,37.4682585,-121.9188215
Aladdin Scientific,"14078 Meridian Pkwy, Riverside, CA 92518, USA",Riverside,Defunct,https://www.aladdinsci.com/,Proteins; Chemicals; Antibodies,,0,10.0,33.9150695,-117.2904819
Alamar Biosciences,"47071 Bayside Pkwy, Fremont, CA 94538, USA",Fremont,Private with SEC Filings,https://alamarbio.com/,Proteomic Liquid Biopsy Platform,,0,10.0,37.4764907,-121.9390356
Alcon,"15800 Alton Pkwy, Irvine, CA 92618, USA",Irvine,Public,https://www.alcon.com/,Eye-Care Products,,15,10.0,33.6566614,-117.7620313
Alector,"131 Oyster Point Blvd, South San Francisco, CA 94080, USA",South SF,Public,https://alector.com/,Alzheimer's Antibody Treatments,,10,10.0,37.66286530000001,-122.3955216
Alexion Pharmaceuticals,"270 E Grand Ave., South San Francisco, CA 94080, USA",,Defunct,https://www.alexion.com,,"Alexion Pharmaceuticals, Inc., a subsidiary of AstraZeneca, is a pharmaceutical company headquartered in Boston, Massachusetts that specializes in orphan drugs to treat rare diseases.",15,10.0,37.6523469,-122.3955917
Alfa Scientific Designs,"13200 Gregg St, Poway, CA 92064, USA",Poway,Private with SEC Filings,https://www.alfascientific.com/,Rapid POC Diagnostics,,0,10.0,32.9379448,-117.0434371
Alida Biosciences,"11535 Sorrento Valley Rd Suite 407, San Diego, CA 92121, USA",San Diego,Private with SEC Filings,https://www.alidabio.com/,Epigenetic analysis tools,,0,10.0,32.9119952,-117.230987
Aligos Therapeutics,"1 Corporate Dr, South San Francisco, CA 94080, USA",South SF,Public,https://aligos.com/,Therapies for hepatologic diseases and viral infections,,13,10.0,37.6571324,-122.4024093
Alimentiv,"100 Dundas St #200, London, ON N6A 5B6, Canada",San Diego,Private with SEC Filings,https://alimentiv.com/,Clinical Services,,11,10.0,42.9830735,-81.2525862
AlivaMab Biologics,"10350 Barnes Canyon Rd Suite 100, San Diego, CA 92121, USA",San Diego,Private with SEC Filings,https://alivamab.com/,Antibody Discovery Services,,0,10.0,32.9010471,-117.1949423
AliveGen,"810 Lawrence Dr #120, Thousand Oaks, CA 91320, USA",Thousand Oaks,Private with SEC Filings,https://www.alivegen.com/,Ligand Trap,,0,10.0,34.1895932,-118.9291928
Alkahest,"125 Shoreway Rd D, San Carlos, CA 94070, USA",San Carlos,Private with SEC Filings,https://www.alkahest.com/,Aging therapy using blood components,,12,10.0,37.5204235,-122.2606688
AllCells,"1640 S Loop Rd Suite 250, Alameda, CA 94502, USA",Alameda,Defunct,https://allcells.com/,Cytokines; Stem Cells; Media; etc.,,0,10.0,37.7231439,-122.2395742
Allay Therapeutics,"2720 Zanker Rd, San Jose, CA 95134, USA",San Jose,Private with SEC Filings,https://www.allaytx.com/,Multi-week Localized Pain Management,,2,10.0,37.3926485,-121.9266447
Allele Biotechnology,"6404 Nancy Ridge Dr, San Diego, CA 92121, USA",San Diego,Private with SEC Filings,https://allelebiotech.com/,Molecular Biology Products & Services,,0,10.0,32.8873177,-117.1828235
Allogene Therapeutics,"210 E Grand Ave., South San Francisco, CA 94080, USA",South SF,Public,https://allogene.com/,CAR-T,,9,10.0,37.6537481,-122.3992523
Allucent,"2000 Centregreen Way suite 300, Cary, NC 27513, USA",San Diego,Private with SEC Filings,https://www.allucent.com/,Clinical Research Solutions partnering with small & mid-sized biotechs to deliver novel therapies to patients with unmet needs.,,0,10.0,35.8257887,-78.79782139999999
Allvivo Vascular,"20914 Bake Pkwy Suite 100, Lake Forest, CA 92630, USA",Lake Forest,Defunct,https://allvivo.com/,Medical device coating,,0,10.0,33.658067,-117.698636
Alpha Medical Instruments,"23455 Madero STE B, Mission Viejo, CA 92691, USA",Mission Viejo,Private with SEC Filings,http://www.alphamedicalinstruments.com,Cardiac Balloon Catheter,,1,10.0,33.6226041,-117.6777861
Alphalyse,"299 California Ave #200, Palo Alto, CA 94306, USA",Palo Alto,Private,https://alphalyse.com/,Protein Characterization Services,,0,,37.427426,-122.1437221
Alstem,"2600 Hilltop Drive B, C328, Richmond, CA 94806, USA",Richmond,Defunct,https://www.alstembio.com/web/,IPS Generation; Cell Lines; Cytokines; Proteins; etc.,,0,10.0,37.9832763,-122.3381652
Alta Biomed,"6070 Corte Del Cedro, Carlsbad, CA 92011, USA",Carlsbad,Defunct,https://www.altabiomed.com/,Medical Device Coatings,,1,10.0,33.1257468,-117.2714881
Altaviz,"13766 Alton Pkwy #143, Irvine, CA 92618, USA",Irvine,Private with SEC Filings,https://www.altaviz.com/,Injector Drug Delivery; Implant Delivery Systems,,0,10.0,33.662144,-117.707171
AlterG,"48368 Milmont Dr, Fremont, CA 94538, USA",Fremont,Private with SEC Filings,https://alterg.com/,Anti-gravity treadmill,,0,10.0,37.4687194,-121.9234619
Alto Neuroscience,"650 Castro St #450, Mountain View, CA 94041, USA",Mountain View,Public,https://altoneuroscience.com/,AI-derived brain biomarkers for therapeutic matching,,11,10.0,37.3880555,-122.0822826
Altos Labs,"2600 Bridge Pkwy, Redwood City, CA 94065, USA",Redwood City,Private with SEC Filings,https://www.altoslabs.com/,Cellular Rejuvenation,,0,10.0,37.5389924,-122.2574274
AltruBio,"505 Montgomery St 11th floor, San Francisco, CA 94111, USA",San Francisco,Private with SEC Filings,https://www.altrubio.com/altrubio/en,Antibody Therapeutics,,4,10.0,37.7939424,-122.403331
Altus Life Science,"401 Keyes St, San Jose, CA 95112, USA",San Jose,Defunct,https://altuslifescience.com/,Diagnostics & Genetic Tests,,0,10.0,37.3239208,-121.869779
Aluda Pharmaceuticals,"1080 Marsh Rd, Menlo Park, CA 94025, USA",Menlo Park,Private,https://aludapharm.com/,Small Molecules,,0,,37.4808792,-122.1825206
Alumis,"280 E Grand Ave., South San Francisco, CA 94080, USA",South SF,Public,https://www.alumis.com/,Autoimmune Treatments,,11,10.0,37.6524103,-122.3949582
Alveo Technologies,"1000 Atlantic Ave, Alameda, CA 94501, USA",Alameda,Defunct,https://www.alveotechnologies.com/,Diagnostic Devices,,0,10.0,37.7802047,-122.2672424
Amador Bioscience,"7133 Koll Center Pkwy, Pleasanton, CA 94566, USA",Pleasanton,Defunct,https://www.amadorbioscience.com/,Consulting; Lab Service; Clinical Trial Management,,1,10.0,37.6622259,-121.8985009
Amberstone Biosciences,"15300 Barranca Pkwy Suite 100 & 250, Irvine, CA 92618, USA",Irvine,Private,https://amberstonebio.com/,Solid Tumor Therapies,,0,,33.6560418,-117.7361461
Ambrx,"10970 N Torrey Pines Rd, La Jolla, CA 92037, USA",La Jolla,Private with SEC Filings,https://ambrx.com/,PEGylation,,4,10.0,32.9038126,-117.2425445
Ambry Genetics,"15 Argonaut, Aliso Viejo, CA 92656, USA",Aliso Viejo,Private with SEC Filings,https://www.ambrygen.com/,Genetic Testing,,3,10.0,33.593735,-117.727066
Amgen,"750 Gateway Blvd Ste 100, South San Francisco, CA 94080, USA",South SF,Public,https://www.amgen.com/,Small Molecules; Biologics,,14,10.0,37.6603389,-122.395611
Amphastar Pharmaceuticals,"11570 6th St, Rancho Cucamonga, CA 91730, USA",Rancho Cucamonga,Public,https://amphastar.com/,Generic Small Molecules,,20,10.0,34.0853071,-117.5520747
Amprion,"10355 Science Center Dr, San Diego, CA 92121, USA",San Diego,Defunct,https://www.ampriondx.com/,Brain Health Diagnostics,,0,10.0,32.8928889,-117.2302133
Amuza,"10060 Carroll Canyon Rd #100, San Diego, CA 92131, USA",San Diego,Private with SEC Filings,https://www.amuzainc.com/,Neuroscience Research Equipment,,0,10.0,32.9040119,-117.1101691
AnaBios,"1155 Island Ave Suite 200, San Diego, CA 92101, USA",San Diego,Defunct,https://anabios.com/,Human Tissue Clinical Testing,,0,10.0,32.7101473,-117.1541594
AnaSpec,"34801 Campus Dr, Fremont, CA 94555, USA",Fremont,Private,https://www.anaspec.com/en/,Peptides; Antibodies; Reagents,,0,,37.5469398,-122.068367
AnaptysBio,"10770 Wateridge Cir Ste. 210, San Diego, CA 92121, USA",San Diego,Public,https://www.anaptysbio.com/,Antibody Therapeutics,,8,10.0,32.9003873,-117.2109196
Anchor Molecular,"7026 Koll Center Pkwy Suite 215 & 211, Pleasanton, CA 94566, USA",Pleasanton,Defunct,https://anchormolecular.com/,Quality Controls and Reference Materials,,0,10.0,37.6627354,-121.9018843
AnchorDx,"521 Cottonwood Dr #121, Milpitas, CA 95035, USA",Fremont,Clinical Stage,https://www.anchordx.com/,High-throughput sequencing platform,,5,,37.4058568,-121.9127382
Ancora Heart,"4001 Burton Dr, Santa Clara, CA 95054, USA",Santa Clara,Private with SEC Filings,https://www.ancoraheart.com/,Cardiac procedures for Mitral Valve Regurgitation,,9,10.0,37.3899853,-121.9601322
Andromeda Surgical,"2 Tower Pl Suite 1350, South San Francisco, CA 94080, USA",South SF,Defunct,https://www.andromedasurgical.com/,Surgical Robots,,1,10.0,37.6671633,-122.3969737
AngioSafe,"6150 Hellyer Ave #150, San Jose, CA 95138, USA",San Jose,Clinical Stage,https://www.angiosafe.com/,Cardio Intervention Devices,,1,,37.2566301,-121.77881
Angiocrine Bioscience,"11575 Sorrento Valley Rd, San Diego, CA 92121, USA",San Diego,Private with SEC Filings,https://angiocrinebioscience.com/,Cellular Therapy,,3,10.0,32.9133134,-117.2309894
Anixa Biosciences,"3150 Almaden Expy, San Jose, CA 95118, USA",San Jose,Public,https://www.anixa.com/,Diagnostics; CAR-T treatments,,0,10.0,37.27606129999999,-121.878253
Annexon Biosciences,"1400 Sierra Point Pkwy, Brisbane, CA 94005, USA",Brisbane,Private with SEC Filings,https://annexonbio.com/,Neurodegenerative and autoimmune disorders,,1,10.0,37.673399,-122.384764
Ansa Biotechnologies,"1198 65th St, Oakland, CA 94608, USA",Emeryville,Private with SEC Filings,https://ansabio.com/,Next Generation DNA Synthesis,,0,10.0,37.8475779,-122.2881732
Ansun BioPharma,"11568 Sorrento Valley Rd, San Diego, CA 92121, USA",San Diego,Private with SEC Filings,https://www.ansunbiopharma.com/,Anti-virals,,10,10.0,32.91213,-117.2318024
Antharis Therapeutics,"6370 Nancy Ridge Dr #112, San Diego, CA 92121, USA",San Diego,Private with SEC Filings,https://www.antharistherapeutics.com/,Discovery and development of monoclonal antibodies and ADCs,,0,10.0,32.8879206,-117.1810013
Antheia,"1430 O'Brien Dr, Menlo Park, CA 94025, USA",Menlo Park,Private with SEC Filings,https://antheia.bio/,APIS created from yeast-based fermentation,,0,10.0,37.4761493,-122.1443667
Antibodies Incorporated,"25242 Co Rd 95, Davis, CA 95616, USA",Davis,Defunct,https://www.antibodiesinc.com/index.html,Antibodies; Assays; Development Services; Diagnostic kits; etc..,,2,10.0,38.5746803,-121.8640594
Antibody Design Laboratories,"4901 Morena Blvd # 203, San Diego, CA 92117, USA",San Diego,Private,https://www.abdesignlabs.com/,Phage Display Technology,,0,,32.8277643,-117.2302696
Antibody Solutions,"3033 Scott Blvd, Santa Clara, CA 95054, USA",Santa Clara,Private with SEC Filings,https://www.antibody.com/,Antibody Development,,0,10.0,37.3776439,-121.961075
Antigen Discovery,"1 Technology Dr # E309, Irvine, CA 92618, USA",Irvine,Private with SEC Filings,https://antigendiscovery.com/,Bioinformatics; Genomics; Proteomics,,0,10.0,33.6471366,-117.7332458
Anwita Biosciences,"300 Industrial Rd, San Carlos, CA 94070, USA",San Carlos,Private with SEC Filings,https://www.anwitabio.com/,Antibodies & Fusion Proteins,,2,10.0,37.5149181,-122.2619063
Apellis Pharmaceuticals,"100 5th Ave, Waltham, MA 02451, USA",San Francisco,Public,https://apellis.com/,Cyclic peptide analog,,18,10.0,42.3931745,-71.2557349
Apertor Pharmaceuticals,"1640 S Loop Rd Suite 200, Alameda, CA 94502, USA",Alameda,Private,https://apertorpharma.com/,Molecular glues for therapeutic applications in oncology,,0,,37.7231439,-122.2395742
Apeximmune,"329 Oyster Point Blvd, South San Francisco, CA 94080, USA",Burlingame,Private,https://www.apeximmune.com/,Immune oncology mABs,,0,,37.663627,-122.3894863
Apostle Inc,"3589 Nevada St, Pleasanton, CA 94566, USA",Pleasanton,Private with SEC Filings,https://www.apostlebio.com/,Cancer Diagnostics,,0,10.0,37.6669175,-121.8581397
Applied Biomics,"23785 Cabot Blvd # 311, Hayward, CA 94545, USA",Hayward,Private with SEC Filings,https://www.appliedbiomics.com/,Proteomics services & products,,0,10.0,37.6390625,-122.1341699
Applied Cells,"3350 Scott Blvd Bldg 6, Santa Clara, CA 95054, USA",Santa Clara,Private,https://appliedcells.com/,Cell Separation Technology,,0,,37.3782346,-121.9833381
Applied Spectral Imaging,"6160 Innovation Way, Carlsbad, CA 92009, USA",Carlsbad,Defunct,https://spectral-imaging.com/,Digital Pathology,,7,10.0,33.1282327,-117.2570994
Applied StemCell,"521 Cottonwood Dr Suite 111, Milpitas, CA 95035, USA",Milpitas,Defunct,https://appliedstemcell.com/,Cell Lines; Transgenic Mice; Reagents; Lab Tools,,0,10.0,37.40582270000001,-121.9129943
Applied Viromics,"48521 Warm Springs Blvd, Fremont, CA 94539, USA",Fremont,Private,https://www.appliedviromics.com/,Custom-made recombinant viral vectors,,0,,37.4675083,-121.9186546
Aptah Bio,"930 Brittan Ave #307, San Carlos, CA 94070, USA",San Carlos,Private,https://www.aptah-bio.com/,RNA Integrity Restoration,,0,,37.5033721,-122.2492724
Aptitude Medical Systems,"125 Cremona Dr Suite 100, Goleta, CA 93117, USA",Goleta,Private with SEC Filings,https://www.aptitudemedical.com/,Aptamers,,3,10.0,34.4322489,-119.857537
Aptose Biosciences,"12770 High Bluff Dr, San Diego, CA 92130, USA",San Diego,Public,https://www.aptose.com/,Cancer Drugs,,8,10.0,32.9507875,-117.2403752
Aqtual,"31145 San Antonio St, Hayward, CA 94544, USA",Hayward,Private with SEC Filings,https://aqtual.com/,Cell-free DNA Diagnostics,,1,10.0,37.6098544,-122.0488318
Aqur Biosciences,"2829 Townsgate Rd STE 100, Westlake Village, CA 91361, USA",Westlake Village,Private,https://aqurbiosciences.com/,Next-generation cardiovascular therapies,,0,,34.1541982,-118.823208
Aracari Biosciences,"3 Mason Suite 100, Irvine, CA 92618, USA",Irvine,Private with SEC Filings,https://aracaribio.com/,Vascularized Tissues that mimic the Human Body,,0,10.0,33.6454937,-117.721118
Arbor Vita,"48371 Fremont Blvd # 101, Fremont, CA 94538, USA",Fremont,Private with SEC Filings,https://www.arborvita.com/,Diagnostics,,0,10.0,37.4666249,-121.9346006
Arcturus Therapeutics,"10285 Science Center Dr, San Diego, CA 92121, USA",San Diego,Public,https://arcturusrx.com/,Lipid nanoparticle (LNP) mRNA drug delivery systems,,13,10.0,32.8920811,-117.2306354
Arcus Biosciences,"3967 Trust Way, Hayward, CA 94545, USA",Hayward,Public,https://arcusbio.com/,Cancer Immunotherapies,,14,10.0,37.6241084,-122.1250421
Arcutis Biotherapeutics,"3027 Townsgate Rd #300, Westlake Village, CA 91361, USA",Westlake Village,Public,https://www.arcutis.com/,Reformulated; Topical Dermatology Products,,18,10.0,34.1532512,-118.820989
Ardelyx,"7999 Gateway Blvd, Newark, CA 94560, USA",Fremont,Public,https://ardelyx.com/,Gastrointestinal Therapeutics,,17,10.0,37.5381167,-122.0639813
Arena Pharmaceuticals,"6154 Nancy Ridge Dr, San Diego, CA 92121, USA",,Clinical Stage,http://www.arenapharm.com,,"Arena Pharmaceuticals, Inc. is an American biopharmaceutical company founded in 1997 and headquartered in San Diego, California.",17,,32.8891148,-117.1846507
Argonaut Manufacturing Services,"2841 Loker Ave E, Carlsbad, CA 92010, USA",Carlsbad,Defunct,https://www.argonautms.com/,Argonaut is a CMO dedicated to serving highly-innovative companies in biopharmaceuticals and molecular diagnostics. Specializing in formulation; filling; finishing and final kitting.,,0,10.0,33.132426,-117.249702
Aridis Pharmaceuticals,"983 University Ave Bldg. B, Los Gatos, CA 95032, USA",Los Gatos,Private with SEC Filings,https://www.aridispharma.com/,Monoclonal Antibody & Small Molecule Targeting Infectious Diseases,,6,10.0,37.2500587,-121.9675736
Arima Genomics,"6354 Corte Del Abeto Suite B, Carlsbad, CA 92011, USA",Carlsbad,Private,https://arimagenomics.com/,Genomic Analysis Kits,,0,,33.1189892,-117.2758066
Arisan Therapeutics,"5825 Avenida Encinas #101, Carlsbad, CA 92008, USA",Carlsbad,Private with SEC Filings,https://www.arisanthera.com/,Infectious diseases,,2,10.0,33.1257051,-117.3257924
Ark Clinical Research,"2220 Clark Ave, Long Beach, CA 90815, USA",Long Beach,Private,https://arkclinicalresearch.com/,Clinical Research,,0,,33.797523,-118.1335075
Ark Diagnostics,"48089 Fremont Blvd, Fremont, CA 94538, USA",Fremont,Defunct,https://ark-tdm.com/,Serum / Plasma Assays,,0,10.0,37.4696578,-121.9386367
Armata Pharmaceuticals,"5005 McConnell Ave, Los Angeles, CA 90066, USA",Los Angeles,Clinical Stage,https://www.armatapharma.com/,Natural and synthetic bacteriophage-based therapies,,13,,33.9819796,-118.4234446
Arnatar Therapeutics,"10355 Science Center Dr, San Diego, CA 92121, USA",San Diego,Clinical Stage,https://www.arnatar.com/,RNA-based Medicines,,1,,32.8926761,-117.2302479
Arrowhead Pharmaceuticals,"177 E Colorado Blvd Suite 700, Pasadena, CA 91105, USA",Pasadena,Clinical Stage,https://arrowheadpharma.com/,RNAi,,20,,34.1461677,-118.1471029
Arsenal Biosciences,"329 Oyster Point Blvd, South San Francisco, CA 94080, USA",South SF,Private with SEC Filings,https://arsenalbio.com/,Cancer Treatments,,2,10.0,37.6641288,-122.3898245
Artelo Biosciences,"505 Lomas Santa Fe Dr, Solana Beach, CA 92075, USA",Solana Beach,Public,https://artelobio.com/,Cannabinoids,,0,10.0,32.9944717,-117.266481
Artery Therapeutics,"10 Duberstein Dr, San Ramon, CA 94583, USA",San Ramon,Defunct,https://www.arterytx.com/,Peptide therapies,,1,10.0,37.7414677,-121.9607854
Arthrex,"460 Ward Dr, Santa Barbara, CA 93111, USA",Santa Barbara,Private with SEC Filings,https://www.arthrex.com/,Arthroscopy Devices,,8,10.0,34.4323912,-119.8194471
Arthrosi Therapeutics,"9855 Towne Centre Dr #200, San Diego, CA 92121, USA",San Diego,Private with SEC Filings,https://arthrosi.com/,Treatments for gout and chronic kidney diseases,,10,10.0,32.8869478,-117.2135485
Artiva Biotherapeutics,"5505 Morehouse Dr, San Diego, CA 92121, USA",San Diego,Public,https://www.artivabio.com/,NK Cell Therapies for Cancer,,4,10.0,32.8933444,-117.1991231
Ascendis Pharma,"1000 Page Mill Rd, Palo Alto, CA 94304, USA",Palo Alto,Public,https://ascendispharma.com/,Prodrug therapies,,19,10.0,37.41853649999999,-122.1464614
AscentX Medical,"6190 Cornerstone Ct E, San Diego, CA 92121, USA",San Diego,Defunct,https://ascentxmedical.com/,Autologous Tissue Engineering,,1,10.0,32.8948137,-117.1884301
Asegua Therapeutics,"333 Lakeside Dr, Foster City, CA 94404, USA",Foster City,Private,https://www.asegua.com/,Authorized Gilead Generics,,0,,37.5670009,-122.281649
Asha Pharma,"11107 Roselle St Suite 215-216, San Diego, CA 92121, USA",San Diego,Clinical Stage,https://ashasd.com/,Solid state crystallization services,,5,,32.9063784,-117.2305714
Asher Biotherapeutics,"650 Gateway Blvd Suite 100, South San Francisco, CA 94080, USA",South SF,Private with SEC Filings,https://asherbio.com/,IL-2 Therapies,,1,10.0,37.6568534,-122.3981003
Askgene Pharma,"5217 Verdugo Way # A, Camarillo, CA 93012, USA",Camarillo,Private with SEC Filings,https://ask-gene.com/,Biosimilars,,7,10.0,34.2142034,-118.9986639
Aspen Medical products,"6481 Oak Canyon, Irvine, CA 92618, USA",Irvine,Defunct,https://www.aspenmp.com/,Upper and lower spinal orthotics,,4,10.0,33.67434,-117.7625687
Aspen Neuroscience,"10835 Rd to the Cure, San Diego, CA 92121, USA",San Diego,Defunct,https://aspenneuroscience.com/,Personalized Regenerative Medicine,,1,10.0,32.901728,-117.2364978
Assay Biotechnology,"2200 Ringwood Ave, San Jose, CA 95131, USA",San Jose,Private with SEC Filings,https://assaybiotechnology.com/,Antibodies; ELISA kits; Assays Kits; dyes; assay / antibody services,,10,10.0,37.398404,-121.8975689
Assembly Biosciences,"2 Tower Pl 7th floor, South San Francisco, CA 94080, USA",South SF,Public,https://www.assemblybio.com/,Small Molecule Antivirals,,20,10.0,37.6672795,-122.3967505
Astoriom,"6696 Mesa Ridge Rd Suite B, San Diego, CA 92121, USA",San Diego,Private,https://www.astoriom.com/,R&D sample storage; protection; and compliance,,0,,32.9023141,-117.1750721
AstraZeneca,"121 Oyster Point Blvd, South San Francisco, CA 94080, USA",South SF,Public,https://www.astrazeneca.com/,Small Molecules; Vaccines; Biologics,,15,10.0,37.664205,-122.3963318
Astraea Therapeutics,"320 Logue Ave # 114, Mountain View, CA 94043, USA",Mountain View,Private with SEC Filings,https://www.astraeatherapeutics.com/,Small Molecules,,0,10.0,37.3965095,-122.0511129
Atara Biotherapeutics,"2380 Conejo Spectrum St Suite 200, Thousand Oaks, CA 91320, USA",Thousand Oaks,Public,https://www.atarabio.com/,Peptibody; Monoclonal Antibody; Cell Therapy,,8,10.0,34.2037741,-118.9271468
Atec Spine,"1950 Camino Vida Roble, Carlsbad, CA 92008, USA",Carlsbad,Private with SEC Filings,https://atecspine.com/,Products for Spine Surgery,,1,10.0,33.1228816,-117.2832261
Athelas,"1300 Terra Bella Ave, Mountain View, CA 94043, USA",Mountain View,Private with SEC Filings,https://www.athelas.com/,Instant point-of-care Immune-cell monitoring,,0,10.0,37.4103755,-122.0811426
Athos Therapeutics,"1123 W Carson St, Torrance, CA 90502, USA",Torrance,Defunct,https://athostx.com/,AI-Based Precision Therapeutics,,1,10.0,33.8321526,-118.2954845
Atia Vision,"550 Division St, Campbell, CA 95008, USA",Campbell,Private with SEC Filings,https://atiavision.com/,Modular Presbyopia Correcting Intraocular Lens,,1,10.0,37.2624214,-121.9608034
Atila Biosystems,"500 Mercury Dr, Sunnyvale, CA 94085, USA",Sunnyvale,Private,https://atilabiosystems.com/,Novel chemistry for nucleic acid amplification,,0,,37.3835867,-121.990607
Atomic AI,"151 Oyster Point Blvd 3rd Floor, South San Francisco, CA 94080, USA",South SF,Private with SEC Filings,https://atomic.ai/,AI-based RNA Drug Discovery,,0,10.0,37.663292,-122.3949582
Atonarp,"5960 Inglewood Dr Suite 100, Pleasanton, CA 94588, USA",Pleasanton,Private,https://www.atonarp.com/,Molecular Analysis by Mass Spec,,0,,37.6878859,-121.9013509
Attovia Therapeutics,"1091 Industrial Rd Ste 310, San Carlos, CA 94070, USA",San Carlos,Private with SEC Filings,https://www.attovia.com/,Proprietary biparatopic nanobody platform,,2,10.0,37.5043912,-122.2483388
Augmenta Bioworks,"3475 Edison Way, Menlo Park, CA 94025, USA",Menlo Park,Private with SEC Filings,https://www.augbio.com/,Antibody Discovery; Target Identification Services,,0,10.0,37.4767245,-122.1978853
Auransa,"550 Hamilton Ave, Palo Alto, CA 94301, USA",Palo Alto,Private with SEC Filings,https://www.auransa.com/,AI-based Drug Discovery,,0,10.0,37.4482836,-122.1569092
Aureka Biotechnologies,"23181 Verdugo Dr Suite 106, Laguna Hills, CA 92653, USA",Laguna Hills,Private,https://aurekabio.com/,Digitalizing Therapeutic Discovery,,0,,33.62613150000001,-117.7300517
Aurora Biolabs,"7270 Trade St suite 103, San Diego, CA 92121, USA",San Diego,Defunct,https://aurorabiolabs.com/,Recombinant Research Proteins,,1,10.0,32.8892349,-117.1658581
Aurora Spine,"1930 Palomar Point Way STE 103, Carlsbad, CA 92008, USA",Carlsbad,Private with SEC Filings,https://www.aurora-spine.com/,Spinal implants,,1,10.0,33.129114,-117.2871609
Austral Biologicals,"Bishop Ranch 6, 2410 Camino Ramon # 163, San Ramon, CA 94583, USA",San Ramon,Defunct,http://www.australbiologicals.com/index.php,Research product distributor; Contract Services,,1,10.0,37.7725939,-121.9652829
Avacen Medical,"6451 El Camino Real Ste C, Carlsbad, CA 92009, USA",Carlsbad,Private with SEC Filings,https://avacen.com/,Arthritis heat therapy device,,0,10.0,33.1172755,-117.2704919
Avails Medical,"1080 O'Brien Dr, Menlo Park, CA 94025, USA",Menlo Park,Defunct,https://availsmedical.com/,FAST Diagnostics,,0,10.0,37.4743359,-122.1496792
AvantGen,"6162 Nancy Ridge Dr #150, San Diego, CA 92121, USA",San Diego,Defunct,https://www.avantgen.com/,Yeast-Display Technology; Human Antibody Discovery,,0,10.0,32.8901511,-117.1853315
Avantec Vascular,"870 Hermosa Dr, Sunnyvale, CA 94085, USA",Sunnyvale,Defunct,https://avantecvascular.com/,Medical devices and peripheral vascular devices,,1,10.0,37.386794,-122.0373773
Avellino Laboratories,"1505 Adams Dr, Menlo Park, CA 94025, USA",Menlo Park,Defunct,https://avellino.ai/,Gene Therapy; Molecular Diagnostics,,0,10.0,37.4787502,-122.142469
Avenda Health,"4130 Overland Ave, Culver City, CA 90230, USA",Culver City,Defunct,https://avendahealth.com/,Prostate Tissue Ablation,,0,10.0,34.0132421,-118.4014161
Avenzo Therapeutics,"12707 High Bluff Dr # 200, San Diego, CA 92130, USA",San Diego,Clinical Stage,https://avenzotx.com/,Oncology Treatments,,4,,32.9488898,-117.2399326
Avenzoar Pharmaceuticals,"662 Encinitas Blvd #248, Encinitas, CA 92024, USA",Los Angeles,Private,https://www.avenzoarpharmaceuticals.com/,Small molecule therapeutics for cancer,,0,,33.0490649,-117.277853
Avidity Biosciences,"3020 Callan Rd, San Diego, CA 92121, USA",San Diego,Clinical Stage,https://www.aviditybiosciences.com/,Antibody-Oligonucleotide Conjugates,,9,,32.9071879,-117.240311
Avirmax,"25503 Whitesell St, Hayward, CA 94545, USA",Hayward,Private with SEC Filings,https://avirmax.com/,rAAV-mediated Gene Therapy Technology,,1,10.0,37.62902770000001,-122.1293618
Avisi Technologies,"1733 Woodside Rd, Redwood City, CA 94061, USA",Redwood City,Defunct,https://avisitech.com/,Nanotechnology-enabled implant that controls intraocular pressure in the eye to treat open-angle glaucoma,,1,10.0,37.454346,-122.2284927
Aviva Systems Biology,"6350 Nancy Ridge Dr #106, San Diego, CA 92121, USA",San Diego,Private with SEC Filings,https://www.avivasysbio.com/,Antibodies; Peptides; Kits; etc.,,0,10.0,32.887984,-117.182214
Avive Solutions,"185 Valley Dr, Brisbane, CA 94005, USA",Brisbane,Private with SEC Filings,https://www.avive.life/,Automated External Defibrillator,,0,10.0,37.6873649,-122.4039825
Axim Biotech,"6191 Cornerstone Ct E, San Diego, CA 92121, USA",San Diego,Defunct,https://aximbiotech.com/,Ophthalmological Diagnostics,,0,10.0,32.8948231,-117.1883507
AxisPharm,"5820 Oberlin Dr STE 104, San Diego, CA 92121, USA",San Diego,Private,https://axispharm.com/,Bioanalytical Services; Proteomics; ADC Linker and Bioconjugation Services,,0,,32.893965,-117.1940942
Axon Therapies,"2326 Walsh Avenue, Santa Clara, CA 95127, USA",Santa Clara,Defunct,https://axontherapies.com/,Catheter Ablation System for Heart Failure,,2,10.0,40.754045,-73.9933586
Axonics,"15515 Sand Canyon Ave, Irvine, CA 92618, USA",Irvine,Defunct,https://www.axonics.com/,Sacral Neuromodulation Device,,7,10.0,33.6696096,-117.7693403
Azena Medical,"1777 Botelho Dr #100, Walnut Creek, CA 94596, USA",Walnut Creek,Private,https://www.azenamedical.com/,Pretty medical devices,,0,,37.8930971,-122.0635352
BCN Biosciences,"2265 E Foothill Blvd, Pasadena, CA 91107, USA",Pasadena,Private with SEC Filings,http://www.bcnbio.com/,Small Molecules; Monoclonal Antibodies,,13,10.0,34.149851,-118.1036615
BP Logix Life Sciences,"410 S Melrose Dr, Vista, CA 92081, USA",Encinitas,Private with SEC Filings,https://www.bplogix.com/life-sciences,Automation Software,,0,10.0,33.1905018,-117.2529473
BPS Bioscience,"6405 Mira Mesa Blvd # 100, San Diego, CA 92121, USA",San Diego,Defunct,https://bpsbioscience.com/,Enzymes for Drug Discovery,,0,10.0,32.9053765,-117.1802861
Bachem,"3132 Kashiwa St, Torrance, CA 90505, USA",Torrance,Defunct,https://www.bachem.com/,Contract Peptides; Oligos,,0,10.0,33.8148406,-118.3399866
Baxter International,"21026 Alexander Ct, Hayward, CA 94545, USA",,Public,https://www.baxter.com,,"Baxter International Inc. is an American multinational healthcare company with headquarters in Deerfield, Illinois.",0,10.0,37.651679,-122.1304161
Bayer BioPartnering Solutions,"800 Dwight Way, Berkeley, CA 94710, USA",Berkeley,Private,https://www.bayer.com/en/us/BioPartneringSolutions,Biomanufacturing - recombinant protein and cell therapy modalities,,0,,37.8595707,-122.2955153
Baylx,"1 Technology Dr, Irvine, CA 92618, USA",Irvine,Private with SEC Filings,https://www.baylxinc.com/,Stem Cell Therapeutics,,3,10.0,33.6478936,-117.7350007
Bayside Biosciences,"2450 Scott Blvd, Santa Clara, CA 95050, USA",Santa Clara,Private,http://baysidebio.com/,Contract Preclinical Services,,0,,37.3669495,-121.9601403
BeOne Medicines,"835 Industrial Rd, San Carlos, CA 94070, USA",San Carlos,Clinical Stage,https://beonemedicines.us/,Small Molecules; Monoclonal Antibodies,,7,,37.5067474,-122.2506431
Behavioral Pharma,"505 Coast S Blvd, La Jolla, CA 92037, USA",La Jolla,Clinical Stage,https://www.behavioralpharma.com/,Preclinical Lab Services,,3,,32.84324000000001,-117.2794604
Belharra Therapeutics,"3985 Sorrento Valley Blvd suite c, San Diego, CA 92121, USA",San Diego,Defunct,https://belharratx.com/,Small molecule drugs in oncology; immuno-oncology; autoimmune and neurodegenerative diseases,,1,10.0,32.9028953,-117.2196929
Belite Bio,"12750 High Bluff Dr, San Diego, CA 92130, USA",San Diego,Public,https://belitebio.com/#home,Oral Small Molecules,,4,10.0,32.9500232,-117.241202
Beloteca,"9920 Pacific Heights Blvd Suite 250, San Diego, CA 92121, USA",San Diego,Private,http://beloteca.com/index.html,Generics & 505(b)(2) drugs,,0,,32.900656,-117.1912209
Benchling,"680 Folsom St floor 10, San Francisco, CA 94107, USA",San Francisco,Private with SEC Filings,https://www.benchling.com/,Biotech Software,,0,10.0,37.7844511,-122.398453
Benitec Biopharma,"3940 Trust Way, Hayward, CA 94545, USA",Hayward,Public,https://www.benitec.com/,DdRNAi,,2,10.0,37.6232978,-122.1248592
Beta Bionics,"11 Hughes, Irvine, CA 92618, USA",Irvine,Public,https://www.betabionics.com/,Artificial Pancreas,,1,10.0,33.6523168,-117.7189187
Bexson Biomedical,"369 Paso Robles Dr, Santa Barbara, CA 93108, USA",Santa Barbara,Private,https://www.bexsonbiomedical.com/,Subcutaneous Drug Delivery,,0,,34.4424993,-119.6638453
BigHat Biosciences,"1900 Alameda de las Pulgas Suite 400, San Mateo, CA 94403, USA",San Mateo,Private with SEC Filings,https://www.bighatbio.com/,BigHat designs safer; more effective biologic therapies using machine learning and synthetic biology,,0,10.0,37.54546879999999,-122.3230193
BillionToOne,"1035 O'Brien Dr, Menlo Park, CA 94025, USA",Menlo Park,Public,https://www.billiontoone.com/,Prenatal Genetic Testing,,0,10.0,37.4750198,-122.150235
Binacea Pharma,"3563 Investment Blvd, Hayward, CA 94545, USA",Hayward,Clinical Stage,https://binaceapharma.com/,Cancer Antibodies,,1,,37.6250266,-122.1212426
Bio Applied Technologies Joint,"6331 Nancy Ridge Dr Ste. A, San Diego, CA 92121, USA",San Diego,Defunct,http://www.batj.net/,Biotech Services,,0,10.0,32.8875559,-117.184284
BioAge Labs,"1445A S 50th St, Richmond, CA 94804, USA",Richmond,Public,https://bioagelabs.com/,Computational platform that explores a universe of proprietary and public data to identify and target the molecular factors that influence longevity,,5,10.0,37.9115835,-122.3285123
BioAmp Diagnostics,"930 Brittan Ave, San Carlos, CA 94070, USA",San Carlos,Private,https://bioampdx.com/,Diagnostics to counteract antibiotic resistance,,0,,37.5033721,-122.2492724
BioAssay Systems,"3191 Corporate Pl, Hayward, CA 94545, USA",Hayward,Private,https://bioassaysys.com/,Assays,,0,,37.6252114,-122.1114172
BioAtla,"11085 Torreyana Rd, San Diego, CA 92121, USA",San Diego,Public,https://www.bioatla.com/,Conditionally-active Biologics,,6,10.0,32.9063146,-117.2378127
BioCardia,"320 Soquel Way, Sunnyvale, CA 94085, USA",Sunnyvale,Public,https://www.biocardia.com/,Personalized marrow-derived cell therapy,,6,10.0,37.3861209,-122.0331435
BioChain,"39600 Eureka Dr, Newark, CA 94560, USA",Newark,Defunct,https://www.biochain.com/,Sample Preparation,,2,10.0,37.510421,-121.996237
BioCorRx,"2390 E Orangewood Ave # 500, Anaheim, CA 92806, USA",Anaheim,Public,https://www.biocorrx.com/,Addiction Treatments,,2,10.0,33.7955211,-117.8823308
BioDot,"2852 Alton Pkwy, Irvine, CA 92614, USA",Irvine,Defunct,https://www.biodot.com/,Equipment,,0,10.0,33.6871279,-117.8310512
BioDuro,"9601 Jeronimo Rd, Irvine, CA 92618, USA",,Private with SEC Filings,https://www.bioduro.com/,,"BioDuro is a contract research, development, and manufacturing organization (CRDMO) headquartered in Irvine, California, United States.",0,10.0,33.6490475,-117.7158441
BioEclipse Therapeutics,"319 N Bernardo Ave, Mountain View, CA 94043, USA",Mountain View,Private with SEC Filings,https://www.bioeclipse.com/,Immuno-Oncology,,1,10.0,37.3873687,-122.0488103
BioGenex,"48810 Kato Rd Suite 200E, Fremont, CA 94538, USA",Fremont,Defunct,https://biogenex.com/,Cellular & Molecular Diagnostics; Biotech Reagents,,0,10.0,37.4620839,-121.9212663
BioGrammatics,"2794 Loker Ave W STE 103, Carlsbad, CA 92010, USA",Carlsbad,Private,https://www.biogrammatics.com/,Protein Expression,,0,,33.131899,-117.2537872
BioLegacy Research,"6042 Cornerstone Ct W # E, San Diego, CA 92121, USA",San Diego,Private,https://biolegacyresearch.com/,Contract Research,,0,,32.8971118,-117.190285
BioLegend,"8999 Biolegend Way, San Diego, CA 92121, USA",San Diego,Private with SEC Filings,https://www.biolegend.com/,Cytokines; Reagents; etc.,,0,10.0,32.8857195,-117.1660295
BioPioneer,"8540 Production Ave, San Diego, CA 92121, USA",San Diego,Private,https://www.biopioneerinc.com/,Molecular Biology Reagents,,0,,32.88139,-117.1663553
BioProduction Systems,"950-952 Commercial St, Palo Alto, CA 94303, USA",Palo Alto,Private with SEC Filings,https://www.bioproductionsystems.com/,Biologic CDMO,,0,10.0,37.4238665,-122.0996155
BioQ Pharma,"1325 Howard St, San Francisco, CA 94103, USA",San Francisco,Private with SEC Filings,https://bioqpharma.com/,Drug infusion systems,,1,10.0,37.7744963,-122.4135194
BioSpyder Technologies,"5928 Pascal Court Suite 100, Carlsbad, CA 92008, USA",Carlsbad,Private with SEC Filings,https://www.biospyder.com/,Gene expression profiling,,0,10.0,33.1319146,-117.2749636
BioSyn,"5939 Darwin Ct STE 114, Carlsbad, CA 92008, USA",Carlsbad,Private with SEC Filings,https://biosyncorp.com/,Hemocyanin Products,,5,10.0,33.129627,-117.2864127
BioTuring,"4445 Eastgate Mall, San Diego, CA 92121, USA",San Diego ,Private,https://bioturing.com/,Bioinformatics Solutions,,0,,32.8779276,-117.2100798
BioVinc,"2265 E Foothill Blvd, Pasadena, CA 91107, USA",Pasadena,Private,https://biovinc.com/,Bone Targeted Therapeutics & Diagnostics,,0,,34.14978,-118.103746
Bioagilytix,"9050 Camino Santa Fe, San Diego, CA 92121, USA",San Diego,Defunct,https://www.bioagilytix.com/,Bioanalytical services; immunoassays; cell-based assays,,0,10.0,32.8879286,-117.168135
Biocheck,"425 Eccles Ave, South San Francisco, CA 94080, USA",South SF,Private with SEC Filings,https://biocheckinc.com/,Develops; manufactures; and distributes immunodiagnostic test kits and research reagents,,0,10.0,37.6577871,-122.3957181
Biogen,"700 Gateway Blvd Floor 8, South San Francisco, CA 94080, USA",,Clinical Stage,https://www.biogen.com/,,"Biogen Inc. is an American multinational biotechnology company based in Cambridge, Massachusetts, United States specializing in the treatment of neurological diseases.",14,,37.6591035,-122.3963906
Biolinq,"10260 Sorrento Valley Rd, San Diego, CA 92121, USA",San Diego,Private with SEC Filings,https://www.biolinq.com/,Needle-Free Blood Glucose Monitoring,,0,10.0,32.8902916,-117.21093
Biolog,"21124 Cabot Blvd, Hayward, CA 94545, USA",Hayward,Private with SEC Filings,https://www.biolog.com/,Cell Phenotyping Technology,,0,10.0,37.6441125,-122.1359408
Biomea Fusion,"1599 Industrial Rd, San Carlos, CA 94070, USA",Redwood City,Public,https://biomeafusion.com/,Small Molecules Targeting Cancer,,6,10.0,37.4996618,-122.2425108
Biomed,"2570 N First St 2nd Floor, San Jose, CA 95131, USA",San Jose,Defunct,https://www.biomedind.com/,Small molecule for neurological disorders,,15,10.0,37.3852998,-121.9248316
Biomerica,"17571 Von Karman Ave, Irvine, CA 92614, USA",Irvine,Public,https://biomerica.com/,Diagnostic Tests,,3,10.0,33.6897251,-117.8470849
Biomiga,"10637 Roselle St Suite C, San Diego, CA 92121, USA",San Diego,Private,https://biomiga.com/,Molecular biology research products,,0,,32.8973389,-117.2211267
Bionano Genomics,"9540 Towne Centre Dr #100, San Diego, CA 92121, USA",San Diego,Clinical Stage,https://bionano.com/,Genome Mapping,,1,,32.8812599,-117.2098274
Bionaut Labs,"3767 Overland Ave #114, Los Angeles, CA 90034, USA",Los Angeles,Private,https://bionautlabs.com/,Robot Delivery of Therapeutics,,0,,34.0191159,-118.4084146
Bioneer,"155 Filbert St #216, Oakland, CA 94607, USA",Oakland,Defunct,https://us.bioneer.com/page/w/home,Protein Synthesis Equipment & Reagents,,0,10.0,37.799617,-122.2865472
Bionexus,"222 Madison St, Oakland, CA 94607, USA",Oakland,Private with SEC Filings,https://bionexus.net/,Genomic & Proteomic products,,0,10.0,37.7935705,-122.2686947
Bionova Scientific,"3100 W Warren Ave, Fremont, CA 94538, USA",Fremont,Private with SEC Filings,https://bionovascientific.com/,Full-service Biologics CDMO,,0,10.0,37.4820571,-121.9399252
Biopeptide Co.,"10457 Roselle St I, San Diego, CA 92121, USA",San Diego,Defunct,https://www.biopeptide.com/,Peptide Production,,0,10.0,32.8955053,-117.2190453
Biopico Systems,"188 Technology Dr # G, Irvine, CA 92618, USA",Irvine,Private,https://biopico.com/,Biological testing technologies,,0,,33.6666029,-117.7484602
Biora Therapeutics,"10070 Carroll Canyon Rd #100, San Diego, CA 92131, USA",San Diego,Private with SEC Filings,https://www.bioratherapeutics.com/,Oral Biotherapeutics for GI Health,,1,10.0,32.9044307,-117.1102679
BiosPacific,"5980 Horton St #360, Emeryville, CA 94608, USA",Emeryville,Private with SEC Filings,https://www.biospacific.com/,Antibodies and antigens,,0,10.0,37.8413944,-122.2910953
Biosero,"4770 Ruffner St, San Diego, CA 92111, USA",San Diego,Private,https://biosero.com/,Laboratory Automation; Liquid-handling,,0,,32.8285679,-117.1591253
Biosplice Therapeutics,"6555 Nancy Ridge Dr Suite 300, San Diego, CA 92121, USA",San Diego,Private with SEC Filings,https://www.biosplice.com/default.aspx,Small Molecules Acting on Stem Cells,,19,10.0,32.8868484,-117.1809291
Biotium,"46117 Landing Pkwy, Fremont, CA 94538, USA",Fremont,Private with SEC Filings,https://biotium.com/,Fluorescent Reagents,,0,10.0,37.4882846,-121.9462066
Biotricity,"203 Redwood Shores Pkwy Suite 600, Redwood City, CA 94065, USA",Redwood City,Public,https://biotricity.com/,Remote cardiac monitoring devices; health management software,,0,10.0,37.52114419999999,-122.2545324
Bitterroot Bio,"3160 Porter Dr Suite 110, Palo Alto, CA 94304, USA",Palo Alto,Private with SEC Filings,https://brbio.com/,Immune modulation to treat cardiovascular disease,,0,10.0,37.4066137,-122.1517297
BlossomHill Therapeutics,"10255 Science Center Dr Suite 200, San Diego, CA 92121, USA",San Diego,Clinical Stage,https://bhtherapeutics.com/,Small Molecule Drug Discovery,,2,,32.8901144,-117.2314566
Bodyport,"120 2nd St # 2, San Francisco, CA 94105, USA",San Francisco,Clinical Stage,https://www.bodyport.com/,Biomarker-guided digital therapeutics,,3,,37.787521,-122.39958
Boehringer Ingelheim,"6701 Kaiser Dr, Fremont, CA 94555, USA",Fremont,Defunct,https://www.boehringer-ingelheim.com/,Large molecule; biomanufacturing,,19,10.0,37.5508877,-122.0651693
Bolt Biotherapeutics,"900 Chesapeake Dr, Redwood City, CA 94063, USA",Redwood City,Public,https://www.boltbio.com/,Systemically delivered Immune-Stimulating Antibody Conjugates,,4,10.0,37.5014653,-122.2139997
Bone Health Technologies,"370 Convention Way Suite 218, Redwood City, CA 94063, USA",San Francisco,Defunct,https://www.osteoboost.com/,Mechanical Bone Stimulation,,1,10.0,37.4944817,-122.229177
Boomerang Medical,"2495 Hospital Dr Suite 300, Mountain View, CA 94040, USA",Mountain View,Defunct,https://www.boomerangmedical.com/,Bioelectric Medicine,,2,10.0,37.3698273,-122.0823261
Bora Biologics,"10394 Pacific Center Ct, San Diego, CA 92121, USA",San Diego,Private with SEC Filings,https://www.borabiologics.com/,Contract Biologics,,0,10.0,32.9065624,-117.1903523
Boster Bio,"3942 Valley Ave Ste B, Pleasanton, CA 94566, USA",Pleasanton,Private,https://www.bosterbio.com/,Antibodies; ELISA kits; etc.,,0,,37.6754173,-121.8673883
Boundless Bio,"WQ25+X3, San Diego, CA 92121, USA",San Diego,Public,https://boundlessbio.com/,Cancer Treatments targeting extra-chromosomal DNA,,2,10.0,32.9024375,-117.2423125
BrainKey,"218 9th St, San Francisco, CA 94103, USA",San Francisco,Private,https://www.brainkey.ai/,AI for MRI analysis,,0,,37.774636,-122.4129282
Brevet,"21571 Surveyor Cir, Huntington Beach, CA 92646, USA",Huntington Beach,Defunct,https://www.brevet.com/,Custom Medical & Industrial Component Manufacturing,,0,10.0,33.6498354,-117.9767577
BridGene Biosciences,"75 Nicholson Ln, San Jose, CA 95134, USA",San Jose,Clinical Stage,https://www.bridgenebio.com/,Small molecules that drug traditionally undruggable targets,,1,,37.4116705,-121.9464837
BridgeBio Pharma,"3160 Porter Dr Suite 250, Palo Alto, CA 94304, USA",Palo Alto,Private,https://bridgebio.com/,Genetic Disease Treatments,,0,,37.4066137,-122.1517297
Brink Biologics,"3530 John Hopkins Ct, San Diego, CA 92121, USA",San Diego,Private with SEC Filings,https://brinkbiologics.com/,Stem Cell Technology,,0,10.0,32.892745,-117.238676
Bristol Myers Squibb,"1000 Sierra Point Pkwy, Brisbane, CA 94005, USA",Brisbane,Public,https://www.bms.com/,Small Molecules; Biologics,,9,10.0,37.6728543,-122.3830861
BroadPharm,"6625 Top Gun St #103, San Diego, CA 92121, USA",San Diego,Private,https://broadpharm.com/,PEG & Biochemical Reagents,,0,,32.907797,-117.1765641
Broncus Medical,"125 Nicholson Ln, San Jose, CA 95134, USA",San Jose,Defunct,https://www.broncus.com/,Virtual Bronchoscopic Navigation; Peripheral Lung Biopsy,,11,10.0,37.4129966,-121.9452436
Buto,"630 Pena Dr, Davis, CA 95618, USA",Davis,Private with SEC Filings,https://butocorp.com/,Alzheimer's & Fibrotic Disease Treatments,,0,10.0,38.5510978,-121.7151897
CAGE Bio,"733 Industrial Rd A, San Carlos, CA 94070, USA",San Carlos,Private with SEC Filings,https://cagebio.com/,Deep Eutectic Ionic Liquids for Therapeutics,,9,10.0,37.5098021,-122.2525132
CG Oncology,"1900 Powell St #800, Emeryville, CA 94608, USA",Irvine,Clinical Stage,https://cgoncology.com/,Oncolytic Virus,,8,,37.838408,-122.299772
CGT Global,"1743 Creekside Dr #200, Folsom, CA 95630, USA",Folsom,Private with SEC Filings,https://cgt.global/,Tissue Sourcing,,0,10.0,38.672687,-121.1391886
CHO-plus,"329 Oyster Point Blvd South, South San Francisco, CA 94080, USA",South Sf,Private,https://www.cho-plus.com/,Engineered mammalian cell lines and transfection methods for vastly improved therapeutic protein production and sialylation,,0,,37.6641288,-122.3898245
CPC Scientific,"160 E Tasman Dr #200, San Jose, CA 95134, USA",San Jose,Private,https://cpcscientific.com/,Peptides. Custom / Catalog.,,0,,37.4104899,-121.9398607
CRISPR QC,"8949 Kenamar Dr Suite 101, San Diego, CA 92121, USA",San Diego,Private with SEC Filings,https://crisprqc.com/,Quality Control for CRISPR,,0,10.0,32.8846854,-117.1554042
CS Bio,"20 Kelly Ct, Menlo Park, CA 94025, USA",Menlo Park,Defunct,https://www.csbio.com/,Peptide Synthesizers & Custom Synthesis,,0,10.0,37.4756061,-122.1495713
CSL Plasma,"649 Beck Ave, Fairfield, CA 94533, USA",,Private with SEC Filings,https://www.cslplasma.com/,,CSL Plasma is a plasmapheresis company which claims to be one of the largest companies of its kind in the world.,0,10.0,38.2484895,-122.0671874
CTK Biotech,"13855 Stowe Dr, Poway, CA 92064, USA",Poway,Private with SEC Filings,https://ctkbiotech.com/,Diagnostics,,0,10.0,32.941299,-117.0315715
CURE Pharmaceutical,"1620 Beacon Pl, Oxnard, CA 93033, USA",Oxnard,Private with SEC Filings,https://curepharmaceutical.com/,Formulation; 505(b)(2),,0,10.0,34.1834688,-119.1615501
CYMD,"6349 Nancy Ridge Dr SteB, San Diego, CA 92121, USA",San Diego,Private,https://www.cymolecular.com/,Oncology Diagnostics,,0,,32.8869579,-117.183594
CYP450-GP,"2870 Scott St # 103, Vista, CA 92081, USA",Vista,Private,https://www.cyp450-gp.com/,Reagents for Early Drug Development,,0,,33.1402325,-117.2274398
CYTORUM,"3350 Scott Blvd, Santa Clara, CA 95054, USA",Santa Clara,Private,https://www.cytorum.com/,Single Cell Analysis,,0,,37.3795555,-121.9863665
Cache DNA,"733 Industrial Rd, San Carlos, CA 94070, USA",San Carlos,Defunct,https://www.cache-dna.com/,Biomolecule Preservation,,0,10.0,37.5098269,-122.2525071
CalBiotech,"1935 Cordell Ct, El Cajon, CA 92020, USA",El Cajon,Defunct,https://calbiotech.com/,Microplate Coating,,0,10.0,32.8226956,-116.9842018
CalChem Synthesis,"3550 General Atomics Ct, San Diego, CA 92121, USA",San Diego,Private,https://www.calchemsynthesis.com/,Contract Chemistry,,0,,32.8940518,-117.2362578
Cala Health,"1800 Gateway Dr suite 120, San Mateo, CA 94404, USA",San Mateo,Defunct,https://calahealth.com/,Neurological Device,,8,10.0,37.5560127,-122.2809655
CalciMedica,"505 Coast S Blvd #202, La Jolla, CA 92037, USA",La Jolla,Clinical Stage,https://calcimedica.com/,Small Molecules,,7,,32.843181,-117.279377
Caldera Medical,"4360 Park Terrace Dr, Westlake Village, CA 91361, USA",Westlake Village,Private with SEC Filings,https://www.calderamedical.com/,Surgical Implants for Women,,1,10.0,34.1446548,-118.8004606
Calico,"1170 Veterans Blvd, South San Francisco, CA 94080, USA",South SF,Private with SEC Filings,https://www.calicolabs.com/,Aging treatments,,6,10.0,37.664705,-122.3932368
Calidi Biotherapeutics,"4475 Executive Dr Suite 200, San Diego, CA 92121, USA",San Diego,Public,https://www.calidibio.com/,Oncolytic Viruses,,0,10.0,32.8750821,-117.2105505
Calyxo,"4473 Willow Rd Suite 100, Pleasanton, CA 94588, USA",Pleasanton,Private with SEC Filings,https://calyxoinc.com/,Device for Kidney Stone,,5,10.0,37.6883353,-121.8979837
Camino Pharma,"9920 Pacific Heights Blvd UNIT 150, San Diego, CA 92121, USA",San Diego,Private with SEC Filings,https://www.caminopharma.com/,Cancer & Brain Therapies,,1,10.0,32.9011003,-117.2003898
Canary Medical,"2710 Loker Ave W, Carlsbad, CA 92010, USA",Carlsbad,Private with SEC Filings,https://canarymedical.com/,Implant Data Transmission,,3,10.0,33.1323158,-117.260378
Cantabio Pharmaceuticals,"1250 Oakmead Pkwy, Sunnyvale, CA 94085, USA",Palo Alto,Defunct,https://www.cantabio.com/,Neurological Therapies,,0,10.0,37.3864413,-121.9912004
Capricor Therapeutics,"8840 Wilshire Blvd 2nd Floor, Beverly Hills, CA 90211, USA",San Diego,Public,https://www.capricor.com/,Cell and exosome-based therapies for rare diseases,,0,10.0,34.06671620000001,-118.3850541
Capsida Biotherapeutics,"1300 Rancho Conejo Blvd, Thousand Oaks, CA 91320, USA",Thousand Oaks,Clinical Stage,https://capsida.com/,AAV Gene Therapy,,3,,34.1980134,-118.9214311
Capulus Therapeutics,"535 Mission St 14th floor, San Francisco, CA 94105, USA",San Francisco,Private,https://www.capulustx.com/,Small Molecules,,0,,37.788891,-122.3981
Cardiff Oncology,"11055 Flintkote Ave, San Diego, CA 92121, USA",San Diego,Public,https://cardiffoncology.com/,Cancer Therapy,,9,10.0,32.9037293,-117.230933
CareDx,"8000 Marina Blvd, Brisbane, CA 94005, USA",Brisbane,Public,https://caredx.com/,Diagnostics,,13,10.0,37.6743995,-122.3849158
Caribou Biosciences,"2929 Seventh St #105, Berkeley, CA 94710, USA",Berkeley,Clinical Stage,https://www.cariboubio.com/,Cellular Engineering Tools (CRISPR),,5,,37.8521549,-122.2901102
Carl Zeiss Meditec,"5300 Central Pkwy, Dublin, CA 94568, USA",Dublin,Private with SEC Filings,https://www.zeiss.com/meditec/en/home.html,Medical Devices,,16,10.0,37.707232,-121.8923135
Carlsbad Technology,"5922 Farnsworth Ct, Carlsbad, CA 92008, USA",Carlsbad,Private,http://carlsbadtech.com/,Generics; CMO,,0,,33.130964,-117.2824105
Carlsmed,"1800 Aston Ave Ste 100, Carlsbad, CA 92008, USA",Carlsbad,Public,https://carlsmed.com/,Surgical Workflow Platform,,0,10.0,33.131419,-117.291831
Cartography Biosciences,"230 E Grand Ave. 2nd floor suite 250, South San Francisco, CA 94080, USA",South SF,Private,https://cartography.bio/,Cancer Immunotherapies,,0,,37.6536246,-122.3976712
CeleCor Therapeutics,"1201 Camino Del Mar, Del Mar, CA 92014, USA",Del Mar,Clinical Stage,https://www.celecor.com/,Heart attack treatment,,3,,32.9567597,-117.2639248
Cell Applications,"6455 Weathers Pl, San Diego, CA 92121, USA",San Diego,Private,https://cellapplications.com/,Primary Cells; Reagents,,0,,32.9046422,-117.1789068
Cell Biolabs,"7758 Arjons Dr, San Diego, CA 92126, USA",San Diego,Clinical Stage,https://www.cellbiolabs.com/,Assays & Reagents,,7,,32.8949854,-117.1524799
CellFE,"1000 Atlantic Ave #104, Alameda, CA 94501, USA",Alameda,Private,https://www.cellfebiotech.com/,Intracellular Delivery Platform for Gene-Editing,,0,,37.7802926,-122.2681114
CellMP,"3475 Edison Way suite t, Menlo Park, CA 94025, USA",Menlo Park,Private,https://www.cellmp.com/,Cell Therapy Services; Consulting,,0,,37.4768607,-122.1975742
CellMax Life,"1271 Oakmead Pkwy, Sunnyvale, CA 94085, USA",Sunnyvale,Defunct,https://cellmaxlife.com/,Blood Test for Colon Cancer,,1,10.0,37.3870808,-121.9905423
CellSight Technologies,"185 Berry St #350, San Francisco, CA 94107, USA",San Francisco,Clinical Stage,https://cellsighttech.com/,Cancer immunotherapy imaging,,10,,37.7765973,-122.3919488
Cellanome,"500 Lincoln Centre Dr, Foster City, CA 94404, USA",Foster City,Private,https://www.cellanome.com/,Multiomics Platform,,0,,37.5678546,-122.2700258
Cellarcus Biosciences,"505 Coast S Blvd Ste 409, La Jolla, CA 92037, USA",La Jolla,Private,https://www.cellarcus.com/,Extracellular Vesicle Analysis Assays,,0,,32.84324000000001,-117.2794604
Cellares,"341 Allerton Ave, South San Francisco, CA 94080, USA",San Francisco,Private with SEC Filings,https://www.cellares.com/,Cell Therapy Manufacturing Technology,,0,10.0,37.6532029,-122.391737
Cellastra,"201 Spear St #1100, San Francisco, CA 94105, USA",San Francisco,Defunct,https://www.cellastra.com/,Anti-scarring gene therapy/peptides,,0,10.0,37.7913437,-122.3928159
Cellecta,"320 Logue Ave, Mountain View, CA 94043, USA",Mountain View,Private,https://cellecta.com/,CRISPR and RNAi Genetic Screens; Libraries and Construct; Sequencing; RNA Expression Profiling; Barcode Libraries,,0,,37.3964835,-122.0507979
Cellics Therapeutics,"11588 Sorrento Valley Rd #18, San Diego, CA 92121, USA",San Diego,Private with SEC Filings,https://www.cellics.com/,Nanosponge Technology,,0,10.0,32.911824,-117.232986
Cello Therapeutics,"11568 Sorrento Valley Rd suite 12, San Diego, CA 92121, USA",San Diego,Private with SEC Filings,https://cellotherapeutics.com/,Nanoparticle Delivery Platform,,1,10.0,32.9115898,-117.232842
Celltheon,"32980 Alvarado-Niles Rd #826, Union City, CA 94587, USA",Union City,Private,https://celltheon.com/,Protein expression technology,,0,,37.5953743,-122.0442354
Celltrio,"47777 Warm Springs Blvd, Fremont, CA 94539, USA",Fremont,Private,https://celltrio.com/,Life Science Robotics,,0,,37.4779426,-121.9235119
Cellworks,"400 Oyster Point Blvd Suite 207, South San Francisco, CA 94080, USA",South SF,Private with SEC Filings,https://cellworks.life/,Biosimulations,,1,10.0,37.6652573,-122.3827431
Celprogen,"3914 Del Amo Blvd #901, Torrance, CA 90503, USA",Torrance,Private,https://celprogen.com/,Stem cell research and therapeutics products for regenerative medicine,,0,,33.8484008,-118.3548183
CenExel Clinical Research,"2441 W La Palma Ave Suite 140, Anaheim, CA 92801, USA",Anaheim,Private with SEC Filings,https://cenexelresearch.com/act/,Clinical Research,,0,10.0,33.848296,-117.9699
Cenna Biosciences,"505 Coast S Blvd #302, La Jolla, CA 92037, USA",La Jolla,Private with SEC Filings,https://cennabiosciences.com/,Alzheimer's Drugs Targeting Amyloid Beta,,0,10.0,32.843181,-117.279377
Centrillion Technologies,"2500 Faber Pl, Palo Alto, CA 94303, USA",Palo Alto,Private,https://www.centrilliontech.com/,Genomic Services,,0,,37.4492113,-122.1165394
Cerebra AI,"320 High St, Palo Alto, CA 94301, USA",Palo Alto,Private,https://cerebraai.ai/,AI-driven neuroradiology software for rapid acute ischemic stroke detection,,0,,37.445223,-122.1655131
Ceribell,"360 N Pastoria Ave, Sunnyvale, CA 94085, USA",Sunnyvale,Public,https://ceribell.com/,Fast EEG,,2,10.0,37.386454,-122.0348458
Certis Oncology Solutions,"5626 Oberlin Dr Suite 110, San Diego, CA 92121, USA",San Diego,Private with SEC Filings,https://www.certisoncology.com/#drug-development,Cancer therapy recommendation platform; preclinical CRO,,1,10.0,32.89221819999999,-117.1971476
Cerus,"1220 Concord Ave Suite 600, Concord, CA 94520, USA",Concord,Public,https://www.cerus.com/,Medical Devices; Biotechnology,,18,10.0,37.9798912,-122.0534703
Channel Medsystems,"2919 Seventh St, Berkeley, CA 94710, USA",Berkeley,Defunct,https://cerene.com/,Endometrial ablation for women with heavy menstrual bleeding,,2,10.0,37.8525265,-122.2909988
Chanshow Biotechnology,"7860 Mission Center Ct ste 201, San Diego, CA 92108, USA",San Diego,Private,https://www.chanshow-biotech.com/?_l=en,Lab Consumables,,0,,32.7739175,-117.1550137
ChemDiv,"12730 High Bluff Dr #100, San Diego, CA 92130, USA",San Diego,Private with SEC Filings,https://www.chemdiv.com/,Contract Development; Clinical Trial Monitoring,,0,10.0,32.9493839,-117.2413691
Chembridge Corporation,"11199 Sorrento Valley Rd STE 206, San Diego, CA 92121, USA",San Diego,Private,https://chembridge.com/,Screening Libraries,,0,,32.9060045,-117.2264054
Chemveda Life Sciences,"9920 Pacific Heights Blvd Suite 150, San Diego, CA 92121, USA",San Diego,Private with SEC Filings,https://chemvedals.com/,Drug Discovery & development Services,,0,10.0,32.9000079,-117.1903523
ChromaCode,"2292 Faraday Ave #110, Carlsbad, CA 92008, USA",Carlsbad,Private with SEC Filings,https://www.chromacode.com/,Real-Time PCR Multiplexing,,0,10.0,33.1354075,-117.2770014
Cidara Therapeutics,"6310 Nancy Ridge Dr #101, San Diego, CA 92121, USA",San Diego,Public,https://www.cidara.com/,Small molecules; peptide,,12,10.0,32.8879402,-117.1835982
Cipherome,"2674 N First St suite 100, San Jose, CA 95134, USA",San Jose,Clinical Stage,https://www.cipherome.com/,Genetic Screening for Ideal Treatments,,7,,37.3878889,-121.9285753
Circle Pharma,"169 Harbor Wy, South San Francisco, CA 94080, USA",South SF,Defunct,https://circlepharma.com/,Macrocyclic Therapeutics,,1,10.0,37.6524074,-122.3997064
Cirsium Biosciences,"8500 Redwood Creek Ln, San Diego, CA 92126, USA",San Diego,Private,https://cirsiumbio.com/,Plant-grown Gene Therapy,,0,,32.8976889,-117.1428506
Cirtec Medical,"101 Cooper Ct, Los Gatos, CA 95032, USA",Los Gatos,Private with SEC Filings,https://www.cirtecmed.com/,Contract Medical Devices,,0,10.0,37.2403444,-121.9730265
Clara Health,"188 King St PH3, San Francisco, CA 94107, USA",San Diego,Private,https://www.clarahealth.com/,Clinical Trial Patient Recruitment & Retention Platform,,0,,37.7786357,-122.3918135
Clarity Genomics,"501 W Broadway Suite 800 PMB #42, San Diego, CA 92101, USA",San Diego,Private with SEC Filings,https://www.clarity-genomics.com/,Genomic Analysis,,1,10.0,32.7150822,-117.1677884
Clear Labs,"1559 Industrial Rd, San Carlos, CA 94070, USA",San Carlos,Private,https://www.clearlabs.com/,Automated Next-Generation Sequencing Platforms for Pathogen Detection and Genomic Surveillance,,0,,37.5003032,-122.2416651
ClearFlow,"16 Technology Dr Suite 150, Irvine, CA 92618, USA",Irvine,Defunct,https://clearflow.com/,Blood drainage device,,1,10.0,33.6495739,-117.7354725
ClearNote Health,"10578 Science Center Dr, San Diego, CA 92121, USA",San Mateo,Private with SEC Filings,https://www.clearnotehealth.com/,Liquid Biopsy,,3,10.0,32.8952881,-117.2316256
ClearPoint Neuro,"120 S Sierra Ave Suite 1, Solana Beach, CA 92075, USA",Carlsbad,Public,https://www.clearpointneuro.com/,Minimally invasive surgical procedures in the brain and heart under direct; intra-procedural MRI guidance,,0,10.0,32.9911314,-117.2727773
Climax Laboratories,"1939 Monterey Road STE 10, San Jose, CA 95112, USA",San Jose,Defunct,https://www.climaxlabs.com/,Bio-analytical services,,0,10.0,37.3059961,-121.8684786
ClinDatrix,"1 Ada Suite #250, Irvine, CA 92618, USA",Irvine,Defunct,https://clindatrix.com/,Clinical Research,,0,10.0,33.6548816,-117.7372663
Cliniqa,"495 Enterprise St, San Marcos, CA 92078, USA",San Marcos,Private,https://www.cliniqa.com/,Lab Research Products; Biomaterials,,0,,33.1374715,-117.1514303
CloudCath,"665 3rd St, San Francisco, CA 94107, USA",San Francisco,Clinical Stage,https://www.cloudcath.com/,Remote Catheter Monitoring Platform,,4,,37.7795526,-122.3929151
Coastar Therapeutics,"9520 Padgett St #101, San Diego, CA 92126, USA",San Diego,Private,https://coastartherapeutics.com/,Cell Membrane Coating Technology,,0,,32.8958022,-117.1274864
Codexis,"400 Penobscot Dr, Redwood City, CA 94063, USA",Redwood City,Public,https://www.codexis.com/,Enzymatic Manufacturing of siRNA Therapeutics,,2,10.0,37.5005188,-122.2168244
Cognixion,"24 E Cota St Suite 101, Santa Barbara, CA 93101, USA",Santa Barbara,Clinical Stage,https://www.cognixion.com/,Brain-Computer Interface,,2,,34.4183118,-119.6959142
Cognos Therapeutics,"10604 S La Cienega Blvd, Inglewood, CA 90304, USA",Los Angeles,Defunct,https://cognosthx.com/,Implantable device for the metronomic delivery of therapeutics for neuropathic disease mitigation,,0,10.0,33.9398919,-118.3698635
Cognuse Neuroscience,"3210 Merryfield Row, San Diego, CA 92121, USA",San Diego,Private,http://www.cognuse.com/,Software Systems,,0,,32.9008574,-117.2343912
Coherus Oncology,"333 Twin Dolphin Dr #600, Redwood City, CA 94065, USA",Redwood City,Clinical Stage,https://www.coherus.com/,Biologics; Biosimilars,,15,,37.52214499999999,-122.2575535
Collaborative Drug Discovery,"1633 Old Bayshore Hwy # 342, Burlingame, CA 94010, USA",Burlingame,Private with SEC Filings,https://www.collaborativedrug.com/,Biological & Chemical Database,,0,10.0,37.5993997,-122.3696068
Color,"831 Mitten Rd #100, Burlingame, CA 94010, USA",Burlingame,Private with SEC Filings,https://www.color.com/,Genetic testing; direct to consumer,,1,10.0,37.6015837,-122.372944
Compact Cath,"1755 E Bayshore Rd Suite 10A & 10B, Redwood City, CA 94063, USA",Redwood City,Private with SEC Filings,https://www.compactcath.com/,Catheter,,0,10.0,37.4896083,-122.2098106
Comparative Biosciences,"786 Lucerne Dr, Sunnyvale, CA 94085, USA",Sunnyvale,Clinical Stage,https://www.compbio.com/,GLP and non-GLP preclinical toxicology; efficacy; pharmacology; histopathology; and safety studies on all laboratory species.,,15,,37.3791751,-122.0135176
Complete Genomics,"2904 Orchard Pkwy, San Jose, CA 95134, USA",San Jose,Defunct,https://www.completegenomics.com/,Genomic Studies,,1,10.0,37.3914021,-121.9360754
Concentric Analgesics,"101 California St UNIT 1210, San Francisco, CA 94111, USA",San Francisco,Private with SEC Filings,https://www.concentricanalgesics.com/,Drug discovery & development,,7,10.0,37.7927653,-122.3979675
Confidence Pharmaceutical Research,"702 Marshall St STE 300, Redwood City, CA 94063, USA",Burlingame,Defunct,https://confidenceresearch.com/,Clinical Research,,0,10.0,37.4873741,-122.2279778
Confluent Medical Technologies,"47533 Westinghouse Dr, Fremont, CA 94539, USA",Fremont,Private with SEC Filings,https://confluentmedical.com/,Contract Medical Devices; Nitinol; Catheters; Textiles,,1,10.0,37.479751,-121.9269011
Contineum Therapeutics,"3565 General Atomics Ct, San Diego, CA 92121, USA",San Diego,Public,https://contineum-tx.com/,Small Molecule for MS,,7,10.0,32.8937423,-117.2372058
Convergent Genomics,"425 Eccles Ave, South San Francisco, CA 94080, USA",South SF ,Clinical Stage,https://convergentgenomics.com/,Clear and actionable insights on cancer,,1,,37.6578104,-122.3957201
Copan Diagnostics,"26055 Jefferson Ave, Murrieta, CA 92562, USA",Murrieta ,Private,https://www.copanusa.com/,Specimen Processing; Digital Microbiology,,0,,33.5376661,-117.1846967
CorDx,"9540 Waples St Unit C, San Diego, CA 92121, USA",San Diego,Private,https://cordx.com/,Diagnostics,,0,,32.90332679999999,-117.1829507
Corcept Therapeutics,"101 Redwood Shores Pkwy, Redwood City, CA 94065, USA",Redwood City,Public,https://corcept.com/,Small Molecules,,19,10.0,37.5186953,-122.2534663
Cordance Medical,"2483 Old Middlefield Way, Mountain View, CA 94043, USA",Mountain View,Private with SEC Filings,https://cordancemedical.com/,Non-invasive Device Opening Blood-Brain Barrier,,0,10.0,37.4142337,-122.0991463
Corentec,"23181 Verdugo Dr, Laguna Hills, CA 92653, USA",Laguna Hills,Private,https://corentec-usa.com/,Orthopedics,,0,,33.6257661,-117.7301653
Correlia Biosystems,"626 Bancroft Way Suite A, Berkeley, CA 94710, USA",Berkeley,Private with SEC Filings,https://correliabio.com/,Streamlined proteomic / pharmaceutical assay platforms,,0,10.0,37.8615024,-122.2995952
Cortechs.ai,"5060 Shoreham Pl, San Diego, CA 92122, USA",San Diego,Private,https://www.cortechs.ai/,Imaging technology,,0,,32.8519811,-117.1857075
Corvus Pharmaceuticals,"901 Gateway Blvd, South San Francisco, CA 94080, USA",Burlingame,Public,https://www.corvuspharma.com/,Immuno-oncology,,9,10.0,37.6614231,-122.397587
Cosmo Bio,"2792 Loker Ave W Suite 101, Carlsbad, CA 92010, USA",Carlsbad,Private with SEC Filings,https://www.cosmobiousa.com/,Lab Reagents,,1,10.0,33.13234380000001,-117.2534577
Countable Labs,"1810 Embarcadero Rd ste 200, Palo Alto, CA 94303, USA",Palo Alto,Private,https://countablelabs.com/,Identifying Rare Events in PCR Workflow,,0,,37.4505705,-122.1148977
Counterpoint Biomedica,"1396 Poinsettia Ave, Vista, CA 92081, USA",Santa Monica,Private,https://counterpointbiomedica.com/,Proprietary Tumor-Targeting Platforms and Precision Cancer Diagnostics,,0,,33.1371257,-117.2225313
Create Biosciences,"8320 Miramar Mall, San Diego, CA 92121, USA",San Diego,Private with SEC Filings,https://createbiosciences.com/,Contract Work,,12,10.0,32.8792243,-117.1840992
Credence MedSystems,"1430 O'Brien Dr, Menlo Park, CA 94025, USA",Menlo Park,Private,https://www.credencemed.com/,Prefilled safety syringe,,0,,37.4760645,-122.1444122
Creyon Bio,"3240 Grey Hawk Ct, Carlsbad, CA 92010, USA",Carlsbad,Private,https://creyon.com/,Oligonucleotide-based Medicines,,0,,33.1310406,-117.2331581
Crinetics Pharmaceuticals,"6055 Lusk Blvd, San Diego, CA 92121, USA",San Diego,Public,https://crinetics.com/,Small Molecules,,18,10.0,32.8979026,-117.1941907
Crown Bioscience,"16550 W Bernardo Dr Building 5, Suite 525, San Diego, CA 92127, USA",San Diego,Private with SEC Filings,https://www.crownbio.com,Drug Development,,0,10.0,33.0195771,-117.0874867
Cullgen,"12730 High Bluff Dr, San Diego, CA 92130, USA",San Diego,Clinical Stage,https://www.cullgen.com/,Protein Degradation Technology,,1,,32.9494699,-117.2414776
Culture Biosciences,"233 E Grand Ave., South San Francisco, CA 94080, USA",South SF,Private with SEC Filings,https://www.culturebiosciences.com/,Contract Fermentation,,10,10.0,37.6550167,-122.3969432
CuraSen Therapeutics,"930 Brittan Ave, San Carlos, CA 94070, USA",San Carlos,Clinical Stage,https://www.curasen.com/,Small Molecules,,5,,37.5033721,-122.2492724
CureMetrix,"402 W Broadway Suite 400, San Diego, CA 92101, USA",San Diego,Private,https://curemetrix.com/,Breast Health Imaging,,0,,32.716243,-117.166963
Curebase,"548 Market St PMB 86319, San Francisco, CA 94104, USA",San Francisco,Private,https://www.curebase.ai/,Clinical Software,,0,,37.7900688,-122.4007436
Cureline,"6000 Shoreline Ct #102, South San Francisco, CA 94080, USA",South SF,Private,https://www.cureline.com/,Global Biobank; Human Biospecimen Research Services,,0,,37.6703033,-122.389801
Curematch,"9920 Pacific Heights Blvd Suite 150, San Diego, CA 92121, USA",San Diego,Private with SEC Filings,https://www.curematch.com/,Cancer Treatment Predictive Analysis,,0,10.0,32.9000079,-117.1903523
Curia (company),"21021 Corsair Blvd, Hayward, CA 94545, USA",,Private with SEC Filings,http://curiaglobal.com,,"Curia (formerly AMRI or Albany Molecular Research Inc.) is a contract research and manufacturing organization that provides drug discovery, development, cGMP manufacturing and aseptic fill and fini...",0,10.0,37.6557349,-122.1254539
Curio Bioscience,"4030 Fabian Way, Palo Alto, CA 94303, USA",Palo Alto,Private,https://curiobioscience.com/,High Resolution Spatial Biology,,0,,37.4209789,-122.1035757
Cyagen Biosciences,"2255 Martin Ave, Santa Clara, CA 95050, USA",Santa Clara,Private,https://www.cyagen.com/,Contract research; Rodent models; DNA vectors; Stem Cell Products,,0,,37.3678281,-121.9626912
Cytek Biosciences,"47215 Lakeview Blvd, Fremont, CA 94538, USA",Fremont,Private,https://cytekbio.com/,Flow Cytometers,,0,,37.4751344,-121.9339936
Cytokinetics,"350 Oyster Point Blvd, South San Francisco, CA 94080, USA",South SF,Public,https://cytokinetics.com/,Small Molecules,,17,10.0,37.6618854,-122.3847202
Cytologics,"4231 Balboa Ave, San Diego, CA 92117, USA",San Diego,Defunct,https://cytologicsbio.com/,Human primary cells for biomedical research; drug discovery and diagnostic development.,,0,10.0,32.8112772,-117.1997988
CytomX Therapeutics,"151 Oyster Point Blvd #400, South San Francisco, CA 94080, USA",South SF,Public,https://cytomx.com/,Protease-Activated Antibodies; 'Probodies',,9,10.0,37.66364859999999,-122.394402
Cytovale,"2 Tower Pl, South San Francisco, CA 94080, USA",South SF,Defunct,https://cytovale.com/,Sepsis Detection,,2,10.0,37.6672795,-122.3967505
DC3 Therapeutics,"163 W Harris Ave, South San Francisco, CA 94080, USA",South SF,Clinical Stage,https://dc3therapeutics.com/,Pre-clinical Contract Research,,1,,37.6509275,-122.4013086
DCN Dx,"3193 Lionshead Ave Suite 200, Carlsbad, CA 92010, USA",Carlsbad,Private with SEC Filings,https://dcndx.com/,CDMO; dry chemistry; PCR; ELISA; microfluidics; lab-on-a-chip; microbiology; engineering,,0,10.0,33.1317725,-117.2383255
DDL,"9400 Toledo Way, Irvine, CA 92618, USA",Irvine,Public,https://www.ddltesting.com/,Device Testing,,0,10.0,33.6554273,-117.7141478
DNAe,"1891 Rutherford Rd #100, Carlsbad, CA 92008, USA",Carlsbad,Defunct,https://www.dnae.com/,Next-gen Sequencing,,0,10.0,33.1360084,-117.2841899
DNAnexus,"1975 W El Camino Real #204, Mountain View, CA 94040, USA",Mountain View,Private with SEC Filings,https://www.dnanexus.com/,Cloud-based genomic analysis,,0,10.0,37.3937705,-122.0990984
Danner Laboratory,"5230 Carroll Canyon Rd UNIT 114, San Diego, CA 92121, USA",San Diego,Private with SEC Filings,https://dannerlab.com/,Pathology Lab,,0,10.0,32.8916286,-117.1946207
Dark Horse Consulting,"1255 Treat Blvd # 230, Walnut Creek, CA 94597, USA",Walnut Creek,Private with SEC Filings,https://www.darkhorseconsultinggroup.com/,Cell & Gene Therapy Consulting,,0,10.0,37.9274305,-122.0595081
Daré Bioscience,"3655 Nobel Dr UNIT 260, San Diego, CA 92122, USA",San Diego,Clinical Stage,https://darebioscience.com/,Women's Health,,10,,32.8678388,-117.228356
Day One Biopharmaceuticals,"1800 Sierra Point Pkwy #200, Brisbane, CA 94005, USA",Brisbane,Public,https://www.dayonebio.com/,Cancer Treatments,,6,10.0,37.6723538,-122.3859166
De Novo Software,"207 N Sierra Madre Blvd 1st Floor, Pasadena, CA 91107, USA",Pasadena,Defunct,https://denovosoftware.com/,Flow Cytometry and Image Cytometry Data Analysis Software,,0,10.0,34.1504508,-118.0998315
Decision Sciences Medical,"12345 1st American Way, Poway, CA 92064, USA",Poway,Private with SEC Filings,http://dsmedco.com/,Acoustic Coherent Tomography Imaging,,0,10.0,32.9417501,-117.0206514
Deep 6 AI,"251 N Lake Ave suite 800, Pasadena, CA 91101, USA",Pasadena,Private with SEC Filings,https://deep6.ai/,AI for Clinical Data,,0,10.0,34.1503529,-118.1325886
Deepcell,"1360 O'Brien Dr, Menlo Park, CA 94025, USA",Menlo Park,Private with SEC Filings,https://deepcell.com/,Genetic Tests,,0,10.0,37.4759277,-122.1454208
Defined Bioscience,"6404 Nancy Ridge Dr, San Diego, CA 92121, USA",San Diego,Private with SEC Filings,https://definedbioscience.com/,Cell culture reagents and media from defined sources,,11,10.0,32.8874499,-117.1828846
Delpor,"150 N Hill Dr, Brisbane, CA 94005, USA",Brisbane,Private with SEC Filings,https://delpor.com/,Drug Delivery System,,2,10.0,37.6918835,-122.405484
Delve Bio,"301 Howard St #1050, San Francisco, CA 94105, USA",San Francisco,Private with SEC Filings,https://www.delve.bio/,Metagenomic NGS Diagnostics,,0,10.0,37.7896983,-122.3943378
Denali Therapeutics,"161 Oyster Point Blvd, South San Francisco, CA 94080, USA",South SF,Public,https://www.denalitherapeutics.com/,Neurodegenerative therapies; BBB-crossing antibody,,13,10.0,37.6627924,-122.3943421
Denovicon Therapeutics,"1130 Wall St #558, La Jolla, CA 92037, USA",La Jolla,Private,https://www.denovicontx.com/,Small Molecule Discovery,,0,,32.84722680000001,-117.2727668
Denovo Biopharma,"10240 Science Center Dr Ste 120, San Diego, CA 92121, USA",San Diego,Private with SEC Filings,https://denovobiopharma.com/,Biomarker technology,,17,10.0,32.8909721,-117.2324752
DermTech,"12340 El Camino Real, San Diego, CA 92130, USA",San Diego,Private with SEC Filings,https://dermtech.com/,Molecular Testing,,6,10.0,32.9408588,-117.2412702
Dermata Therapeutics,"12340 El Camino Real UNIT 425, San Diego, CA 92130, USA",San Diego,Public,https://www.dermatarx.com/,Dermatology treatments,,6,10.0,32.9407995,-117.2411847
Dexcom,"6340 Sequence Dr, San Diego, CA 92121, USA",San Diego,Clinical Stage,https://www.dexcom.com/en-us,Glucose Monitors,,5,,32.9070685,-117.1859372
DiaCarta,"3535 Breakwater Ave, Hayward, CA 94545, USA",Hayward,Private with SEC Filings,https://www.diacarta.com/,Molecular Diagnostics Tests,,1,10.0,37.6286771,-122.1221512
Diablo Clinical Research,"2255 Ygnacio Valley Rd # M, Walnut Creek, CA 94598, USA",Walnut Creek,Private,https://diabloclinical.com/,Clinical Research,,0,,37.9221331,-122.0299076
Diagnostic BioSystems,"6616 Owens Dr, Pleasanton, CA 94588, USA",Pleasanton,Defunct,https://dbiosys.com/,Immunohistochemistry; in-vitro Diagnostics,,3,10.0,37.6970139,-121.9081519
Diality,"181 Technology Dr #150, Irvine, CA 92618, USA",Irvine,Private with SEC Filings,https://www.diality.com/,Hemodialysis System,,2,10.0,33.6656666,-117.7486517
Diazyme Laboratories,"12889 Gregg Ct, Poway, CA 92064, USA",Poway,Defunct,https://www.diazyme.com/,Diagnostic Reagents,,0,10.0,32.9374732,-117.04776
Discover Echo,"9530 Padgett St, San Diego, CA 92126, USA",San Diego,Private,https://discover-echo.com/,Microscopy,,0,,32.8957202,-117.1286117
Dow Development Labs,"1031 N McDowell Blvd, Petaluma, CA 94954, USA",Petaluma,Private with SEC Filings,https://www.dowdevelopmentlabs.com/,Formulation Development; Clinical Manufacturing; Supplies,,0,10.0,38.2665649,-122.6583355
Dren Bio,"835 Industrial Rd Suite 400, San Carlos, CA 94070, USA",Foster City,Clinical Stage,https://www.drenbio.com/,Protein Therapeutics,,7,,37.5071201,-122.250491
Durect,"10240 Bubb Rd, Cupertino, CA 95014, USA",Cupertino,Clinical Stage,https://www.durect.com/,Drug Delivery,,15,,37.3194692,-122.0496909
DxTerity,"2441 W 205th St C100, Torrance, CA 90501, USA",Torrance,Private with SEC Filings,https://dxterity.com/,Genomic Testing,,8,10.0,33.845986,-118.3268284
DyAnsys,"300 N Bayshore Blvd, San Mateo, CA 94401, USA",San Mateo,Defunct,https://www.dyansys.com/,Percutaneous electrical neurostimulation device,,10,10.0,37.5786136,-122.3211856
Dynavax Technologies,"2100 Powell St APT 720, Emeryville, CA 94608, USA",Emeryville,Public,https://www.dynavax.com/,Synthetic oligonucleotides vaccines; adjuvants,,17,10.0,37.8393639,-122.2989698
EAG Laboratories,"250 N Nash St, El Segundo, CA 90245, USA",El Segundo,Private with SEC Filings,https://www.eag.com/industry/pharmaceuticals/,Analytical & Synthesis Services,,0,10.0,33.9193368,-118.3872011
EBR Systems,"480 Oakmead Pkwy, Sunnyvale, CA 94085, USA",Sunnyvale,Public,https://www.ebrsystemsinc.com/,Wireless Cardiac Stimulation,,6,10.0,37.3838375,-121.9879191
EV Therapeutics,"9310 Athena Cir, La Jolla, CA 92037, USA",La Jolla,Private with SEC Filings,https://www.evtherapeutics.com/,Extracellular Vesicle Delivery,,0,10.0,32.8771619,-117.2210278
EXONBIO,"5950 Priestly Dr STE 101, Carlsbad, CA 92008, USA",Carlsbad,Private,https://exonbio.com/,Monoclonal antibody discovery with single plasma cell interrogation (SPIN®) technology from immunized animals,,0,,33.1339703,-117.2718828
Eargo,"2665 N First St STE 300, San Jose, CA 95134, USA",San Jose,Defunct,https://www.eargo.com/,Hearing Aids,,0,10.0,37.3876485,-121.9299026
Earli,"1400 Bridge Pkwy Suite 201, Redwood City, CA 94065, USA",Redwood City,Defunct,https://www.earli.com/,Early cancer biomarker detection,,0,10.0,37.5351161,-122.2582547
EchoPixel,"780 Montague Expy Suite 305, San Jose, CA 95131, USA",San Jose,Private with SEC Filings,https://echopixeltech.com/,3D Surgical Imaging,,0,10.0,37.3962225,-121.9130055
Eclipse Bioinnovations,"5770 Oberlin Dr, San Diego, CA 92121, USA",San Diego,Private with SEC Filings,https://eclipsebio.com/,RNA Products & Services,,0,10.0,32.8933842,-117.1945399
Edan Diagnostics,"9918 Via Pasar, San Diego, CA 92126, USA",San Diego,Defunct,https://www.edandiagnostics.com/,Diagnostic Instruments,,1,10.0,32.8997948,-117.1199191
Edge BioSystems,"2032 Concourse Dr, San Jose, CA 95131, USA",San Jose,Private with SEC Filings,https://edgebio.com/en,Sequencing Dyes,,2,10.0,39.1414521,-77.20878429999999
EditCo Bio,"600 Saginaw Dr, Redwood City, CA 94063, USA",Redwood City,Private with SEC Filings,https://www.editco.bio/,Cell Engineering Platform; guide RNAs and made-to-order edited cells,,0,10.0,37.5029738,-122.2214234
Edwards Lifesciences,"1 Edwards Way, Irvine, CA 92614, USA",Irvine,Public,https://www.edwards.com/,Medical Devices,,9,10.0,33.6990926,-117.8509434
EicOsis,"1930 5th St Suite A, Davis, CA 95616, USA",Davis,Clinical Stage,https://www.eicosis.com/,Inhibitors to a the soluble epoxide hydrolase,,6,,38.5481045,-121.7280525
Eicos Sciences,"5425 Wisconsin Ave floor 6, Chevy Chase, MD 20815, USA",San Mateo,Private,https://www.eicossciences.com/,Prostacyclins,,0,,38.9623237,-77.08528009999999
Eigen Therapeutics,"740 Broadway, Redwood City, CA 94063, USA",Redwood City,Private with SEC Filings,https://www.eigentx.com/,Cancer Priming Therapies,,0,10.0,37.4865276,-122.2092342
Eikon Therapeutics,"230 Harriet Tubman Way, Millbrae, CA 94030, USA",Millbrae,Clinical Stage,https://www.eikontx.com/,Single Particle Tracking,,8,,37.5992162,-122.3840923
Eko Devices,"2100 Powell St, Emeryville, CA 94608, USA",Emeryville,Defunct,https://www.ekohealth.com/,Digital Stethoscope,,15,10.0,37.8393639,-122.2989698
Ekso Bionics,"101 Glacier Point # A, San Rafael, CA 94901, USA",San Rafael,Public,https://eksobionics.com/,Exoskeleton,,5,10.0,37.9501962,-122.4897467
Eledon Pharmaceuticals,"19800 MacArthur Blvd #250, Irvine, CA 92612, USA",Irvine,Public,https://eledon.com/,ENT Treatments,,5,10.0,33.6548409,-117.8604919
Elegen,"3565 Haven Ave Suite 3, Menlo Park, CA 94025, USA",San Carlos,Defunct,https://elegenbio.com/,DNA writing,,0,10.0,37.4868238,-122.1869517
Element,"2341 Stanwell Dr, Concord, CA 94520, USA",Concord,Defunct,https://www.element.com/life-sciences,Global life sciences services. Benefit from CDMO; CRO; analytical; and central lab support.,,2,10.0,37.981934,-122.050052
Element Biosciences,"10055 Barnes Canyon Rd Suite 100, San Diego, CA 92121, USA",San Diego,Clinical Stage,https://www.elementbiosciences.com/,Genetic analysis tools; Sequencing Tools,,11,,32.8988933,-117.2001338
Element Science,"200 Kansas St Suite 210, San Francisco, CA 94103, USA",San Francisco,Clinical Stage,https://elementscience.com/,Wearable device to prevent cardiac death,,2,,37.7667651,-122.4042173
Elevate Movement,"5674 El Camino Real STE N, Carlsbad, CA 92008, USA",Carlsbad,Private with SEC Filings,https://www.elevatemovement.com/,External Orthopedics Support Devices,,0,10.0,33.1386784,-117.2736279
Elevation Spine,"2511 Garden Rd Suite B125, Monterey, CA 93940, USA",Monterey,Private with SEC Filings,https://www.elevationspine.com/,Spinal Fusion Device,,0,10.0,36.5866854,-121.8532366
Elim Biopharm,"25495 Whitesell St, Hayward, CA 94545, USA",Hayward,Private with SEC Filings,https://www.elimbio.com/,Life Science Services,,0,10.0,37.6298658,-122.1292346
Eliquent Life Sciences,"1055 Thomas Jefferson St NW, Washington, DC 20007, USA",San Francisco,Private,https://eliquent.com/,Regulatory & Compliance Consulting,,0,,38.903769,-77.05964759999999
Elixir Medical,"920 N McCarthy Blvd #100, Milpitas, CA 95035, USA",Milpitas,Defunct,https://elixirmedical.com/,Stents,,18,10.0,37.4401151,-121.921296
Emboline,"2901 Mission St Building 2, Santa Cruz, CA 95060, USA",Santa Cruz,Clinical Stage,https://emboline.com/,Total Embolic Protection Catheter,,1,,36.9601016,-122.0585491
Embolx,"530 Lakeside Dr #150, Sunnyvale, CA 94085, USA",Sunnyvale,Private with SEC Filings,https://embolx.com/,Microcatheters for arterial embolization procedures,,0,10.0,37.3842579,-121.9926636
Emergent BioSolutions,"555 Twin Dolphin Dr #360, Redwood City, CA 94065, USA",,Clinical Stage,https://www.emergentbiosolutions.com,,"Emergent BioSolutions Inc. is an American multinational specialty biopharmaceutical company headquartered in Gaithersburg, Maryland.",14,,37.5209764,-122.2557959
EmeritusDX,"12 Spectrum Pointe Dr, Lake Forest, CA 92630, USA",Lake Forest,Private with SEC Filings,https://emeritusdx.com/,Cancer Diagnostics,,0,10.0,33.6609697,-117.6946347
Emmaus Life Sciences,"21250 Hawthorne Blvd # 800, Torrance, CA 90503, USA",Torrance,Public,https://www.emmausmedical.com/,Oral amino acid treatment,,0,10.0,33.8361975,-118.3526149
Emmecell,"3475 Edison Way suite t, Menlo Park, CA 94025, USA",Menlo Park,Clinical Stage,https://www.emmecell.com/,Cell Therapies for Ophthalmology,,1,,37.4768607,-122.1975742
Empirico,"10955 Vista Sorrento Pkwy STE 130, San Diego, CA 92130, USA",San Diego,Private with SEC Filings,https://www.empiri.co/,Genetics-Based Drug Discovery,,0,10.0,32.9157204,-117.2289543
Enable Biosciences,"510 Myrtle Ave # 101, South San Francisco, CA 94080, USA",South SF,Clinical Stage,https://www.enablebiosciences.com/,Antibody Detection,,5,,37.6480096,-122.4201518
Encoded Therapeutics,"341 Oyster Point Blvd, South San Francisco, CA 94080, USA",South SF,Clinical Stage,https://encoded.com/,Gene Therapy,,4,,37.6652967,-122.3900301
Encodia,"5785 Oberlin Dr Suite 300, San Diego, CA 92121, USA",San Diego,Private,https://www.encodia.com/,Protein Analysis Technologies,,0,,32.8929647,-117.1935375
Endeavor BioMedicines,"12707 High Bluff Dr suite 300, San Diego, CA 92130, USA",San Diego,Private with SEC Filings,https://endeavorbiomedicines.com/,Hedgehog signaling pathway inhibitor,,4,10.0,32.9487949,-117.2401914
Endiatx,"25545 Whitesell St, Hayward, CA 94545, USA",Hayward,Clinical Stage,https://endiatx.com/,Pill-sized Robot,,1,,37.6293122,-122.1279988
Endocrine Technologies,"35325 Fircrest St # A, Newark, CA 94560, USA",Newark,Private with SEC Filings,https://endocrinetech.com/,Peptide synthesis; ELISA kits,,1,10.0,37.5443181,-122.0562822
Endologix,"2 Musick, Irvine, CA 92618, USA",Irvine,Defunct,https://endologix.com/,Medical Devices,,15,10.0,33.6602861,-117.704774
Endpoint Health,"855 El Camino Real Suite 13A, Palo Alto, CA 94301, USA",Palo Alto,Private with SEC Filings,https://endpointhealth.com/,Personalized Medicine,,0,10.0,37.4384779,-122.1576188
Engine Biosciences,"1400 Bridge Pkwy, Redwood City, CA 94065, USA",Redwood City,Private,https://www.enginebio.com/,AI & genomics,,0,,37.5351161,-122.2582547
EnquBio,"11120 Roselle St Suite A, San Diego, CA 92121, USA",San Diego,Private,https://www.enqubio.com/,Contract Research & Services,,0,,32.9047681,-117.2308128
Ensigna Biosystems,"1600 Harbor Bay Pkwy #200, Alameda, CA 94502, USA",Alameda,Private,https://ensigna.com/,Lab Services,,0,,37.7248022,-122.2408566
Enspectra Health,"2495 Hospital Dr, Mountain View, CA 94040, USA",Mountain View,Clinical Stage,https://www.enspectrahealth.com/,Cell Imaging Device,,2,,37.3689253,-122.0813853
Ensysce Biosciences,"7946 Ivanhoe Ave, La Jolla, CA 92037, USA",La Jolla,Public,https://ensysce.com/,Fullerene carbon nanotubes as delivery agents for cancer therapeutics,,9,10.0,32.8479635,-117.2727094
Enterey,"200 Spectrum Center Dr Suite 220, Irvine, CA 92618, USA",Irvine,Private,https://www.enterey.com/,Life Science Consulting,,0,,33.6522206,-117.7483167
EntroGen,"20950 Warner Center Ln B, Woodland Hills, CA 91367, USA",Woodland Hills,Private,https://entrogen.com/web4/,Molecular Diagnostics,,0,,34.1743167,-118.5899254
Enviroflo,"6081 Meridian Ave suite 70-340, San Jose, CA 95120, USA",San Jose,Private with SEC Filings,https://enviroflo.com/Welcome,Lab enclosures,,0,10.0,37.2296824,-121.8847087
Epalex,"305 Lytton Ave, Palo Alto, CA 94301, USA",Mountain View,Private with SEC Filings,https://www.epalex.com/,Specialty Pharmaceuticals,,0,10.0,37.4469772,-122.1629412
EpiBiologics,"1900 Alameda de las Pulgas, San Mateo, CA 94403, USA",San Mateo,Private,https://www.epibiologics.com/,Bispecific Antibody,,0,,37.5453173,-122.3228267
EpicentRx,"11099 N Torrey Pines Rd #160, La Jolla, CA 92037, USA",La Jolla,Defunct,https://www.epicentrx.com/,Epigenetics; Oncolytic viruses,,16,10.0,32.9088233,-117.2395943
Epigen Biosciences,"6725 Mesa Ridge Rd Suite 260, San Diego, CA 92121, USA",San Diego,Private with SEC Filings,https://www.epigenbiosciences.com/,Drug Discovery & Development,,0,10.0,32.9013518,-117.1746803
Epinex Diagnostics,"2691 Richter Ave Unit 107, Irvine, CA 92606, USA",Irvine,Defunct,https://www.epinex.com/,Diabetes Diagnostic,,0,10.0,33.6915671,-117.8306849
Epirium Bio,"9171 Towne Centre Dr #270, San Diego, CA 92122, USA",Sacramento,Defunct,https://epirium.com/,Mitochondria Targeting,,1,10.0,32.8721993,-117.2066254
Epitope Diagnostics,"17034 Camino San Bernardo, San Diego, CA 92127, USA",San Diego,Defunct,https://www.epitopediagnostics.com/,Esoteric Immunoassay Kits,,0,10.0,33.01872590000001,-117.1022688
Equillium,"2223 Avenida De La Playa, La Jolla, CA 92037, USA",La Jolla,Clinical Stage,https://www.equilliumbio.com/home/default.aspx,Monoclonal Antibody Therapies,,7,,32.8533773,-117.2552426
Erasca,"3115 Merryfield Row Suite 300, San Diego, CA 92121, USA",San Diego,Public,https://www.erasca.com/,Cancer Therapies,,9,10.0,32.9009356,-117.2384919
Escient Pharmaceuticals,"10578 Science Center Dr #250, San Diego, CA 92121, USA",San Diego,Private with SEC Filings,https://www.escientpharma.com/,GPCR-targeted Drugs,,6,10.0,32.89598790000001,-117.2313549
Etaluma,"3129 Tiger Run Ct Suite 218, Carlsbad, CA 92010, USA",Carlsbad,Private,https://etaluma.com/,Cell Imaging; Microscopes,,0,,33.1307154,-117.2443254
Eton Bioscience,"9215 Brown Deer Rd STE B, San Diego, CA 92121, USA",San Diego,Defunct,https://etonbio.com/,Research Reagents; Kits; Peptides; Services; etc.,,0,10.0,32.8888964,-117.178448
Eureka Therapeutics,"5858 Horton St #370, Emeryville, CA 94608, USA",Emeryville,Clinical Stage,https://www.eurekatherapeutics.com/,Antibodies,,7,,37.8403763,-122.2906641
Evidation Health,"3 E 3rd Ave, San Mateo, CA 94401, USA",San Mateo ,Defunct,https://evidation.com/,Behavioral Data Collection,,15,10.0,37.5634106,-122.3256615
Evofem Biosciences,"12636 High Bluff Dr #400, San Diego, CA 92130, USA",San Diego,Private,https://www.evofem.com/,Women's health,,0,,32.9476462,-117.2418114
Evoke Pharma,"420 Stevens Ave Suite 370, Solana Beach, CA 92075, USA",Solana Beach,Public,https://evokepharma.com/,GI Products; 505(b)(2),,3,10.0,32.9927178,-117.2609009
Evommune,"1841 Page Mill Rd #100, Palo Alto, CA 94304, USA",Palo Alto,Public,https://www.evommune.com/,Human Skin Model for Drug Discovery,,5,10.0,37.4063548,-122.1535053
Exact Sciences Corp.,"Galveston Dr, Redwood City, CA 94063, USA",,Clinical Stage,http://www.exactsciences.com/,,"Exact Sciences Corp. is an American molecular diagnostics company based in Madison, Wisconsin specializing in the detection of early stage cancers.",2,,37.498649,-122.2165899
Exagen Diagnostics,"1261 Liberty Way, Vista, CA 92081, USA",Vista,Defunct,https://exagen.com/,Diagnostics,,0,10.0,33.1375095,-117.2318774
Exai Bio,"3350 W Bayshore Rd, Palo Alto, CA 94303, USA",Palo Alto,Clinical Stage,https://www.exai.bio/,Liquid Biopsy,,1,,37.4358554,-122.1105516
Excellos,"1155 Island Ave, San Diego, CA 92102, USA",San Diego,Private with SEC Filings,https://excellos.com/,Cell & Gene Therapy CDMO,,0,10.0,32.7102997,-117.154213
Exceltox Laboratories,"15375 Barranca Pkwy suite e-104, Irvine, CA 92618, USA",Irvine,Private,https://www.exceltox.com/,Pharmacogenomic testing,,0,,33.66266239999999,-117.7424499
Excision BioTherapeutics,"499 Jackson St Suite 300, San Francisco, CA 94111, USA",San Francisco,Private with SEC Filings,https://www.excision.bio/,Gene Editing,,2,10.0,37.7963423,-122.4032235
Exelixis,"1851 Harbor Bay Pkwy, Alameda, CA 94502, USA",Alameda,Clinical Stage,https://www.exelixis.com/,Small Molecules,,9,,37.7262466,-122.2447354
Exo Imaging,"4201 Burton Dr, Santa Clara, CA 95054, USA",Santa Clara,Private with SEC Filings,https://www.exo.inc/,Ultrasound Platform,,0,10.0,37.39189289999999,-121.9615819
Expanding Innovations,"110 Pioneer Way # I, Mountain View, CA 94041, USA",Mountain View,Private with SEC Filings,https://expandinginnovations.com/,Non-screw based expandable cage technology,,4,10.0,37.3887348,-122.0675217
Expanesthetics,"1450 Drew Ave #100, Davis, CA 95618, USA",Davis,Private,https://www.expanesthetics.com/,Next-generation inhaled general anesthetics and non-opioid analgesics,,0,,38.54381,-121.7266176
Expert Chemical Analysis,"10366 Roselle St Suite C, San Diego, CA 92121, USA",San Diego,Defunct,http://ecalab.com/,Analytical Testing & Consulting,,0,10.0,32.8927506,-117.2178852
Expression Systems,"2537 2nd St, Davis, CA 95618, USA",Davis,Clinical Stage,https://expressionsystems.com/,Baculovirus Expression,,1,,38.548446,-121.7204888
Eyenuk,"5850 Canoga Ave #250, Woodland Hills, CA 91367, USA",Woodland Hills,Clinical Stage,https://www.eyenuk.com/us-en/,AI Eye Screening,,4,,34.176834,-118.5968141
FAScinate Therapeutics,"4365 Executive Dr, San Diego, CA 92121, USA",San Diego,Private with SEC Filings,https://www.fascinatetherapeutics.com/,Parkinson's Treatment,,1,10.0,32.8746222,-117.2118947
FFA Sciences,"3550 General Atomics Ct, San Diego, CA 92121, USA",San Diego,Private with SEC Filings,https://ffasciences.com/,Proteins and Probes,,1,10.0,32.8942406,-117.2352095
Fabric Genomics,"436 14th St Suite 1300, Oakland, CA 94612, USA",Oakland,Private with SEC Filings,https://fabricgenomics.com/,Computational genomics,,0,10.0,37.8044453,-122.2708386
Farbridge Pharma Consulting,"7465 Mission Gorge Rd suite 123, San Diego, CA 92120, USA",San Diego,Private,https://www.farbridgepharma.com/,Pharmaceutical Consulting,,0,,32.8067563,-117.077354
Fate Therapeutics,"3535 General Atomics Ct #200, San Diego, CA 92121, USA",San Diego,Public,https://www.fatetherapeutics.com/,Stem Cell-Modulating Therapeutics,,20,10.0,32.8935,-117.2383806
Fauna Bio,"6460 Hollis St Suite A, Emeryville, CA 94608, USA",Emeryville,Defunct,https://www.faunabio.com/,Cross-Mammalian Genomics for Human Health,,0,10.0,37.8458275,-122.2908776
FemtoDx,"8484 Wilshire Blvd #630, Beverly Hills, CA 90211, USA",Beverly Hills,Private,https://www.femtodx.com/,Heart Failure Diagnosis & Monitoring,,0,,34.0646268,-118.3756417
FibrAlign,"32930 Alvarado-Niles Rd #350, Union City, CA 94587, USA",Union City,Defunct,https://www.fibralignbio.com/,Collagen-based matrices; which can mimic different tissue patterns,,2,10.0,37.5952252,-122.0468444
Firefly Bio,"201 Haskins Way, South San Francisco, CA 94080, USA",South SF,Defunct,https://fireflybiologics.com/,Degrader-antibody conjugates,,0,10.0,37.6493609,-122.3857456
Fluxergy,"15 Musick, Irvine, CA 92618, USA",Irvine,Private,https://www.fluxergy.com/,Diagnostic Lab-in-a-box,,0,,33.6634357,-117.7056607
Fluxus,"1175 Sonora Ct, Sunnyvale, CA 94086, USA",Sunnyvale,Private,https://www.fluxus.bio/,Photonics; engineering; chip fabrication; assay development; and reagent manufacturing,,0,,37.3717021,-121.9974046
Foothill Scientific Associates,"25422 Trabuco Rd, Lake Forest, CA 92630, USA",Lake Forest,Defunct,https://www.foothillscientific.com/,Corporate / product development; technical management; and US funding for drug/device development,,2,10.0,33.6477157,-117.6869001
FormuMax,"1230 Bordeaux Dr, Sunnyvale, CA 94089, USA",Sunnyvale,Private,https://www.liposomeexpert.com/,Liposomes; transfection supplies,,0,,37.4109717,-122.0222219
Formurex,"2470 Wilcox Rd, Stockton, CA 95215, USA",Stockton,Private,http://www.formurex.com,Contract Research,,0,,37.9873022,-121.2436454
Freenome,"Genesis Marina, 3300 Marina Blvd, Brisbane, CA 94005, USA",South SF,Clinical Stage,https://www.freenome.com/,Cancer Diagnostics,,5,,37.6765313,-122.3873831
Frontage,"3825 Bay Center Pl, Hayward, CA 94545, USA",Hayward,Private with SEC Filings,https://www.frontagelab.com/,Contract Research & Development; Clinical Services; CMC Services,,0,10.0,37.6281532,-122.1275008
Frontier Bio,"3515 Breakwater Ave, Hayward, CA 94545, USA",Hayward,Private with SEC Filings,https://www.frontierbio.com/,Engineered Tissues for Medical Testing,,0,10.0,37.6289619,-122.1215942
FzioMed,"231 Bonetti Dr, San Luis Obispo, CA 93401, USA",San Luis Obispo,Defunct,https://www.fziomed.com/,Surgical Adhesion Barrier,,1,10.0,35.252204,-120.6661389
G-Tech Medical,"2490 Hospital Dr, Mountain View, CA 94040, USA",Mountain View ,Private with SEC Filings,https://www.gtechmedical.com/,EKG for the gut,,1,10.0,37.3698413,-122.082332
GATC Health,"2305 Calvert St NW #7, Washington, DC 20008, USA",Irvine,Defunct,https://gatchealth.com/,AI-powered multiomics platform for rapid drug discovery,,0,10.0,38.9237183,-77.0507121
GE HealthCare,"1283 Mountain View -Alviso Rd, Sunnyvale, CA 94089, USA",,Clinical Stage,http://www.gehealthcare.com,,"GE Healthcare Technologies, Inc. is an American health technology company based in Chicago, Illinois.",8,,37.4108867,-121.9883939
GEn1E Lifesciences,"1895 El Camino Real, Palo Alto, CA 94306, USA",Palo Alto,Private with SEC Filings,https://www.gen1e.com/,Rare Diseases,,3,10.0,37.4289033,-122.1499675
GL Technologies,"6361 Nancy Ridge Dr, San Diego, CA 92121, USA",San Diego,Defunct,https://www.gl-tec.com/,Calibration Services,,1,10.0,32.8872702,-117.1846967
GRAIL,"1525 O'Brien Dr, Menlo Park, CA 94025, USA",Menlo Park,Public,https://grail.com/,Cancer diagnostics,,8,10.0,37.47691349999999,-122.1410381
GRI Bio,"2223 Avenida De La Playa #208, La Jolla, CA 92037, USA",La Jolla,Public,https://gribio.com/,Liver Disease Small Molecule,,2,10.0,32.853389,-117.2552235
Galvani Bioelectronics,"259 E Grand Ave., South San Francisco, CA 94080, USA",South SF,Defunct,https://galvani.bio/,Miniaturized; implantable devices,,3,10.0,37.654553,-122.3947812
Galvanize Therapeutics,"1531 Industrial Rd, San Carlos, CA 94070, USA",San Carlos,Defunct,https://galvanizetx.com/,Bronchoscopic therapy that delivers non-thermal pulsed electric fields to the airways,,5,10.0,37.5003295,-122.2424315
Ganymede,"3000 El Camino Real Bldg. 4, Suite 200, Palo Alto, CA 94306, USA",Palo Alto,Defunct,https://www.ganymede.bio/,Lab Automation,,0,10.0,37.4213129,-122.1415651
Gate Bioscience,"2000 Sierra Point Pkwy #200, Brisbane, CA 94005, USA",Brisbane,Private with SEC Filings,https://www.gatebio.com/,Molecular Gates,,1,10.0,37.67415099999999,-122.385825
Gator Bio,"2455 Faber Pl, Palo Alto, CA 94303, USA",Palo Alto,Defunct,https://www.gatorbio.com/,Next-gen BLI technology for higher signal strength; wider detection range; greater regeneration capabilities.,,0,10.0,37.4506028,-122.1159267
Gel Company,"665 3rd St UNIT 240, San Francisco, CA 94107, USA",San Francisco ,Public,https://gelcompany.com/,Gel Imaging,,0,10.0,37.77956080000001,-122.393027
GemPharmatech,"11175 Flintkote Ave Ste B, San Diego, CA 92121, USA",San Diego,Private,https://en.gempharmatech.com/,Genetically Engineered Mouse Models,,0,,32.9054161,-117.2319137
GenBio,"15222 Avenue of Science A, San Diego, CA 92128, USA",San Diego,Private with SEC Filings,https://www.genbio.com/,Medical Diagnostics,,0,10.0,32.9918107,-117.0817905
GenEdit,"3000 Marina Blvd suite 350, Brisbane, CA 94005, USA",Brisbane,Private with SEC Filings,https://genedit.com/,Nonviral CRISPR-delivery system,,0,10.0,37.675613,-122.386953
GenTarget,"7930 Arjons Dr suite B, San Diego, CA 92126, USA",San Diego,Private,https://www.gentarget.com/,Cloning; Virals; Cell Reagents; etc.,,0,,32.895233,-117.1485802
Genalyte,"6620 Mesa Ridge Rd # 100, San Diego, CA 92121, USA",San Diego,Private with SEC Filings,https://www.genalyte.com/,Multiplexing Instruments,,0,10.0,32.9022565,-117.1758554
GeneGenieDx,"7068 Koll Center Pkwy suite 402, Pleasanton, CA 94566, USA",Pleasanton,Private,https://www.genegeniedx.com/company,Developing scalable algorithms and assay solutions to address unmet needs in diagnosis,,0,,37.6631638,-121.9004617
GeneMed Biotechnologies,"1750 214th St, Torrance, CA 90501, USA",Torrance,Private,https://www.genemed.com/,Molecular Diagnostics; Tissue based diagnostics,,0,,33.83390869999999,-118.3112175
GeneTex,"2456 Alton Pkwy, Irvine, CA 92606, USA",Irvine,Private with SEC Filings,https://www.genetex.com/,Research Antibodies,,0,10.0,33.6910819,-117.8365848
Genefab,"1430 Harbor Bay Pkwy, Alameda, CA 94502, USA",Alameda,Private with SEC Filings,https://www.genefab.com/,Gene Therapy Services,,0,10.0,37.7227988,-122.2374417
Genentech,"1 Antibody Way, Oceanside, CA 92056, USA",Oceanside,Defunct,https://www.gene.com/,Small Molecules; Biologics,,5,10.0,33.2116037,-117.3009221
Gener8,"2077 Las Palmas Dr, Carlsbad, CA 92011, USA",Carlsbad,Defunct,https://www.gener8.net/,Medical Devices Prototyping; Engineering & Design; Biotech Consumables,,0,10.0,33.116903,-117.2759746
General Cardiac Technology,"6489 Camden Ave #106, San Jose, CA 95120, USA",San Jose,Defunct,https://www.hearthugger.com,Sternum support harness,,0,10.0,37.2202299,-121.8638969
Genervon,"1055 E Colorado Blvd Suite 500, Pasadena, CA 91106, USA",,Defunct,http://www.genervon.com/genervon/about.php,,"Genervon Biopharmaceuticals is a pharmaceutical company based in Pasadena, CA, focused on creating drugs for diseases of the central human nervous system.",3,10.0,34.1463773,-118.1287257
Genervon Biopharmaceuticals,"1055 E Colorado Blvd Suite 500, Pasadena, CA 91106, USA",Pasadena,Clinical Stage,https://www.genervon.com/,Synthetic Peptide,,3,,34.1463773,-118.1287257
Genomatica,"4757 Nexus Center Dr, San Diego, CA 92121, USA",San Diego,Private with SEC Filings,https://www.genomatica.com/,Biologically Produced Chemicals,,1,10.0,32.878106,-117.2026
Genomic Testing Cooperative,"25371 Commercentre Dr, Lake Forest, CA 92630, USA",Lake Forest,Defunct,https://genomictestingcooperative.com/,Diagnostics,,2,10.0,33.66666,-117.6857513
Geron,"919 E Hillsdale Blvd Suite 250, Foster City, CA 94404, USA",Foster City,Public,https://www.geron.com/,Small Molecule,,15,10.0,37.5559793,-122.2765874
GigaGen,"75 Shoreway Rd A, San Carlos, CA 94070, USA",San Carlos,Clinical Stage,https://www.gigagen.com/,Immune therapeutics,,3,,37.5200557,-122.2606969
Gilead,"333 Lakeside Dr, Foster City, CA 94404, USA",Foster City,Clinical Stage,https://www.gilead.com/,Small Molecules,,11,,37.5669611,-122.2816328
Gilero,"2520 Gateway Rd, Carlsbad, CA 92009, USA",Carlsbad,Private with SEC Filings,https://www.gilero.com/,Medical device design & development; drug delivery systems design & development,,0,10.0,33.1279196,-117.2623721
Global Cancer Technology,"16776 Bernardo Center Dr, San Diego, CA 92128, USA",San Diego,Defunct,https://globalcancertechnology.com/,Small molecule PI3K inhibitor,,0,10.0,33.0181106,-117.0760451
Glooko,"579 University Ave, Palo Alto, CA 94301, USA",Palo Alto,Defunct,https://glooko.com/,Glucose monitoring App,,2,10.0,37.4494165,-122.1584433
Glycomine,"953 Indiana St, San Francisco, CA 94107, USA",San Carlos,Private with SEC Filings,https://www.glycomine.com/,Glycosylation corrective therapy,,4,10.0,37.7581465,-122.3910973
Golden West Biologicals,"27625 Commerce Center Dr, Temecula, CA 92590, USA",Temecula,Defunct,https://goldenwest.bio/pages/biologicals,IVD Supplies,,0,10.0,33.511906,-117.162559
GondolaBio,"3160 Porter Dr Suite 250, Palo Alto, CA 94304, USA",Palo Alto,Private,https://gondolabio.com/,Therapeutics for Genetic Diseases,,0,,37.4066137,-122.1517297
Gordian Biotechnology,"486 Cabot Rd, South San Francisco, CA 94080, USA",San Francisco,Private with SEC Filings,https://www.gordian.bio/,Drug Screening Platform,,0,10.0,37.6540165,-122.3915544
Gossamer Bio,"3115 Merryfield Row Suite 120, San Diego, CA 92121, USA",San Diego,Public,https://www.gossamerbio.com/,Small Molecules,,9,10.0,32.9009816,-117.2384253
Grace Science,"1142 Crane St, Menlo Park, CA 94025, USA",Menlo Park,Defunct,https://www.gracescience.com/,Therapies based on the function of NGLY1; AAV gene therapy; small molecules,,1,10.0,37.45155889999999,-122.1857765
Greenstone Biosciences,"3160 Porter Dr Suite 140, Palo Alto, CA 94304, USA",Palo Alto,Private with SEC Filings,https://greenstonebio.com/,,,0,10.0,37.4066137,-122.1517297
Grifols,"1405 Stanford Ave, Emeryville, CA 94608, USA",Los Angeles,Defunct,https://www.grifols.com/en/home,Diagnostics; Plasma Derivatives,,15,10.0,37.8373597,-122.2901594
Gryphon Bio,"Building 83, 611 Gateway Blvd Suite 120 #253, South San Francisco, CA 94080, USA",South SF,Private with SEC Filings,https://www.gryphonbio.com/,Diagnostics for Brain Health,,0,10.0,37.65869929999999,-122.4001555
Guardant Health,"3100 Hanover St, Palo Alto, CA 94304, USA",Palo Alto,Public,https://guardanthealth.com/,Biopsy-free Cancer Diagnostics,,7,10.0,37.4136179,-122.1459059
Gyder Surgical,"3790 El Camino Real #1159, Palo Alto, CA 94306, USA",Palo Alto,Private,https://gydersurgical.com/,Surgical Devices,,0,,37.4174779,-122.1317153
Gyre Therapeutics,"12770 High Bluff Dr, San Diego, CA 92130, USA",San Diego,Private,https://www.gyretx.com/,Organ fibrosis and inflammatory diseases,,0,,32.9507875,-117.2403752
HAYA Therapeutics,"ALANINE, Rte de la Corniche, 1066 Epalinges, Switzerland",San Diego,Private with SEC Filings,https://www.hayatx.com/,RNA-based; RNA-targeting Fibrotic Therapies,,1,10.0,46.5420591,6.6620556
HD Medical,"4633 Old Ironsides Dr, Santa Clara, CA 95054, USA",Santa Clara,Defunct,https://hdmedicalgroup.com/,Intelligent Stethoscope,,0,10.0,37.3965228,-121.9789654
HORIBA Medical,"9755 Research Dr, Irvine, CA 92618, USA",Irvine,Private,https://www.horiba.com/int/healthcare/,Hematology; Hemostasis; Clinical Chemistry,,0,,33.6334395,-117.7287398
HTD Biosystems,"3197 Independence Dr, Livermore, CA 94551, USA",Livermore,Private,https://www.htdcorp.com/,Contract Development,,0,,37.7079506,-121.8118653
Hallux,"23052 Alcalde Dr # A, Laguna Hills, CA 92653, USA",Laguna Hills,Defunct,https://halluxinc.com/,Toenail Fungus Treatment,,2,10.0,33.6223761,-117.7274361
Halozyme Therapeutics,"12390 El Camino Real, San Diego, CA 92130, USA",San Diego,Clinical Stage,https://halozyme.com/,Extracellular Matrix; Licensed out,,13,,32.9416729,-117.2407687
Hand Biomechanics Lab,"77 Scripps Dr #104, Sacramento, CA 95825, USA",Sacramento,Private,https://handbiolab.com/,Hand Corrective Devices,,0,,38.5723166,-121.4108496
Handa Pharmaceuticals,"2025 Gateway Pl Suite 480, San Jose, CA 95110, USA",San Jose,Clinical Stage,http://handapharma.com/,Specialty pharmaceutical development - generic and 505(b)(2),,2,,37.3706799,-121.9240982
Harbor MedTech,"21076 Bake Pkwy #100, Lake Forest, CA 92630, USA",Lake Forest,Private with SEC Filings,https://www.harbormedtech.com/,Orthopedic soft tissue repair solutions,,0,10.0,33.6563153,-117.699981
HeartFlow,"331 E Evelyn Ave, Mountain View, CA 94041, USA",Mountain View,Public,https://www.heartflow.com/,Coronary heart diseases assessment,,9,10.0,37.3873074,-122.060174
Helio Genomics,"9950 Research Dr, Irvine, CA 92618, USA",Irvine,Clinical Stage,https://heliogenomics.com/,Cancer Diagnostics,,5,,33.6297797,-117.7282199
Helix,"101 S Ellsworth Ave #350, San Mateo, CA 94401, USA",San Mateo ,Defunct,https://www.helix.com/,Genetic Testing,,6,10.0,37.5665827,-122.3243479
Herophilus,"1405 Minnesota St, San Francisco, CA 94107, USA",San Francisco,Private,https://www.herophilus.com/,Phenotypic screening to discover novel drugs for complex neurological and psychiatric diseases,,0,,37.7519894,-122.3893802
Hexagon Bio,"1490 O'Brien Dr, Menlo Park, CA 94025, USA",Menlo Park,Private,https://www.hexagonbio.com/,Fungal Genomic Sequencing; Possible Therapeutic Applications,,0,,37.4761173,-122.1413398
Hillhurst Biopharmaceuticals,"2029 Verdugo Blvd, Montrose, CA 91020, USA",San Diego,Clinical Stage,https://hillhurstbio.com/,Oral Carbon Monoxide Therapeutics,,3,,34.2052562,-118.2203219
Hinge Bio,"863 Mitten Rd, Burlingame, CA 94010, USA",Burlingame,Defunct,https://hingebio.com/,Next-generation of multi-functional antibodies and Fc-fusion proteins,,0,10.0,37.6004871,-122.3742745
Histologics,"4095 E La Palma Ave suite n, Anaheim, CA 92807, USA",Anaheim,Private with SEC Filings,https://histologics.com/index.php,Biopsy Technology,,0,10.0,33.859738,-117.828641
Hologic,"10210 Genetic Center Dr, San Diego, CA 92121, USA",San Diego,Public,https://www.hologic.com/,Diagnostic; Imaging,,10,10.0,32.9054454,-117.1840102
Hongene Biotech Corporation,"29520 Kohoutek Way, Union City, CA 94587, USA",Union City,Private,https://www.hongene.com/,Research chemicals; nucleic acids,,0,,37.608966,-122.0802334
Horiba Instruments,"9755 Research Dr, Irvine, CA 92618, USA",Irvine,Private,https://www.horiba.com/int/,Equipment,,0,,33.6334395,-117.7287398
Hospi Corporation,"1650 S Amphlett Blvd UNIT 201, San Mateo, CA 94402, USA",San Mateo,Defunct,https://www.hospicorp.com/,Catheter,,0,10.0,37.5594662,-122.3034163
Human Longevity,"4570 Executive Dr, San Diego, CA 92121, USA",San Diego,Private with SEC Filings,https://www.humanlongevity.com/,Genotype / Phenotype database for therapeutic / diagnostics discovery,,0,10.0,32.8776526,-117.2092405
Huya Bioscience,"12531 High Bluff Dr # 138, San Diego, CA 92130, USA",San Diego,Private with SEC Filings,https://huyabio.com/,Compound Advancement,,1,10.0,32.9454078,-117.2400064
IDEAYA Biosciences,"5000 Shoreline Ct # 300, South San Francisco, CA 94080, USA",South SF,Public,https://www.ideayabio.com/,Personalized Synthetic Medicines,,7,10.0,37.6703657,-122.3884858
IGeneX,"556 Gibraltar Dr, Milpitas, CA 95035, USA",Milpitas,Private,https://igenex.com/,Lyme / tick-borne disease assays,,0,,37.4157409,-121.8921966
IRIDEX,"1212 Terra Bella Ave, Mountain View, CA 94043, USA",Mountain View,Private,https://www.iridex.com/,Ophthalmic lasers,,0,,37.4092046,-122.0786846
Iambic Therapeutics,"5627 Oberlin Dr UNIT 120, San Diego, CA 92121, USA",San Diego,Clinical Stage,https://www.iambic.ai/,AI-based Drug Discovery,,1,,32.89104349999999,-117.1965963
Ichor Medical Systems,"6310 Nancy Ridge Dr STE 107, San Diego, CA 92121, USA",San Diego,Private with SEC Filings,https://ichorms.com/,Enhanced Delivery of Gene Therapy,,3,10.0,32.8877802,-117.1834451
IconOVir Bio,"4570 Executive Dr #350, San Diego, CA 92121, USA",San Diego,Private with SEC Filings,https://iconovir.com/,Oncolytic Virus Therapy,,1,10.0,32.8778378,-117.2089545
IgGenix,"681 Gateway Blvd, South San Francisco, CA 94080, USA",South SF,Private with SEC Filings,https://iggenix.com/,Allergy Antibody Therapy,,1,10.0,37.6587657,-122.3988292
Igenomix,"383 Van Ness Ave #1605, Torrance, CA 90501, USA",Torrance,Private with SEC Filings,https://www.igenomix.com/,Contract genetic testing for reproductive health; covid-19 pcr,,16,10.0,33.84459500000001,-118.32041
Illumina,"25861 Industrial Blvd, Hayward, CA 94545, USA",Hayward,Public,https://www.illumina.com/,Genomic tools; research products; molecular diagnostics; NGS,,10,10.0,37.6340863,-122.1129031
Illuminant Surgical,"5855 Green Valley Cir #101, Culver City, CA 90230, USA",Culver City,Defunct,https://www.illuminant.ai/,Surgical Visualization,,0,10.0,33.9835709,-118.3886203
Immune-Onc Therapeutics,"795 San Antonio Rd, Palo Alto, CA 94303, USA",Palo Alto,Clinical Stage,https://www.immune-onc.com/,Immuno-Oncology,,4,,37.4210994,-122.1036121
Immunicom,"6048 Cornerstone Ct W, San Diego, CA 92121, USA",San Diego,Clinical Stage,https://immunicom.com/,Blood-filtering Cancer Treatments,,2,,32.8971428,-117.1901841
Immunis,"18301 Von Karman Ave, Irvine, CA 92612, USA",Irvine,Clinical Stage,https://immunisbiomedical.com/home/,Secretome Technology,,3,,33.6777078,-117.8544951
ImmunityBio,"440 Duley Rd, El Segundo, CA 90245, USA",El Segundo,Clinical Stage,https://immunitybio.com/,Cellular therapy,,18,,33.9227271,-118.3848648
Immuno Concepts,"9825 Goethe Rd, Sacramento, CA 95827, USA",Sacramento,Private,https://immunoconcepts.com/,Diagnostics,,0,,38.5549173,-121.3273133
Imorgon,"1700 S El Camino Real, San Mateo, CA 94402, USA",San Mateo,Private,https://imorgon.net/,Ultrasound,,0,,37.5520308,-122.3148092
Imperative Care,"1359 Dell Ave, Campbell, CA 95008, USA",Campbell,Defunct,https://imperativecare.com/,Large Diameter Catheters for stroke care,,2,10.0,37.2659531,-121.9555052
Implen,"31194 La Baya Dr Suite 104, Westlake Village, CA 91362, USA",Westlake Village,Private,https://www.implen.de/,Spectroscopy instruments and consumables for the non-destructive analysis of ultra low volume samples,,0,,34.1556416,-118.8018963
InCarda Therapeutics,"39899 Balentine Dr Suite 185, Newark, CA 94560, USA",Newark,Clinical Stage,https://www.incardatherapeutics.com/,Pulmonary drug delivery,,2,,37.5211135,-121.9938234
InClin,"155 Bovet Rd # 660, San Mateo, CA 94402, USA",San Mateo,Private with SEC Filings,https://www.inclin.com/,Clinical Research; Consulting,,0,10.0,37.5497423,-122.3167488
InVivoScribe,"10222 Barnes Canyon Rd building 1, San Diego, CA 92121, USA",San Diego,Private with SEC Filings,https://invivoscribe.com/,Molecular Diagnostics,,4,10.0,32.9006681,-117.1972476
Inari Medical,"6001 Oak Canyon Ste. 100, Irvine, CA 92618, USA",Irvine,Private with SEC Filings,https://www.inarimedical.com/,Catheter-based technologies for the treatment of venous thromboembolism,,14,10.0,33.6803979,-117.7683057
Inceptive,"3440 Hillview Ave Suite D100, Palo Alto, CA 94304, USA",Palo Alto,Private with SEC Filings,https://inceptive.life/,Biological Computers,,0,10.0,37.3960358,-122.1464466
Indi Molecular,"6160 Bristol Pkwy Suite 200, Culver City, CA 90230, USA",Los Angeles,Private with SEC Filings,https://www.indimolecular.com/,Small synthetic molecule replacement for antibody-based therapeutics,,0,10.0,33.9841912,-118.3895639
Induce Biologics,"15 Cushing, Irvine, CA 92618, USA",Irvine,Clinical Stage,https://www.inducebiologics.com/,Bone regenerative devices,,2,,33.6390215,-117.7386659
Infinimmune,"1600 Harbor Bay Pkwy Suite 150, Alameda, CA 94502, USA",Alameda,Private,https://www.infinimmune.com/,Human Antibody Therapeutics,,0,,37.7247662,-122.2404725
Infinity Neuro,"105 N Pointe Dr Suite E, Lake Forest, CA 92630, USA",Lake Forest,Private with SEC Filings,https://www.infinity-neuro.com/,Device to treat stroke,,0,10.0,33.66107180000001,-117.6934357
Inflammatix,"540 Oakmead Pkwy, Sunnyvale, CA 94085, USA",Sunnyvale,Clinical Stage,https://inflammatix.com/,Sepsis Diagnostics,,6,,37.3852032,-121.9879832
Inhibrx Biosciences,"11025 N Torrey Pines Rd STE 200, La Jolla, CA 92037, USA",La Jolla,Public,https://inhibrx.com/,Antibodies; Fusion Proteins,,6,10.0,32.9059366,-117.2429628
InjectSense,"2000 Powell St Suite 1425, Emeryville, CA 94608, USA",Emeryville,Private,https://www.injectsense.com/,In-vivo monitoring of intra-ocular pressure to assess glaucoma therapy effectiveness,,0,,37.8379279,-122.3007416
Inkspace Imaging,"5635 W Las Positas Blvd Suite 403/404, Pleasanton, CA 94588, USA",Pleasanton,Private,https://www.inkspaceimaging.com/,MRI Body Array,,0,,37.6906135,-121.8839663
InnoPep,"10239 Flanders Ct suite 102, San Diego, CA 92121, USA",San Diego,Private,https://www.innopep.com/,Custom Peptides,,0,,32.9042579,-117.1744508
Innova Vascular,"15375 Barranca Pkwy # B101, Irvine, CA 92618, USA",Irvine,Private with SEC Filings,https://innovavascular.com/,Catheter systems for non-surgical removal of blood clots in the peripheral vasculature,,1,10.0,33.6631391,-117.7433168
Innovative NeuroTechnologies,"430 Goddard, Irvine, CA 92618, USA",Irvine,Private with SEC Filings,https://innovneurotech.com/,Biologics for Neuro,,0,10.0,33.6314707,-117.740463
Innovex Biosciences,"1099 Essex Ave, Richmond, CA 94801, USA",Richmond,Private,https://innovexbio.com/,Research products,,0,,37.9492015,-122.3672169
Innovo Therapeutics,"10355 Science Center Dr Suite 260, San Diego, CA 92121, USA",San Diego,Private with SEC Filings,https://innovotherapeutics.com/,AI Drug Discovery,,3,10.0,32.8921849,-117.2305761
Inocras,"6330 Nancy Ridge Dr Unit 106, San Diego, CA 92121, USA",La Jolla,Clinical Stage,https://inocras.com/,Genomic Analysis,,1,,32.8883096,-117.1830426
Inovio Pharmaceuticals,"10480 Wateridge Cir, San Diego, CA 92121, USA",San Diego,Public,https://inovio.com/,DNA Vaccines,,12,10.0,32.897656,-117.2084771
Inscopix,"1212 Terra Bella Ave Suite 200, Mountain View, CA 94043, USA",Mountain View,Private,https://inscopix.com/,Miniature Microscope,,0,,37.4092043,-122.0786882
InsightRX,"548 Market St #88083, San Francisco, CA 94104, USA",San Francisco,Private,https://www.insight-rx.com/,Dosing Model,,0,,37.7900465,-122.4008744
Intarcia Therapeutics,"24650 Industrial Blvd, Hayward, CA 94545, USA",,Private with SEC Filings,http://www.intarcia.com/,,"Intarcia Therapeutics is an American biopharmaceutical company based in Boston, MA and incorporated under the laws of Delaware.",20,10.0,37.6403839,-122.1175339
Integra LifeSciences,"5955 Pacific Center Blvd #714, San Diego, CA 92121, USA",San Diego,Clinical Stage,https://www.integralife.com/,Medical Devices,,17,,32.9036779,-117.1891088
Integrated Endoscopy,"16 Technology Dr #165, Irvine, CA 92618, USA",Irvine,Defunct,https://iescope.com/,Reusable Arthroscopes,,0,10.0,33.6496114,-117.7359676
Integrated Research Associates,"4050 Redwood Hwy, San Rafael, CA 94903, USA",San Rafael,Private with SEC Filings,https://www.integratedresearchassociates.com/,Infectious Disease Treatment Products,,0,10.0,38.0079167,-122.5407397
Intercept Pharmaceuticals,"3636 Nobel Dr, San Diego, CA 92122, USA",San Diego,Defunct,https://www.interceptpharma.com/,Small Molecules,,15,10.0,32.8692687,-117.2276673
International Stem Cell,"9745 Businesspark Ave, San Diego, CA 92131, USA",Carlsbad,Public,https://www.internationalstemcell.com/,Proprietary Stem Cell Induction,,2,10.0,32.9004838,-117.1119249
Intraop Medical,"570 Del Rey Ave, Sunnyvale, CA 94085, USA",Sunnyvale,Defunct,https://intraop.com/,Radiation therapy during surgery,,0,10.0,37.392536,-122.033415
Intratus,"5330 Carroll Canyon Rd #220, San Diego, CA 92121, USA",San Diego,Private,https://www.intratus.com/,Non-invasive drug delivery platform technologies,,0,,32.8920983,-117.1929636
Intrinsic LifeSciences,"505 Coast S Blvd # 408, La Jolla, CA 92037, USA",La Jolla,Clinical Stage,https://www.intrinsiclifesciences.com/,In-Vitro Diagnostics,,1,,32.8431566,-117.2795076
Intuitive Surgical,"21627043, Sunnyvale, CA 94086, USA",Sunnyvale,Public,https://www.intuitive.com/en-us,Medical Devices,,14,10.0,37.3730555,-121.9911198
Invenio Imaging,"2310 Walsh Ave, Santa Clara, CA 95051, USA",Santa Clara,Private with SEC Filings,https://www.invenio-imaging.com/,Histology; Cavity Sampling,,1,10.0,37.3687212,-121.9666886
Invert,"2261 Market St #4579, San Francisco, CA 94114, USA",San Francisco,Defunct,https://invertbio.com/,Software product for bioprocess development and scale-up,,0,10.0,37.7647751,-122.4320369
Invicta Medical,"3930 Freedom Cir Ste 120, Santa Clara, CA 95054, USA",Santa Clara,Defunct,https://www.resterasleep.com/,Neurostimulation wearables for sleep apnea,,5,10.0,37.3873017,-121.9716168
Invitrx Therapeutics,"20503 Crescent Bay Dr, Lake Forest, CA 92630, USA",Lake Forest,Private with SEC Filings,https://invitrx.com/,Autologous Stem Cell Therapy; Therapeutic & Cosmetic,,0,10.0,33.6642822,-117.6926622
InvivoGen,"10515 Vista Sorrento Pkwy, San Diego, CA 92121, USA",San Diego,Defunct,https://www.invivogen.com/,Life Science Reagents,,0,10.0,32.898477,-117.216533
Ionis Pharmaceuticals,"2855 Gazelle Ct, Carlsbad, CA 92010, USA",Carlsbad,Clinical Stage,https://ionis.com/,RNA,,15,,33.1418629,-117.2521236
Iovance Biotherapeutics,"825 Industrial Rd, San Carlos, CA 94070, USA",San Carlos,Clinical Stage,https://www.iovance.com/,Adoptive Cell Therapy,,8,,37.5071925,-122.2511099
Irvine Clinical Research,"2515 McCabe Way #350, Irvine, CA 92614, USA",Irvine,Defunct,https://www.irvineclinical.com/,Clinical Trials,,0,10.0,33.6791534,-117.8460769
JADBio,"3154 Glendale Blvd, Los Angeles, CA 90039, USA",Los Angeles,Private,https://jadbio.com/,Machine Learning Data Analysis,,0,,34.116847,-118.261607
JOINN Biologics,"2600 Hilltop Dr Building L, Richmond, CA 94806, USA",Richmond,Private,https://www.joinnbio.com/,Biologics CDMO,,0,,37.9821854,-122.3398876
JSR Life Sciences,"1280 N Mathilda Ave, Sunnyvale, CA 94089, USA",Sunnyvale,Private,https://www.jsrlifesciences.com/,Cell culture; separations equipment & reagents,,0,,37.41346800000001,-122.0248061
Jaan Biotherapeutics,"6331 Nancy Ridge Dr, San Diego, CA 92121, USA",San Diego,Private with SEC Filings,https://jaanbio.com/,Adeno-associated viral delivery of microRNA inhibitors,,0,10.0,32.8875559,-117.184284
JadeBio,"505 Coast S Blvd, La Jolla, CA 92037, USA",La Jolla,Private,http://www.jadebio.com/,Contract Protein Analysis,,0,,32.8431901,-117.2794574
Janux Therapeutics,"10955 Vista Sorrento Pkwy Suite 200, San Diego, CA 92130, USA",San Diego,Clinical Stage,https://www.januxrx.com/,Immunotherapies for Cancer,,2,,32.9157204,-117.2289543
Jasper Therapeutics,"2200 Bridge Pkwy #102, Redwood City, CA 94065, USA",Redwood City,Public,https://jaspertx.com/,Humanized Monoclonal Antibody,,7,10.0,37.5379117,-122.2574528
Jazz Pharmaceuticals,"3000 El Camino Real, 2 Palo Alto Square Suite 600, Palo Alto, CA 94306, USA",Palo Alto,Public,https://www.jazzpharma.com/,Small Molecules,,12,10.0,37.4205201,-122.141537
JenaValve,"4 Cromwell, Irvine, CA 92618, USA",Irvine,Clinical Stage,https://jenavalve.com/,Transcatheter aortic valve replacement system,,8,,33.6520328,-117.7068885
Jumpcode Genomics,"6330 Nancy Ridge Dr, San Diego, CA 92121, USA",San Diego,Private,https://www.jumpcodegenomics.com/,CRISPR Genomic Technology,,0,,32.8883474,-117.1830323
Jupiter Endovascular,"155 Jefferson Dr, Menlo Park, CA 94025, USA",Menlo Park,Private with SEC Filings,https://jupiterendo.com/,Endovascular Device for Pulmonary Embolism,,1,10.0,37.4826659,-122.172663
Juvena Therapeutics,"640 Galveston Dr, Redwood City, CA 94063, USA",Redwood City,Clinical Stage,https://www.juvenatherapeutics.com/,Tissue Regeneration & Repair,,1,,37.4993956,-122.2161675
KARL STORZ Endoscopy,"2151 E Grand Ave # 100, El Segundo, CA 90245, USA",El Segundo,Private with SEC Filings,https://www.karlstorz.com/us/en/index.htm?target=,Endoscopy,,0,10.0,33.920223,-118.3883212
KB Medical Group,"16175 Stephens St, City of Industry, CA 91745, USA",Irvine,Defunct,https://www.kbmed.com/,Infusion; blood collection; clinical products,,0,10.0,34.0139111,-117.9509655
KDx Diagnostics,"14527 S Bascom Ave, Los Gatos, CA 95032, USA",Los Gatos,Private,https://kdxdiagnostics.com/,Diagnostics,,0,,37.2575101,-121.9496663
KHN Solutions/BACTrack,"200 Green St 2nd floor, San Francisco, CA 94111, USA",San Francisco,Private,https://www.bactrack.com/,BAC meter,,0,,37.800482,-122.402922
Kaer Biotherapeutics,"926 S Andreasen Dr # 105, Escondido, CA 92029, USA",Escondido,Private,https://www.kaerbio.com/,Generation and delivery of respirable aerosols,,0,,33.1140907,-117.1136524
Kainomyx,"319 N Bernardo Ave, Mountain View, CA 94043, USA",Mountain View,Private,https://www.kainomyx.com,Malaria and parasitic diseases,,0,,37.3873977,-122.0485947
Kardigan,"131 Oyster Point Blvd Second Floor, South San Francisco, CA 94080, USA",South SF,Private with SEC Filings,https://www.kardigan.bio/,Seems to be Small Molecules,,3,10.0,37.6627654,-122.3953188
Karius,"975 Island Dr, Redwood City, CA 94065, USA",Redwood City,Private with SEC Filings,https://kariusdx.com/,Diagnostics,,9,10.0,37.5349998,-122.2571228
Kezar Life Sciences,"4000 Shoreline Ct #300, South San Francisco, CA 94080, USA",South SF,Public,https://kezarlifesciences.com/,Therapies for autoimmune disorders,,7,10.0,37.6714306,-122.3889645
Khloris Biosciences,"319 N Bernardo Ave, Mountain View, CA 94043, USA",San Jose,Private with SEC Filings,https://www.khlorisbiosciences.com/,iPSC Library,,0,10.0,37.3873687,-122.0488103
Kinamed,"820 Flynn Rd, Camarillo, CA 93012, USA",Camarillo,Defunct,https://www.kinamed.com/,Implants; Surgical Tools,,2,10.0,34.2246971,-119.0214514
Kinovate,"501 Via Del Monte, Oceanside, CA 92058, USA",Oceanside,Private,https://www.kinovate.com/,Polymeric Supports for Nucleotide Synthesis,,0,,33.2132952,-117.3550641
Kodiak Sciences,"1250 Page Mill Rd, Palo Alto, CA 94304, USA",Palo Alto,Public,https://kodiak.com/,Long acting retinal medicines,,11,10.0,37.4199111,-122.147059
Koliber Biosciences,"12265 World Trade Dr Suite G, San Diego, CA 92128, USA",San Diego,Private,https://koliberbio.com/,Services,,0,,32.9872214,-117.0721616
Konan Medical,"15770 Laguna Canyon Rd #150, Irvine, CA 92618, USA",Irvine,Private with SEC Filings,https://konanmedical.com/,Ophthalmic Diagnostics,,0,10.0,33.6655157,-117.7595734
Kriya Therapeutics,"380 Portage Ave, Palo Alto, CA 94306, USA",Redwood City,Clinical Stage,https://kriyatherapeutics.com/,Gene Therapy,,1,,37.4229211,-122.1382636
Kryptos Biotechnologies,"4030 Point Eden Way Suite A, Hayward, CA 94545, USA",Hayward,Private with SEC Filings,https://kryptosbio.com/,Diagnostics,,0,10.0,37.624872,-122.1280308
Kumquat Biosciences,"10770 Wateridge Cir UNIT 120, San Diego, CA 92121, USA",San Diego ,Clinical Stage,https://kumquatbiosciences.com/,Cancer Therapies,,5,,32.9002825,-117.2104112
Kura Oncology,"4390 Directors Pl suite 500, San Diego, CA 92121, USA",San Diego,Public,https://kuraoncology.com/,Small Molecules,,16,10.0,32.8942999,-117.2115021
Kurin,"10840 Thornmint Rd Suite 111, San Diego, CA 92127, USA",San Diego,Private,https://www.kurin.com/,Blood Collection Technology,,0,,33.0175572,-117.1006956
Kyowa Hakko Kirin,"9420 Athena Cir, La Jolla, CA 92037, USA",La Jolla,Private with SEC Filings,https://www.kyowakirin.com/index.html,Platform Drug Discovery Technology,,15,10.0,32.877405,-117.2197233
Kyverna Therapeutics,"5980 Horton St Suite 550, Emeryville, CA 94608, USA",Emeryville,Public,https://kyvernatx.com/,Treg Cell Therapy for Autoimmune Diseases,,6,10.0,37.8414289,-122.2910803
LENZ Therapeutics,"201 Lomas Santa Fe Dr STE 300, Solana Beach, CA 92075, USA",Del Mar,Clinical Stage,https://lenz-tx.com/,Ophthalmology Treatments,,10,,32.9924611,-117.2686736
LGC Biosearch Technologies,"51 Digital Dr, Novato, CA 94949, USA",Novato,Private with SEC Filings,https://www.biosearchtech.com/,Reagents; Probes; Oligonucleotides,,0,10.0,38.0713683,-122.53118
LGM Pharma,"17802 Gillette Ave, Irvine, CA 92614, USA",Irvine,Private with SEC Filings,https://lgmpharma.com/,Sourcing; warehousing & distribution of quality CGMP APIs to pharma & biotech companies.,,0,10.0,33.6873425,-117.8513626
LadRx,"11726 San Vicente Blvd, Los Angeles, CA 90049, USA",Los Angeles,Private,https://www.ladrxcorp.com/,Small Molecules; DNA,,0,,34.0530744,-118.4661471
Laguna Tech,"30 Hughes STE 205, Irvine, CA 92618, USA",Irvine,Defunct,https://lagunatechmed.com/,Transcatheter aortic and mitral heart valve replacement systems,,0,10.0,33.6537463,-117.7158488
LatchBio,"185 Berry St, San Francisco, CA 94107, USA",San Francisco,Private,https://latch.bio/,Cloud bioinformatics platform to help biological teams accelerate their R&D.,,0,,37.7765419,-122.3920659
Latitude Pharmaceuticals,"9675 Businesspark Ave, San Diego, CA 92131, USA",San Diego,Defunct,https://www.latitudepharma.com/,Formulation Services,,0,10.0,32.8985161,-117.1120364
LeGene Biosciences,"11403 W Bernardo Ct #100, San Diego, CA 92127, USA",San Diego,Private,http://legenebiosciences.com/,Molecular Biology Reagents,,0,,33.0216998,-117.0841061
Leardon Solutions,"11956 Bernardo Plaza Dr # 216, San Diego, CA 92128, USA",San Diego,Private,https://www.leardon.com/,Diagnostic and Device Development,,0,,33.021535,-117.0729776
Level Zero Health,"20 Water St, London E14 5GX, UK",San Francisco,Private with SEC Filings,https://www.levelzerohealth.com/,Continuous Hormone Monitoring,,0,10.0,51.502296,-0.0134995
Levena Biopharma,"4955 Directors Pl, San Diego, CA 92121, USA",San Diego,Private,https://www.levenabiopharma.com/,Antibody-drug Conjugation,,0,,32.89349900000001,-117.207816
Levita Magnetics,"453 Ravendale Dr Suite G, Mountain View, CA 94043, USA",Mountain View,Private with SEC Filings,https://www.levita.com/,Magnetic Surgical System,,8,10.0,37.390518,-122.0511617
LevitasBio,"1505 Adams Dr # D, Menlo Park, CA 94025, USA",Menlo Park,Private,https://levitasbio.com/,Cellular Analysis using Magnetic Levitation,,0,,37.4787547,-122.1427021
LiVeritas Biosciences,"432 N Canal St STE 20, South San Francisco, CA 94080, USA",South SF,Private,https://liveritas.bio/,Mass Spec Analysis,,0,,37.6526743,-122.4140126
LifeScience PLUS,"2520 Wyandotte St A, Mountain View, CA 94043, USA",Mountain View,Defunct,https://lifescienceplus.com/,Wound care,,4,10.0,37.417243,-122.099831
LifeWave Biomedical,"171 Main St Suite 583, Los Altos, CA 94022, USA",Los Altos,Defunct,https://lifewavebiomed.com/,Heart Failure Monitoring Implant,,0,10.0,37.3802256,-122.1193569
Liferiver Bio-Tech Corp,"505 Coast S Blvd Suite 401, La Jolla, CA 92037, USA",La Jolla,Private,https://liferiverbiotech.com/,Diagnostics; Reagents,,0,,32.8431649,-117.2795624
Light Horse Therapeutics,"6175 Nancy Ridge Dr, San Diego, CA 92121, USA",San Diego,Defunct,https://lighthorsetx.com/,Precision Gene Editing Applied to Small Molecule Drug Discovery,,0,10.0,32.8882775,-117.1870066
LimFlow,"Plaza West, 3031 Tisch Way #110, San Jose, CA 95128, USA",San Jose,Clinical Stage,https://limflow.com/,Critical Limb Ischemia Treatment,,6,,37.317537,-121.9476266
Limb Preservation Platform,"6215 N Fresno St #108, Fresno, CA 93710, USA",Fresno,Private with SEC Filings,https://www.lppresearch.com/,Clinical Research,,0,10.0,36.826782,-119.7817738
LinaTech,"1294 Kifer Rd STE 705, Sunnyvale, CA 94086, USA",Sunnyvale,Private,http://www.linatech.com/,Cancer treatment device,,0,,37.3718554,-121.9894756
Link Cell Therapies,"220 E Grand Ave. 2nd floor, South San Francisco, CA 94080, USA",South SF,Defunct,https://linkcelltx.com/,Cell Therapies focused on CAR T; oncology,,0,10.0,37.6532341,-122.3991773
Linnaeus Bioscience,"3030 Bunker Hill St Ste 201, San Diego, CA 92109, USA",San Diego,Private,https://linnaeusbio.com/,Bacterial Cytological Profiling,,0,,32.8037123,-117.2152942
Liquid Biosciences,"6B Liberty Ste 230, Aliso Viejo, CA 92656, USA",Aliso Viejo,Defunct,https://www.liquidbiosciences.com/,Bio-analytics platform for multi-omics data integration and advanced biomarker discovery,,11,10.0,33.5594602,-117.7286487
List Biological Laboratories,"540 Division St, Campbell, CA 95008, USA",Campbell,Private with SEC Filings,https://listlabs.com/,Bacterial Toxins; Contract Manufacturing,,0,10.0,37.2625882,-121.960155
Lixte Biotechnology,"680 E Colorado Blvd Suite 180, Pasadena, CA 91101, USA",Pasadena,Public,https://lixte.com/,Small Molecules; Diagnostics,,2,10.0,34.1454451,-118.136577
Lonza,"1000 New Horizons Way, Vacaville, CA 95688, USA",Vacaville,Private with SEC Filings,https://www.lonza.com/,Small Molecules; Biologics Contract Manufacturing,,1,10.0,38.39075630000001,-121.9477738
Lotus Clinical Research,"100 W California Blvd #25, Pasadena, CA 91105, USA",Pasadena,Defunct,https://lotuscr.com/,Clinical Research,,6,10.0,34.133639,-118.152753
Lumenis,"1735 Technology Dr, San Jose, CA 95110, USA",San Jose,Clinical Stage,https://lumenis.com/,Energy-based medical treatments,,17,,37.3672423,-121.9197106
LumiQuick Diagnostics,"2946 Scott Blvd, Santa Clara, CA 95054, USA",Santa Clara,Private,https://lumiquick.co/,Diagnostics,,0,,37.3752959,-121.9607989
Lumiphore,"1456 Fourth St C, Berkeley, CA 94710, USA",Berkeley,Private,https://www.lumiphore.com/,Chelation for Radiotheranostics,,0,,37.8749398,-122.3025253
Lumos Diagnostics,"2724 Loker Ave W, Carlsbad, CA 92010, USA",Carlsbad,Private with SEC Filings,https://lumosdiagnostics.com/,POC Diagnostics,,6,10.0,33.133474,-117.2607225
Luna Diabetes,"10070 Mesa Rim Rd, San Diego, CA 92121, USA",San Diego,Clinical Stage,https://www.lunadiabetes.com/,Insulin Pump,,1,,32.9016332,-117.1778735
LungLife AI,"2545 W Hillcrest Dr #140, Thousand Oaks, CA 91320, USA",Thousand Oaks,Clinical Stage,https://lunglifeai.com/,Bioseparations Equipment,,1,,34.18873689999999,-118.9326911
Lusis,"3500 Breakwater Ct, Hayward, CA 94545, USA",Hayward,Defunct,https://www.lusisbio.com/,Diagnostics,,0,10.0,37.62972269999999,-122.1218204
Lusis Biosciences,"3500 Breakwater Ct, Hayward, CA 94545, USA",Hayward,Private,https://www.lusisbio.com/,Benchtop Diagnostics,,0,,37.62972269999999,-122.1218204
Lycia Therapeutics,"400 E Jamie Ct #200, South San Francisco, CA 94080, USA",South SF,Private,https://lyciatx.com/,Lysosomal Targeting Chimeras Targeting Protein Degradation,,0,,37.6485077,-122.3862839
Lyell Immunopharma,"201 Haskins Way, South San Francisco, CA 94080, USA",South SF,Clinical Stage,https://lyell.com/,Curative cell-based immunotherapies,,6,,37.6492997,-122.3854221
Lygos,"25821 Industrial Blvd #300, Hayward, CA 94545, USA",Hayward,Private with SEC Filings,https://www.lygos.com/,Biologically-derived specialty chemicals,,0,10.0,37.6335257,-122.1146844
Lynx Biosciences,"3210 Merryfield Row, San Diego, CA 92121, USA",San Diego,Private,https://www.lynx.bio/,Phenotypic profiling and functional characterization of suspension cells,,0,,32.9006146,-117.2350009
MAST Biosurgery,"6749 Top Gun St STE 108, San Diego, CA 92121, USA",San Diego,Private with SEC Filings,https://mastbio.com/home-us/,Bioresorbable polymer implants,,1,10.0,32.9090492,-117.1737026
MAX BioPharma,"2870 Colorado Ave, Santa Monica, CA 90404, USA",Los Angeles,Private with SEC Filings,https://maxbiopharma.com/,Small Molecules,,15,10.0,34.0318356,-118.4670243
MBrace Therapeutics,"4660 La Jolla Village Dr Suite 950, San Diego, CA 92122, USA",San Diego,Clinical Stage,https://mbracetrx.com/,Phage-display Antibody Discovery; ADCs,,2,,32.8747002,-117.2065197
MCLAB,"320 Harbor Wy, South San Francisco, CA 94080, USA",San Francisco,Private,https://mclab.com/,Molecular biology reagents; enzymes; PCR/qPCR kits; cloning kits; protein purification solutions and genomic services,,0,,37.6455218,-122.3995957
MDxHealth,"15279 Alton Pkwy STE 100, Irvine, CA 92618, USA",Irvine,Clinical Stage,https://mdxhealth.com/,Molecular Diagnostics,,1,,33.6522883,-117.7345213
MP Biomedicals,"9 Goddard, Irvine, CA 92618, USA",Irvine,Defunct,https://www.mpbio.com/,Diagnostics & Life Sciences Products,,5,10.0,33.6334223,-117.7437971
Machaon Diagnostics,"2023 Eighth St, Berkeley, CA 94710, USA",Berkeley,Clinical Stage,https://www.machaondiagnostics.com/,Clinical reference lab,,1,,37.8674073,-122.2948945
MagQu,"517 Fairview Way, Milpitas, CA 95035, USA",Milpitas,Defunct,https://www.magqu.com/,Alzheimer's Diagnostic,,0,10.0,37.4456928,-121.9175039
Magnus Medical,"1350 Old Bayshore Hwy # 600, Burlingame, CA 94010, USA",Burlingame,Defunct,https://www.magnusmed.com/,Device for Depression Treatment,,4,10.0,37.5947114,-122.3639019
Makani Science,"5270 California Ave, Irvine, CA 92617, USA",Irvine,Private with SEC Filings,https://makaniscience.net/,Breathing Sensors,,1,10.0,33.6381195,-117.8491651
Mammoth Biosciences,"1000 Marina Blvd, Brisbane, CA 94005, USA",Brisbane,Private,https://mammoth.bio/,CRISPR; Gene-Editing Therapies,,0,,37.6744261,-122.3880333
MannKind,"30930 Russell Ranch Rd #300, Westlake Village, CA 91362, USA",Westlake Village,Clinical Stage,https://mannkindcorp.com/,Inhalable Biologics; Gene Therapy,,17,,34.1491376,-118.8004685
Mapp Biopharmaceutical,"4921 Directors Pl Suite 100, San Diego, CA 92121, USA",San Diego,Defunct,https://mappbio.com/,Infectious Disease Treatment,,0,10.0,32.8942232,-117.2102169
Marin Biologic Laboratories,"378 Bel Marin Keys Blvd, Novato, CA 94949, USA",Novato,Private,https://www.marinbio.com/,Contract Services,,0,,38.0743111,-122.5373835
Masimo,"52 Discovery, Irvine, CA 92618, USA",Irvine,Public,https://www.masimo.com/,Noninvasive patient monitoring,,14,10.0,33.662619,-117.756673
Materna Medical,"Materna Medical, 2495 Hospital Dr #300, Mountain View, CA 94040, USA",Mountain View,Clinical Stage,https://www.maternamedical.com/,Device to prevent childbirth injuries,,4,,37.3699608,-122.0822905
MatriSys Bioscience,"505 Coast S Blvd STE 311, La Jolla, CA 92037, USA",La Jolla,Private with SEC Filings,https://matrisysbio.com/,Dermatology & Skin Care,,0,10.0,32.843181,-117.279377
Matrix Biomed,"2301 Dupont Dr, Irvine, CA 92612, USA",Irvine,Clinical Stage,http://matrixbiomed.com/,Gene therapy for various cancers,,6,,33.6731429,-117.8568372
Maverix Biomics,"1875 S Grant St #700, San Mateo, CA 94402, USA",San Mateo,Private,https://www.maverixbio.com/,Next Generation Sequencing data analysis,,0,,37.5534274,-122.3002172
Mawi DNA Technologies,"1252 Quarry Ln # A, Pleasanton, CA 94566, USA",Pleasanton,Private,https://www.mawidna.com/,Non-invasive DNA sampling technology,,0,,37.672736,-121.866151
Maxygen (2),"5600 Mowry School Rd Suite 330, Newark, CA 94560, USA",Newark,Clinical Stage,https://www.maxygen.com/,Directed evolution services for protein engineering,,1,,37.5230725,-121.9907894
Maze Therapeutics,"171 Oyster Point Blvd STE 300, South San Francisco, CA 94080, USA",South SF,Public,https://mazetx.com/,Small Molecules; Gene Therapy; Antisense Oligonucleotides; Biologics,,2,10.0,37.6636657,-122.3942501
McGuff Pharmaceuticals,"4040 W Carriage Dr, Santa Ana, CA 92704, USA",Santa Ana,Clinical Stage,https://www.mcguffpharmaceuticals.com/,Contract Manufacturing,,1,,33.707864,-117.9246936
McKesson Corporation,"3775 Seaport Blvd, West Sacramento, CA 95691, USA",,Public,https://www.mckesson.com/,,"McKesson Corporation is an American publicly traded company that distributes pharmaceuticals and provides health information technology, medical supplies, and health management tools.",0,10.0,38.5644149,-121.5694858
MeCo Diagnostics,"5015 Shoreham Pl, San Diego, CA 92122, USA",San Diego,Private with SEC Filings,https://mecodiagnostics.com/,Cancer Molecular Diagnostic,,0,10.0,32.8509663,-117.1846738
Meadowhawk Biolabs,"26229 Eden Landing Rd, Hayward, CA 94545, USA",Hayward,Private,https://www.meadowhawkbiolabs.com/,Small & Large Molecule CRO,,0,,37.6239231,-122.1230609
MedSpark,"636 Clarion Ct, San Luis Obispo, CA 93401, USA",San Luis Obispo,Private,https://medspark.ms/,Medical Device Design & Development,,0,,35.244443,-120.6477806
Medable,"525 University Ave Suite A70, Palo Alto, CA 94301, USA",Palo Alto,Private with SEC Filings,https://www.medable.com/,Clinical Trial Management Software,,1,10.0,37.4486535,-122.159393
Medeologix,"2200 Zanker Rd, San Jose, CA 95131, USA",San Jose,Private,https://medeologix.com/,Contract development and manufacturing partner for minimally invasive devices,,0,,37.3815456,-121.9167756
Medeor Therapeutics,"611 Gateway Blvd Ste 120, South San Francisco, CA 94080, USA",South SF,Clinical Stage,https://www.medeortx.com/,Cellular Immunotherapy,,4,,37.65869929999999,-122.4001555
MediPrint Ophthalmics,"5310 Eastgate Mall, San Diego, CA 92121, USA",San Diego,Private with SEC Filings,https://mediprintlens.com/,Digital Printing on Contact Lenses for Drug Delivery,,1,10.0,32.8826426,-117.1931673
Medic Life Sciences,"950 Page Mill Rd, Palo Alto, CA 94304, USA",Mountain View,Private with SEC Filings,https://www.medic-life-sciences.com/,3D-tumor based CRISPR functional genomics platform,,1,10.0,37.4203649,-122.1463401
Medical Instrument Development Laboratories,"557 McCormick St, San Leandro, CA 94577, USA",San Leandro,Private,https://www.midlabs.com/,Ophthalmic devices,,0,,37.7242739,-122.1895346
MediciNova,"4275 Executive Square # 650, La Jolla, CA 92037, USA",La Jolla,Clinical Stage,https://medicinova.com/,Small Molecules,,16,,32.8735829,-117.2150219
Meditrina,"1190 Saratoga Ave #180, San Jose, CA 95129, USA",San Jose,Private with SEC Filings,https://www.avetasystem.com/,Single-use device for treatment of intrauterine pathologies,,1,10.0,37.3030231,-121.9792141
Medrio,"345 California St Suite 600, San Francisco, CA 94104, USA",San Francisco,Private with SEC Filings,https://medrio.com/,Clinical Trial Software,,0,10.0,37.7923252,-122.40049
Medtronic,"1851 E Deere Ave, Santa Ana, CA 92705, USA",Santa Ana,Clinical Stage,https://www.medtronic.com/us-en/index.html,Medical Devices,,16,,33.7068904,-117.8492162
Meissner,"1001 Flynn Rd, Camarillo, CA 93012, USA",Camarillo,Clinical Stage,https://www.meissner.com/,Lab Systems,,1,,34.2279079,-119.019533
Mercator MedSystems,"1900 Powell St #800, Emeryville, CA 94608, USA",San Leandro,Defunct,https://mercatormed.com/,Catheter-guided infusion systems,,10,10.0,37.838396,-122.299769
Merck,"213 E Grand Ave., South San Francisco, CA 94080, USA",South SF,Clinical Stage,https://www.merck.com/,Small Molecules; Vaccines; Biologics,,10,,37.65491,-122.3988193
Metagenomi,"5959 Horton St, Emeryville, CA 94608, USA",Emeryville,Public,https://metagenomi.co/,Gene-Edited Microbial Treatments,,0,10.0,37.8411418,-122.291636
Micro Medical Devices,"23945 Calabasas Rd #110, Calabasas, CA 91302, USA",Calabasas,Defunct,https://micromedinc.com/,Portable Eyecare Devices,,0,10.0,34.1536654,-118.649314
MicroPure Genomics,"11526 Sorrento Valley Rd STE D-1, San Diego, CA 92121, USA",San Diego,Private,https://micropuregenomics.com/,Sample Prep,,0,,32.9119412,-117.2332934
MicroRite,"5019 New Trier Ave, San Jose, CA 95136, USA",San Jose,Private with SEC Filings,https://www.microrite.com/,Consulting & Training,,0,10.0,37.2608419,-121.863062
Microbiologics,"6725 Mesa Ridge Rd, San Diego, CA 92121, USA",San Diego,Defunct,https://www.microbiologics.com/,Diagnostics; Services,,0,10.0,32.9011882,-117.1743428
Mikroscan Technologies,"2420 Grand Ave Suite G-2, Vista, CA 92081, USA",Vista,Private with SEC Filings,https://www.mikroscan.com/,Pathology Technology,,0,10.0,33.1549365,-117.2236767
Milagen,"1255 Park Ave B, Emeryville, CA 94608, USA",Emeryville,Private,https://www.milagen.com/,Tissue Analysis; Cancer Detection,,0,,37.8310902,-122.2841081
MilliporeSigma,"2827 Whiptail Loop W, Carlsbad, CA 92010, USA",Carlsbad,Private with SEC Filings,https://www.sigmaaldrich.com/US/en,Clinical Manufacturing,,0,10.0,33.1424672,-117.2547093
Mindera,"1221 Liberty Way, Vista, CA 92081, USA",Vista,Private with SEC Filings,https://minderahealth.com/,Non-invasive skin cancer test,,2,10.0,33.1375201,-117.2311424
Mindstate Design Labs,"611 Gateway Blvd Ste 120, South San Francisco, CA 94080, USA",South SF,Clinical Stage,https://www.mindstate.design/,Psychedelics,,1,,37.65869929999999,-122.4001555
Minerva Surgical,"4255 Burton Dr, Santa Clara, CA 95054, USA",Santa Clara,Defunct,https://minervasurgical.com/,Endometrial Ablation System,,6,10.0,37.3917808,-121.9630813
MingSight Pharmaceuticals,"11318 Village Ridge Rd, San Diego, CA 92131, USA",San Diego,Clinical Stage,https://mingsight.com/,selective inhibitor of protein kinase C beta,,6,,32.9366138,-117.0882084
MiraDx,"11601 Wilshire Blvd Suite 105 Plaza Level, Los Angeles, CA 90025, USA",Los Angeles,Private with SEC Filings,https://miradx.com/,Breast Cancer Diagnostics,,0,10.0,34.050936,-118.460026
Mirum Pharmaceuticals,"989 E Hillsdale Blvd #300, Foster City, San Mateo, CA 94404, USA",Foster City,Clinical Stage,https://mirumpharma.com/,Small Molecules,,19,,37.5579497,-122.2732616
Mirvie,"651 Gateway Blvd Suite 1200, South San Francisco, CA 94080, USA",South SF,Clinical Stage,https://www.mirvie.com/,RNA Platform for Pregnancy Issues,,1,,37.6594778,-122.3996915
Mission Bio,"300 Utah Ave Suite 210, South San Francisco, CA 94080, USA",South SF,Private with SEC Filings,https://missionbio.com/,Single-cell nucleic acid characterization,,0,10.0,37.6462428,-122.3942186
Mizuho OSI,"30031 Ahern Ave, Union City, CA 94587, USA",Union City,Defunct,https://www.mizuhosi.com/,Surgical / hospital tables,,0,10.0,37.610548,-122.077439
Molecular Depot,"9885 Mesa Rim Rd Suite 101, San Diego, CA 92121, USA",San Diego,Private,https://moleculardepot.com/,Antibodies; Development,,0,,32.8983636,-117.1788119
Molecular Devices,"3860 N First St, San Jose, CA 95134, USA",San jose,Private,https://www.moleculardevices.com/,Biotechnology Lab Equipment; Machines; Servicing,,0,,37.4137483,-121.9466464
Molecular Instruments,"5015 Eagle Rock Blvd #301, Los Angeles, CA 90041, USA",Los Angeles,Defunct,https://www.molecularinstruments.com/,HCR RNA-FISH and immunofluorescence kits and protein imaging assays,,1,10.0,34.1376026,-118.2149601
Molsoft,"11199 Sorrento Valley Rd, San Diego, CA 92121, USA",San Diego,Private with SEC Filings,https://www.molsoft.com/,Drug Design Software,,0,10.0,32.9060462,-117.2264511
Monobind,"100 N Pointe Dr, Lake Forest, CA 92630, USA",Lake Forest,Private,https://www.monobind.com/,IVD,,0,,33.6622968,-117.692725
Moonwalk Biosciences,"2 Tower Pl 17th Floor, South San Francisco, CA 94080, USA",South SF,Private with SEC Filings,https://moonwalk.bio/,Epigenetic discovery and editing platform,,0,10.0,37.6667835,-122.3972349
Moximed,"46602 Landing Pkwy, Fremont, CA 94538, USA",Fremont,Private with SEC Filings,https://moximed.com/,Joint treatment,,8,10.0,37.484026,-121.9417114
Multiply Labs,"1426 Minnesota St, San Francisco, CA 94107, USA",San Francisco,Private with SEC Filings,https://multiplylabs.com/,Robotics for Cell Therapy Manufacturing,,0,10.0,37.7516058,-122.3898231
"Multispan, Inc.","26219 Eden Landing Rd, Hayward, CA 94545, USA",Hayward,Private,https://multispaninc.com/,GPCR cell lines; assays and screening,,0,,37.6243346,-122.1229485
MuriGenics,"941 Railroad Ave, Vallejo, CA 94592, USA",Vallejo,Private,https://www.murigenics.com/,In-vivo and in-vitro contract drug discovery and development services,,0,,38.1003481,-122.2725243
Murrieta Genomics,"26442 Beckman Ct y, Murrieta, CA 92562, USA",Murrieta,Private with SEC Filings,https://www.murrietagenomics.com/,NGS services; sample preparation technologies; and genomic analysis platforms,,0,10.0,33.5328585,-117.180399
MyBioSource,"San Diego, CA 92123, USA",San Diego,Private,https://www.mybiosource.com/,ELISA Kit; Recombinant Protein; Antibody & custom kit productions. MyBioSource.com: One-Stop Reagent Shop with nearly 2 million Life Science Products.,,0,,32.8295792,-117.1347904
MyChem,"9215 Brown Deer Rd, San Diego, CA 92121, USA",San Diego,Private with SEC Filings,https://mychemlabs.com/web/index.php,Nucleotides,,0,10.0,32.8889074,-117.1784711
MyOme,"535 Middlefield Rd suite 170, Menlo Park, CA 94025, USA",Palo Alto,Clinical Stage,https://myome.com/,Genomic Analysis,,1,,37.458447,-122.1729745
MyoGene Bio,"7098 Miratech Dr #120, San Diego, CA 92121, USA",San Diego,Private,https://www.myogenebio.com/,Gene Editing Treatment,,0,,32.8987015,-117.1721107
Myriad Genetics,"233 E Grand Ave., South San Francisco, CA 94080, USA",,Clinical Stage,http://myriad.com,,"Myriad Genetics, Inc. is an American genetic testing and precision medicine company based in Salt Lake City, Utah, United States.",1,,37.6551644,-122.3969176
NAMSA,"9 Morgan, Irvine, CA 92618, USA",Irvine,Defunct,https://namsa.com/,Medical Research Organization - Medical Devices,,0,10.0,33.6533721,-117.713052
NAVAN Technologies,"733 Industrial Rd, San Carlos, CA 94070, USA",San Carlos,Private with SEC Filings,https://www.navanbio.com/,Cellular Transfection Technology,,0,10.0,37.5092328,-122.2534626
NKGEN Biotech,"3001 Daimler St, Santa Ana, CA 92705, USA",Santa Ana,Private with SEC Filings,https://nkgenbiotech.com/,Autologous and allogenic Natural Killer cell therapy,,8,10.0,33.7038578,-117.8517732
NVIGEN,"1875 S Winchester Blvd Suite 203, Campbell, CA 95008, USA",Campbell,Private,https://www.nvigen.com/,Nanoparticle Delivery for Imaging,,0,,37.2898348,-121.9502037
Nalu Medical,"2320 Faraday Ave #100, Carlsbad, CA 92008, USA",Carlsbad,Private with SEC Filings,https://nalumed.com/,Medical Devices,,3,10.0,33.1360967,-117.2757864
Nammi Therapeutics,"10940 Wilshire Blvd STE 600, Los Angeles, CA 90024, USA",Los Angeles,Private with SEC Filings,https://www.nammirx.com/,Nanocarriers Targeting Tumors,,1,10.0,34.0581176,-118.4451238
NanoCellect Biomedical,"9525 Towne Centre Dr #150, San Diego, CA 92121, USA",San Diego,Private,https://nanocellect.com/,Flow Cytometry Platform,,0,,32.8806451,-117.2068872
NanoImaging Services,"4940 Carroll Canyon Rd UNIT 115, San Diego, CA 92121, USA",San Diego,Defunct,https://www.nanoimagingservices.com/,Cryo-EM Services,,0,10.0,32.890696,-117.199476
NanoSomiX,"27068 La Paz Rd, Aliso Viejo, CA 92656, USA",Aliso Viejo ,Defunct,http://www.nanosomix.com/,Blood-based Neuro Assays,,0,10.0,33.5699189,-117.7068152
Nanome,"3655 Nobel Dr, San Diego, CA 92122, USA",San Diego,Private with SEC Filings,https://nanome.ai/,Virtual Reality Drug Discovery,,0,10.0,32.8678105,-117.2284322
Nanosyn,"3100 Central Expy, Santa Clara, CA 95051, USA",Santa Clara,Defunct,https://www.nanosyn.com/,Medicinal chemistry; drug screening,,0,10.0,37.3772254,-121.9836259
Nanotein,"2950 San Pablo Ave, Berkeley, CA 94702, USA",Berkeley,Private,https://nanoteintech.com/,Next-gen CAR-T Cell Activation & Expansion,,0,,37.8531904,-122.2874537
NantHealth,"2040 E Mariposa Ave, El Segundo, CA 90245, USA",El Segundo,Defunct,https://nanthealth.com/,Diagnostics,,0,10.0,33.9229531,-118.3899321
Natera,"201 Industrial Rd, San Carlos, CA 94070, USA",San Carlos,Clinical Stage,https://www.natera.com/,Prenatal Testing,,9,,37.5192783,-122.2641437
Nautilus Biotechnology,"835 Industrial Rd, San Carlos, CA 94070, USA",San Carlos,Public,https://www.nautilus.bio/,High-throughput; low-cost platform for analyzing and quantifying the human proteome,,0,10.0,37.5067474,-122.2506431
Navega Therapeutics,"3210 Merryfield Row, San Diego, CA 92121, USA",San Diego,Private,https://navegatx.com/en,Chronic Pain Treatment,,0,,32.9006146,-117.2350009
Navigate BioPharma,"1890 Rutherford Rd, Carlsbad, CA 92008, USA",Carlsbad,Clinical Stage,https://www.navigatebp.com/,Clinical Services,,1,,33.1360961,-117.2831889
NeOnc Technologies,"Two Dole Dr, Westlake Village, CA 91362, USA",Sacramento,Clinical Stage,https://neonc.com/,Non-invasive cancer therapies,,4,,34.1516402,-118.8042698
NeilMed Pharmaceuticals,"601 Aviation Blvd, Santa Rosa, CA 95403, USA",,Private,https://www.neilmed.com,,"NeilMed Pharmaceuticals Inc. is a USA based pharmaceutical, medical devices' manufacturer & supplier company based in Santa Rosa, California.",0,,38.5177162,-122.7962326
Nektar Therapeutics,"455 Mission Bay Boulevard South, San Francisco, CA 94158, USA",San Francisco,Clinical Stage,https://www.nektar.com/,Small Molecules; Biologics,,16,,37.7705235,-122.3886516
NeoGenomics,"31 Columbia, Aliso Viejo, CA 92656, USA",Aliso Viejo,Private,https://www.neogenomics.com/,Genetic & Diagnostic Testing,,0,,33.5875269,-117.7267858
Neodyne Biosciences,"47801 Fremont Blvd, Fremont, CA 94538, USA",Fremont,Clinical Stage,https://www.embracescartherapy.com/,Scar Therapy,,4,,37.4711603,-121.9404671
Neomorph,"5590 Morehouse Dr, San Diego, CA 92121, USA",San Diego,Private,https://neomorph.com/index.html#home,Molecular glue drug discovery,,0,,32.89663950000001,-117.1979286
Neopeutics,"400 Oyster Point Blvd, South San Francisco, CA 94080, USA",South SF,Private,http://www.neopeutics.com/,Drug discovery contract research,,0,,37.6652573,-122.3827431
Neoteryx,"421 Amapola Ave, Torrance, CA 90501, USA",Torrance,Private,https://www.neoteryx.com/,Microsampling Device,,0,,33.8443771,-118.3237419
NeuCyte,"319 N Bernardo Ave, Mountain View, CA 94043, USA",Mountain View,Private with SEC Filings,https://www.neucyte.com/,iPSC platform for drug discovery,,0,10.0,37.3873687,-122.0488103
NeurOptics,"9223 Research Dr, Irvine, CA 92618, USA",Irvine,Private with SEC Filings,https://neuroptics.com/,Pupillometry,,0,10.0,33.6387406,-117.7352174
NeuraSignal,"1109 Westwood Blvd, Los Angeles, CA 90024, USA",Los Angeles,Private,https://neurasignal.com/,Robotically Assisted Ultrasound System for Brain Health Assessment,,0,,34.0599878,-118.4454266
Neuralace Medical,"16990 Goldentop Rd Suite A, San Diego, CA 92127, USA",San Diego,Clinical Stage,https://neuralacemedical.com/,Nerve Stimulation for Pain Management,,3,,33.0180276,-117.108002
Neurelis,"3430 Carmel Mountain Rd Suite 300, San Diego, CA 92121, USA",San Diego,Private with SEC Filings,https://www.neurelis.com/,License; develop; and commercialize product candidates,,4,10.0,32.9198308,-117.2380394
NeuroDigiTech,"8400 Miramar Rd Suite 243C, San Diego, CA 92126, USA",Encinitas,Private,https://www.neurodigitech.com/home,Kits; Solutions; some Services,,0,,32.8919843,-117.1412883
NeuroLutions,"7033 Hayvenhurst Ave, Van Nuys, CA 91406, USA",Van Nuys,Private with SEC Filings,https://www.neurolutions.com/,Device for Stroke Recovery,,3,10.0,34.1983651,-118.4931923
NeuroPace,"455 N Bernardo Ave, Mountain View, CA 94043, USA",Mountain View,Clinical Stage,https://www.neuropace.com/,Implantable Neurological Treatments,,8,,37.388481,-122.04991
NeuroVision Imaging,"1395 Garden Hwy, Sacramento, CA 95833, USA",Sacramento,Clinical Stage,https://www.neurovision.com/,Medical device for retinal autofluorescence,,1,,38.60436,-121.518898
Neurocentria,"200 Pringle Ave, Walnut Creek, CA 94596, USA",Walnut Creek,Clinical Stage,https://www.neurocentria.com/,Small molecule for neurological disorders,,5,,37.9080096,-122.0667178
Neurocrine Biosciences,"6027 Edgewood Bend Ct, San Diego, CA 92130, USA",San Diego,Public,https://www.neurocrine.com/,Small Molecules,,20,10.0,32.955504,-117.1941454
Neuron23,"343 Oyster Point Blvd suite 120, South San Francisco, CA 94080, USA",South SF,Defunct,https://neuron23.com/,AI-drug discovery,,6,10.0,37.66516170000001,-122.3895386
Neurona Therapeutics,"170 Harbor Wy, South San Francisco, CA 94080, USA",South SF,Clinical Stage,https://www.neuronatherapeutics.com/,Neuronal stem-cell therapies,,2,,37.6529528,-122.4008106
Neuropore Therapies,"11585 Sorrento Valley Rd #106, San Diego, CA 92121, USA",San Diego,Private with SEC Filings,https://www.neuropore.com/,Small molecules for neurological conditions,,2,10.0,32.9128031,-117.2317073
Neuros Medical,"26800 Aliso Viejo Pkwy, Aliso Viejo, CA 92656, USA",Aliso Viejo,Private with SEC Filings,https://www.neurosmedical.com/,Neuromodulation Device,,1,10.0,33.5734565,-117.7300984
Neuroservices-Alliance,"6190 Cornerstone Ct E Suite 106, San Diego, CA 92121, USA",San Diego,Private,https://www.neuroservices-alliance.com/,Translational Data Contract Work,,0,,32.89530209999999,-117.1876372
Neuspera Medical,"51 Daggett Dr, San Jose, CA 95134, USA",San Jose,Private with SEC Filings,https://neuspera.com/,Neurostimulation device,,3,10.0,37.3945949,-121.932091
Neuvogen,"11095 Flintkote Ave Suite C, San Diego, CA 92121, USA",San Diego,Private,https://neuvogen.com/,Whole-cell Cancer Vaccines,,0,,32.9040842,-117.2313262
Nevro,"1800 Bridge Pkwy, Redwood City, CA 94065, USA",Redwood City,Private with SEC Filings,https://www.nevro.com/,Stimulation device for back pain,,10,10.0,37.5372138,-122.2582127
New World Medical,"10763 Edison Ct, Rancho Cucamonga, CA 91730, USA",Rancho Cucamonga,Private with SEC Filings,https://www.newworldmedical.com/,Surgical Tools,,7,10.0,34.0975155,-117.5700075
NewGen Surgical,"41 Simms St, San Rafael, CA 94901, USA",San Rafael,Defunct,https://newgensurgical.com/,Medical devices & surgical products,,0,10.0,37.9576939,-122.5066112
Newomics,"2612 Eighth St, Berkeley, CA 94710, USA",Berkeley,Private with SEC Filings,https://www.newomics.com/,Innovative and integrative platforms and solutions for personalized healthcare,,0,10.0,37.8581435,-122.2924582
Nexcella,"11400 W Olympic Blvd #200, Los Angeles, CA 90064, USA",Los Angeles,Clinical Stage,https://nexcella.com/,CAR T,,1,,34.0361814,-118.4427184
NextGen Jane,"400 29th St Suite 105, Oakland, CA 94609, USA",Oakland,Defunct,https://www.nextgenjane.com/,Menstrual Blood Diagnostics,,0,10.0,37.81798800000001,-122.2651007
Nexus-Dx,"6759 Mesa Ridge Rd nSuite 100, San Diego, CA 92121, USA",San Diego,Defunct,https://www.nexus-dx.com/,POC Diagnostics,,1,10.0,32.901644,-117.1729918
Nielsen BioSciences,"11125 Flintkote Ave suite g, San Diego, CA 92121, USA",San Diego,Defunct,https://nielsenbio.com/,Diagnostics and Biologics,,5,10.0,32.9046171,-117.2312669
Nihon Kohden,"15353 Barranca Pkwy, Irvine, CA 92618, USA",Irvine,Public,https://www.nihonkohden.com/index.html,Medical Electronic Equipment,,12,7.0,33.6603509,-117.738867
Nirmidas Biotech,"319 N Bernardo Ave, Mountain View, CA 94043, USA",Mountain View,Private,https://nirmidas.com/,Biological testing; assay and imaging technologies; based on a novel red to near IR fluorescence,,0,,37.3873687,-122.0488103
Nitrase Therapeutics,"1000 Marina Blvd Suite 200, Brisbane, CA 94005, USA",Brisbane,Private with SEC Filings,https://nitrasetx.com/,Nitration enzyme,,0,10.0,37.6744261,-122.3880333
Nitto Avecia Pharma Services,"4 Chrysler, Irvine, CA 92618, USA",Irvine,Private,https://www.aveciapharma.com/,Pharma Development,,0,,33.6504336,-117.7120984
Nitto BioPharma,"10618 Science Center Dr, San Diego, CA 92121, USA",San Diego,Private with SEC Filings,https://nittobiopharma.com/,Drug Delivery of siRNA,,1,10.0,32.8972606,-117.2316417
Nittobo America,"41900 Brown St, Murrieta, CA 92562, USA",Murrieta,Private with SEC Filings,https://www.nittobous.com/,Bulk antisera manufacturing,,0,10.0,33.5439498,-117.2000613
Nivagen,"3900 Duckhorn Dr, Sacramento, CA 95834, USA",Sacramento,Private with SEC Filings,https://nivagen.com/,Generics; 505(b)(2),,1,10.0,38.6395923,-121.5261108
Nkarta Therapeutics,"1150 Veterans Blvd, South San Francisco, CA 94080, USA",South SF,Private with SEC Filings,https://www.nkartatx.com/,Allogeneic cellular immunotherapy platform,,4,10.0,37.6650448,-122.3910301
Noctrix Health,"6700 Koll Center Pkwy Suite 310, Pleasanton, CA 94566, USA",Pleasanton,Clinical Stage,https://noctrixhealth.com/,Device for restless Leg,,7,,37.6581176,-121.9008174
Nodexus,"2130 Gold St #100, San Jose, CA 95002, USA",San Jose,Private with SEC Filings,https://nodexus.com/,Platform to characterize; sort; and isolate single cells from biological samples,,0,10.0,37.4200873,-121.9748212
Nosis Bio,"850 Marina Village Pkwy #100, Alameda, CA 94501, USA",Berkeley,Defunct,https://www.nosisbio.com/,Targeted Delivery Vehicles,,0,10.0,37.7819097,-122.2723234
NovaBay Pharmaceuticals,"2000 Powell St #1150, Emeryville, CA 94608, USA",Emeryville,Public,https://novabay.com/,Diagnostics,,8,10.0,37.8381041,-122.3008301
Novici Biotech,"Vacaville, CA 95696, USA",Vacaville,Defunct,https://www.novicibiotech.com/,Gene shuffling technology,,0,10.0,38.3514273,-121.9750699
NovoMedix,"7966 Arjons Dr Suite D, San Diego, CA 92126, USA",San Diego,Private with SEC Filings,https://novomedix.com/,Small molecules,,0,10.0,32.8949086,-117.1473908
Novodiax,"3517 Breakwater Ave, Hayward, CA 94545, USA",Hayward,Private,https://www.novodiax.com/,Companion Diagnostics; IVD & RUO 10 min Intraoperative IHC,,0,,37.6290005,-122.1220011
Novoron Bioscience,"1155 Island Ave suite 100, San Diego, CA 92101, USA",San Diego,Private,https://novoron.com/,Spinal cord nerve regeneration,,0,,32.7101473,-117.1541594
Novozymes,"1445 Drew Ave, Davis, CA 95618, USA",Davis,Private with SEC Filings,https://www.novozymes.com/en,Enzymes; Biologic Reagents,,13,10.0,38.5433809,-121.7281169
NoyMed,"655 N Central Ave 17th Floor, Suite 1746, Glendale, CA 91203, USA",Glendale,Private,https://noymed.com/,Biostatistics; Data management; SAS programming; Medical Writing; Pharmacovigilance and Safety Monitoring,,0,,34.1557111,-118.2584182
NuMedii,"66 Bovet Rd Dean of Counseling Advising and Matriculation, San Mateo, CA 94402, USA",San Mateo,Private with SEC Filings,https://numedii.com/,Data platform,,0,10.0,37.5511022,-122.3151642
NuVasive,"7475 Lusk Blvd, San Diego, CA 92121, USA",San Diego,Clinical Stage,https://www.nuvasive.com/,Minimally Invasive Spinal Surgery Devices,,19,,32.9006994,-117.2174531
Nucleus Biologics,"10929 Technology Pl, San Diego, CA 92127, USA",San Diego,Clinical Stage,https://nucleusbiologics.com/,Cell culture products,,1,,33.0090595,-117.0945699
Numerion Labs,"250 Sutter St #650, San Francisco, CA 94108, USA",San Francisco,Private,https://numerionlabs.ai/,AI for Drug Discovery,,0,,37.7899797,-122.4048609
Nura Bio,"171 Oyster Point Blvd Suite 401, South San Francisco, CA 94080, USA",South SF,Private,https://nurabio.com/,Small Molecule,,0,,37.663619,-122.3937411
Nuravax,"5270 California Ave #300, Irvine, CA 92617, USA",Irvine,Private with SEC Filings,https://www.nuravax.com/,DNA Vaccine,,2,10.0,33.6381318,-117.8491437
Nutcracker Therapeutics,"5858 Horton St, Emeryville, CA 94608, USA",Emeryville,Private,https://www.nutcrackerx.com/,Precision mRNA manufacturing platform,,0,,37.8396902,-122.2909492
O.N. Diagnostics,"2150 Shattuck Ave. # 610, Berkeley, CA 94704, USA",Berkeley,Private with SEC Filings,https://ondiagnostics.com/,Virtual Bone Stress Test,,0,10.0,37.870015,-122.268498
ORIC Pharmaceuticals,"240 E Grand Ave. #2, South San Francisco, CA 94080, USA",South SF,Clinical Stage,https://oricpharma.com/,Cancer; drug resistance,,9,,37.652378,-122.3982457
OSNovative Systems,"500 Laurelwood Rd #1, Santa Clara, CA 95054, USA",Santa Clara,Defunct,https://www.osnovative.com/,Wound Dressings & Bandages,,0,10.0,37.3809041,-121.9432426
OYC Americas,"2780 La Mirada Dr, Vista, CA 92081, USA",Vista,Private with SEC Filings,https://www.oycus.com/,Enzymes; proteins; antibodies; substrates,,0,10.0,33.148503,-117.218547
Octant Biotech,"1462 67th St, Emeryville, CA 94608, USA",Emeryville,Private,https://www.octant.bio/,Small Molecules,,0,,37.8490355,-122.2925468
Octave Bioscience,"1440 O'Brien Dr suite b, Menlo Park, CA 94025, USA",Menlo Park,Private,https://www.octavebio.com/,Care management platform for neurodegenerative diseases,,0,,37.4760798,-122.1433528
Ocutrx Technologies,"2933, 7545 Irvine Center Dr Ste 200, Irvine, CA 92618, USA",Irvine,Private with SEC Filings,https://www.ocutrxtech.com/,Surgical Visualization,,0,10.0,33.4210748,-117.5989997
Okami Medical,"8 Argonaut, Aliso Viejo, CA 92656, USA",Aliso Viejo,Private,https://okamimedical.com/,Vascular Occlusion System,,0,,33.5932715,-117.7257457
Olema Oncology,"780 Brannan St, San Francisco, CA 94103, USA",San Francisco,Private with SEC Filings,https://olema.com/,CAR T brake,,0,10.0,37.7735665,-122.4031362
Ometa Labs,"3210 Merryfield Row, San Diego, CA 92121, USA",Oceanside,Private,https://www.ometalabs.net/,Microbiome Analysis,,0,,32.9006146,-117.2350009
OmniAb,"5980 Horton St #600, Emeryville, CA 94608, USA",Emeryville,Private,https://www.omniab.com/,Antibody repertoires and high-throughput screening technologies,,0,,37.8413295,-122.2910394
OmniTier,"Plaza West, 3031 Tisch Way #110, San Jose, CA 95128, USA",San Jose,Private,https://omnitier.com/,High Performance Computing Solutions,,0,,37.4056349,-121.9181076
Omnica,"15560-D Rockfield Blvd, Irvine, CA 92618, USA",Irvine,Private,https://www.omnica.com/,Contract Medical Device Design & Manufacturing,,0,,33.6394429,-117.722224
Omniox,"181 2nd St, San Francisco, CA 94105, USA",San Francisco,Private,https://www.omniox.com/,Novel Biologics,,0,,37.7871713,-122.3983658
Onchilles Pharma,"9880 Campus Point Dr Suite 420, San Diego, CA 92121, USA",San Diego,Private with SEC Filings,https://www.onchillespharma.com/,Biologics for Cancer,,0,10.0,32.8853046,-117.2217714
OncoTracker,"9201 Sunset Blvd, West Hollywood, CA 90069, USA",West Hollywood,Private with SEC Filings,https://oncotracker.com/,Drug Discovery,,0,10.0,34.0908621,-118.3925175
Oncolytics Biotech,"322 11 Ave SW Suite 804, Calgary, AB T2R, Canada",San Diego,Public,https://oncolyticsbiotech.com/,Human Reovirus Delivery,,13,10.0,51.0427646,-114.0684574
Oncotelic Therapeutics,"29397 Agoura Rd UNIT 107, Agoura Hills, CA 91301, USA",Agoura Hills,Clinical Stage,https://www.oncotelic.com/,transforming growth factor beta 2 inhibitor,,3,,34.1446216,-118.7656666
Oncotherapeutics,"9201 Sunset Blvd Suite 317, West Hollywood, CA 90069, USA",West Hollywood,Clinical Stage,https://oncotherapeutics.com/,Contract preclinical study/clinical trial,,19,,34.0908621,-118.3925175
OnsiteGene,"6440 Lusk Blvd, San Diego, CA 92121, USA",San Diego,Private,https://www.onsitegene.com/,5-minute PCR,,0,,32.9014703,-117.2008909
Ophirex,"5643 Paradise Dr, Corte Madera, CA 94925, USA",San Francisco,Clinical Stage,https://www.ophirex.com/,Snakebite treatment,,3,,37.919774,-122.5087615
Opna Bio,"280 Utah Ave, South San Francisco, CA 94080, USA",South SF,Clinical Stage,https://www.opnabio.com/,Novel oncology therapeutics,,5,,37.6464465,-122.3948255
Optimum Therapeutics,"1815 Aston Ave, Carlsbad, CA 92008, USA",Carlsbad,Private with SEC Filings,https://optimumtx.com/,Drug delivery technology,,1,10.0,33.131652,-117.2891754
Optra Health,"2001 Gateway Pl, San Jose, CA 95110, USA",San Jose,Defunct,https://www.optrahealth.com/,Medical Devices and Lab Automation; Life Science Informatics; Knowledge Automation and Big Data solutions and services,,0,10.0,37.3696973,-121.9234425
OptraScan,"2001 Gateway Pl, San Jose, CA 95110, USA",San Jose,Private,https://www.optrascan.com/,Digital Slide Scanners; Software,,0,,37.3696973,-121.9234425
Oqory,"9380 Judicial Dr, San Diego, CA 92121, USA",San Diego,Private with SEC Filings,https://oqory.com/,ADC,,0,10.0,32.8781544,-117.2060442
Orbus Therapeutics,"3475 Edison Way, Menlo Park, CA 94025, USA",Palo Alto,Clinical Stage,https://www.orbustherapeutics.com/,Repurposing drug,,2,,37.476845,-122.1975609
Orca Bio,"3475 Edison Way C, Menlo Park, CA 94025, USA",Menlo Park,Private with SEC Filings,https://orcabio.com/,Cell Therapy & Manufacturing,,1,10.0,37.4768607,-122.1975742
Orchid Orthopedic Solutions,"3233 W Harvard St, Santa Ana, CA 92704, USA",Santa Ana,Private,https://www.orchid-ortho.com/,Contract Medical Device Work,,0,,33.7204451,-117.9133962
Organovo,"11555 Sorrento Valley Rd Ste 100, San Diego, CA 92121, USA",San Diego,Private,https://organovo.com/,Bioprinters,,0,,32.9123745,-117.2312956
Origami Therapeutics,"9276 Scranton Rd, San Diego, CA 92121, USA",San Diego ,Private with SEC Filings,https://origamitherapeutics.com/,Small Molecules for Genetic Diseases,,0,10.0,32.8919772,-117.2025228
Orlucent,"61 E Main St B, Los Gatos, CA 95030, USA",Los Gatos,Private with SEC Filings,https://www.orlucent.com/,Mole evaluation device,,7,10.0,37.2215246,-121.9797515
Orphagen Pharmaceuticals,"11558 Sorrento Valley Rd #4, San Diego, CA 92121, USA",San Diego,Private,https://www.orphagen.com/,Small molecule discovery,,0,,32.9117016,-117.2321213
Orphina Biotechnology,"4774 Park Granada, Calabasas, CA 91372, USA",Calabasas,Private,https://www.orphina.com/,Gene therapies for preserving and prolonging muscle health,,0,,34.1543136,-118.6418802
OrthAlign,"153 Technology Dr Suite 100, Irvine, CA 92618, USA",Irvine,Private,https://www.orthalign.com/,Inertial Navigation systems for joint replacement surgery,,0,,33.6630072,-117.7465872
OrthoTrophix,"303 Hegenberger Rd, Oakland, CA 94621, USA",Foster City,Clinical Stage,https://www.orthotrophix.com/,Bone; cartilage and teeth therapies,,4,,37.7349094,-122.1981761
Osel,"320 Logue Ave # 114, Mountain View, CA 94043, USA",Mountain View,Defunct,https://oselinc.com/,Live Organisms as Treatments,,4,10.0,37.3964473,-122.05078
Oska Wellness,"2725 Jefferson St # 15A, Carlsbad, CA 92008, USA",Carlsbad,Private,https://www.oskawellness.com/,Pain Relief Device,,0,,33.1650083,-117.3488396
Ossur,"200 Spectrum Suite 700, Irvine, CA 92618, USA",Irvine,Defunct,https://www.ossur.com/en-us,Orthopedic Devices,,0,10.0,33.6527183,-117.7478849
Outset Medical,"3052 Orchard Dr, San Jose, CA 95134, USA",San Jose,Public,https://www.outsetmedical.com/,Dialysis Device,,5,10.0,37.394737,-121.9365561
Oxford BioTherapeutics,"5941 Optical Ct, San Jose, CA 95138, USA",San Jose,Defunct,https://www.oxfordbiotherapeutics.com/,Antibody Therapies,,3,10.0,37.2538249,-121.7851731
PBS Biotech,"4721 Calle Carga, Camarillo, CA 93012, USA",Camarillo,Clinical Stage,https://www.pbsbiotech.com/,Single-Use Bioreactors,,1,,34.200693,-119.0088185
PCI Pharma Services,"6166 Nancy Ridge Dr, San Diego, CA 92121, USA",San Diego,Clinical Stage,https://pci.com/,Contract Manufacturing; Services,,1,,32.890768,-117.1858132
PHD Biosciences,"6122 Nancy Ridge Dr, San Diego, CA 92121, USA",La Jolla,Private with SEC Filings,https://phdbiosciences.com/,Topical Dermatology Products,,2,10.0,32.8894189,-117.1874104
PRC Clinical,"611 Gateway Blvd Ste 120, South San Francisco, CA 94080, USA",South SF,Private,https://prcclinical.com/,Clinical Trial Management and supporting all phases of clinical studies for pharmaceutical; biotech and regenerative medicine developers globally,,0,,37.65869929999999,-122.4001555
PTM Therapeutics,"930 Brittan Ave, San Carlos, CA 94070, USA",San Carlos,Defunct,https://www.ptmthera.com/,Monoclonal Antibodies,,0,10.0,37.5033721,-122.2492724
PUR Biologics,"Spectrum Center, 9180 Irvine Center Dr, Irvine, CA 92618, USA",Irvine,Defunct,https://purbiologics.com/,Orthobiologics,,0,10.0,33.6358237,-117.7398948
PURE Bioscience,"771 Jamacha Rd #512, El Cajon, CA 92019, USA",El Cajon,Public,https://www.purebio.com/,Antimicrobial,,0,10.0,32.7863088,-116.9271951
Pacific BioPharma Logistics,"11895 Community Rd, Poway, CA 92064, USA",Poway,Private,https://www.pacbiolog.com/,Clinical packaging; clinical labeling and kitting,,0,,32.933252,-117.0491935
Pacific Biosciences,"1305 O'Brien Dr, Menlo Park, CA 94025, USA",Menlo Park,Clinical Stage,https://www.pacb.com/,DNA sequencing,,12,,37.477395,-122.1446443
Pacific Science,"22841 Lockness Ave, Torrance, CA 90501, USA",Torrance,Clinical Stage,https://pacificscience.com/,Cold Storage Equipment & Services - Cryogenic; Freezers; Refrigerators; Repairs/PM; Rentals; Storage,,3,,33.8181086,-118.3073999
Pacira Biosciences,"10450 Science Center Dr, San Diego, CA 92121, USA",San Diego,Public,https://www.pacira.com/,Drug Delivery,,0,10.0,32.8949174,-117.2320064
Palisade Bio,"7750 El Camino Real Suite 2A, Carlsbad, CA 92009, USA",Carlsbad,Clinical Stage,https://palisadebio.com/,Small Molecules,,3,,33.082246,-117.2664634
Pandorum Technologies,"Centre for Cellular and Molecular Platforms, National Center for Biological, Sciences Campus, Bellary Road, Sahakar Nagar, Kodigehalli, Bengaluru, Karnataka 560065, India",San Carlos,Private,https://pandorum.com/,Tissue Engineering,,0,,13.0730523,77.5782067
Pangea Laboratory,"14762 Bentley Cir, Tustin, CA 92780, USA",Tustin,Defunct,https://pangealab.com/,Cancer Diagnostics,,1,10.0,33.7133437,-117.8074211
Paragon Genomics,"5020 Brandin Ct, Fremont, CA 94538, USA",Fremont,Private with SEC Filings,https://www.paragongenomics.com/,Sequencing tools,,0,10.0,37.5028521,-121.963503
Paramune,"930 Brittan Ave, San Carlos, CA 94070, USA",San Carlos,Private,https://www.paramune.com/,Biologic therapies for inflammatory diseases and cancer,,0,,37.5033721,-122.2492724
PercAssist,"2374 Walsh Ave, Santa Clara, CA 95051, USA",Santa Clara,Private,https://www.percassist-corp.com/,PSCA System for Hemodynamic Support in Chronic Heart Failure,,0,,37.36832,-121.9675407
Trepte Biostorage,"7776 Trade St # E, San Diego, CA 92121, USA",San Diego,Private,https://www.treptebiostorage.com/,Biostorage,,0,,32.889303,-117.1541176
